{
"type": "FeatureCollection",
"name": "reach1_s2_ref_2018_dry",
"crs": { "type": "name", "properties": { "name": "urn:ogc:def:crs:EPSG::32648" } },
"features": [
{ "type": "Feature", "properties": { "id": "ref_s2_2018_dry_9", "is_island": false, "length_m": 367.37816374559463 }, "geometry": { "type": "LineString", "coordinates": [ [ 550540.302115108119324, 2340416.613904096186161 ], [ 550541.380475380457938, 2340415.278636205475777 ], [ 550543.259577782358974, 2340412.702857014257461 ], [ 550544.201866312650964, 2340411.268321017269045 ], [ 550545.81944981275592, 2340408.520760662388057 ], [ 550546.616591851226985, 2340407.000771918799728 ], [ 550547.957078234059736, 2340404.107890912797302 ], [ 550548.601396867656149, 2340402.517087743151933 ], [ 550549.651876518968493, 2340399.506746107246727 ], [ 550550.137166603351943, 2340397.860448823310435 ], [ 550550.88752282934729, 2340394.761637793853879 ], [ 550551.209110758034512, 2340393.075701132882386 ], [ 550551.652117217890918, 2340389.918263955973089 ], [ 550551.806905922712758, 2340388.208924410864711 ], [ 550551.938296222593635, 2340385.023268928285688 ], [ 550551.924795003258623, 2340383.30698837665841 ], [ 550551.743303782655858, 2340380.123794196173549 ], [ 550551.561642663320526, 2340378.417101352009922 ], [ 550551.069017782225274, 2340375.267024375032634 ], [ 550550.720946258748882, 2340373.586355625651777 ], [ 550549.921931963413954, 2340370.499732810072601 ], [ 550549.410802155849524, 2340368.861273918766528 ], [ 550548.31309339008294, 2340365.867831129115075 ], [ 550547.643827757216059, 2340364.287361348047853 ], [ 550546.257996057509445, 2340361.415927078109235 ], [ 550545.437039994983934, 2340359.908667196985334 ], [ 550543.776431677048095, 2340357.186894927173853 ], [ 550542.811691436800174, 2340355.76736067654565 ], [ 550540.892299068509601, 2340353.221462564077228 ], [ 550539.793065629084595, 2340351.903324839659035 ], [ 550537.63337400846649, 2340349.557819274719805 ], [ 550536.410233586793765, 2340348.353772460483015 ], [ 550534.031041717156768, 2340346.231247937306762 ], [ 550532.69577383401338, 2340345.152887671254575 ], [ 550530.11999464337714, 2340343.2737852698192 ], [ 550528.685458639985882, 2340342.331496735103428 ], [ 550525.937898288364522, 2340340.713913237210363 ], [ 550524.417909542564303, 2340339.91677119769156 ], [ 550521.525028542149812, 2340338.576284817419946 ], [ 550519.934225366218016, 2340337.93196618091315 ], [ 550516.923883732990362, 2340336.881486530881375 ], [ 550515.277586446842179, 2340336.396196445915848 ], [ 550512.178775421343744, 2340335.645840221084654 ], [ 550510.492838757694699, 2340335.324252291582525 ], [ 550507.335401577176526, 2340334.881245831027627 ], [ 550505.626062042196281, 2340334.72645712736994 ], [ 550502.440406559151597, 2340334.595066827256233 ], [ 550500.724125997396186, 2340334.60856804670766 ], [ 550497.540931818075478, 2340334.790059267543256 ], [ 550495.834238984272815, 2340334.971720385365188 ], [ 550492.684161996934563, 2340335.46434526797384 ], [ 550491.003493251162581, 2340335.812416790984571 ], [ 550487.916870438377373, 2340336.611431085504591 ], [ 550486.278411539155059, 2340337.122560895513743 ], [ 550483.28496875683777, 2340338.220269658602774 ], [ 550481.704498974955641, 2340338.889535291586071 ], [ 550478.446108704898506, 2340340.462122404016554 ], [ 550477.682056693942286, 2340340.854277137666941 ], [ 550454.95624470571056, 2340353.232297255191952 ], [ 550454.212355121504515, 2340353.66146989306435 ], [ 550451.123795397346839, 2340355.545862656086683 ], [ 550449.704261148930527, 2340356.51060289517045 ], [ 550447.158363034483045, 2340358.429995264858007 ], [ 550445.840225309832022, 2340359.529228704515845 ], [ 550443.494719746871851, 2340361.688920323271304 ], [ 550442.290672929142602, 2340362.912060748785734 ], [ 550440.168148412369192, 2340365.291252611204982 ], [ 550439.089788140030578, 2340366.626520501915365 ], [ 550437.210685738129541, 2340369.202299693133682 ], [ 550436.268397207837552, 2340370.636835690122098 ], [ 550434.650813707732596, 2340373.384396045003086 ], [ 550433.85367166926153, 2340374.904384788591415 ], [ 550432.513185286428779, 2340377.797265794593841 ], [ 550431.868866652832367, 2340379.38806896423921 ], [ 550430.818387001520023, 2340382.398410600144416 ], [ 550430.333096917136572, 2340384.044707884080708 ], [ 550429.582740691141225, 2340387.143518913537264 ], [ 550429.261152762454003, 2340388.829455574508756 ], [ 550428.818146302597597, 2340391.986892751418054 ], [ 550428.663357597775757, 2340393.696232296526432 ], [ 550428.53196729789488, 2340396.881887779105455 ], [ 550428.545468517229892, 2340398.598168330732733 ], [ 550428.726959737832658, 2340401.781362511217594 ], [ 550428.908620857167989, 2340403.488055355381221 ], [ 550429.401245738263242, 2340406.638132332358509 ], [ 550429.749317261739634, 2340408.318801081739366 ], [ 550430.548331557074562, 2340411.405423897318542 ], [ 550431.059461364638992, 2340413.043882788624614 ], [ 550432.157170130405575, 2340416.037325578276068 ], [ 550432.826435763272457, 2340417.61779535934329 ], [ 550434.212267462979071, 2340420.489229629281908 ], [ 550435.033223525504582, 2340421.996489510405809 ], [ 550436.693831843440421, 2340424.71826178021729 ], [ 550437.658572083688341, 2340426.137796030845493 ], [ 550439.577964451978914, 2340428.683694143313915 ], [ 550440.677197891403921, 2340430.001831867732108 ], [ 550442.836889512022026, 2340432.347337432671338 ], [ 550444.06002993369475, 2340433.551384246908128 ], [ 550446.439221803331748, 2340435.673908770084381 ], [ 550447.774489686475135, 2340436.752269036136568 ], [ 550450.350268877111375, 2340438.631371437571943 ], [ 550451.784804880502634, 2340439.573659972287714 ], [ 550454.532365232123993, 2340441.19124347018078 ], [ 550456.052353977924213, 2340441.988385509699583 ], [ 550458.945234978338704, 2340443.328871889971197 ], [ 550460.5360381542705, 2340443.973190526477993 ], [ 550463.546379787498154, 2340445.023670176509768 ], [ 550465.192677073646337, 2340445.508960261475295 ], [ 550468.291488099144772, 2340446.259316486306489 ], [ 550469.977424762793817, 2340446.580904415808618 ], [ 550473.134861943311989, 2340447.023910876363516 ], [ 550474.844201478292234, 2340447.178699580021203 ], [ 550478.029856961336918, 2340447.31008988013491 ], [ 550479.74613752309233, 2340447.296588660683483 ], [ 550482.929331702413037, 2340447.115097439847887 ], [ 550484.6360245362157, 2340446.933436322025955 ], [ 550487.786101523553953, 2340446.440811439417303 ], [ 550489.466770269325934, 2340446.092739916406572 ], [ 550492.553393082111143, 2340445.293725621886551 ], [ 550494.191851981333457, 2340444.7825958118774 ], [ 550497.185294763650745, 2340443.684887048788369 ], [ 550498.765764545532875, 2340443.015621415805072 ], [ 550502.024154815590009, 2340441.443034303374588 ], [ 550502.788206826546229, 2340441.050879569724202 ], [ 550525.514018814777955, 2340428.672859452199191 ], [ 550526.257908398984, 2340428.243686814326793 ], [ 550529.346468123141676, 2340426.35929405130446 ], [ 550530.766002371557988, 2340425.394553812220693 ], [ 550533.31190048600547, 2340423.475161442533135 ], [ 550534.630038210656494, 2340422.375928002875298 ], [ 550536.975543773616664, 2340420.216236384119838 ], [ 550538.179590591345914, 2340418.993095958605409 ], [ 550540.302115108119324, 2340416.613904096186161 ] ] } },
{ "type": "Feature", "properties": { "id": "ref_s2_2018_dry_10", "is_island": false, "length_m": 349.10673721488371 }, "geometry": { "type": "LineString", "coordinates": [ [ 542661.473008152563125, 2354955.466505269519985 ], [ 542662.356452013133094, 2354953.994999867398292 ], [ 542663.861484012100846, 2354951.184209418483078 ], [ 542664.596441099303775, 2354949.633197072893381 ], [ 542665.818720316281542, 2354946.688422414474189 ], [ 542666.398112589027733, 2354945.072840225882828 ], [ 542667.325867806212045, 2354942.022441150154918 ], [ 542667.744115400942974, 2354940.35784805752337 ], [ 542668.368411829229444, 2354937.231201571878046 ], [ 542668.62148679245729, 2354935.533628518693149 ], [ 542668.936312115285546, 2354932.360845941584557 ], [ 542669.021777197369374, 2354930.646641478873789 ], [ 542669.024099475122057, 2354927.458278438542038 ], [ 542668.941131600295193, 2354925.743951300159097 ], [ 542668.630928468075581, 2354922.570713474880904 ], [ 542668.38032666221261, 2354920.872773562092334 ], [ 542667.760585546027869, 2354917.745220970828086 ], [ 542667.344763240893371, 2354916.080020372290164 ], [ 542666.421452586888336, 2354913.028273055329919 ], [ 542665.844414379331283, 2354911.411848566494882 ], [ 542664.626426173257641, 2354908.465296515729278 ], [ 542663.893729257048108, 2354906.913215189240873 ], [ 542662.392793389852159, 2354904.100235310848802 ], [ 542661.511494037113152, 2354902.627444537822157 ], [ 542659.742065343190916, 2354899.975127368234098 ], [ 542658.720650945906527, 2354898.59581092512235 ], [ 542656.699769993312657, 2354896.129699731711298 ], [ 542655.548077333369292, 2354894.857141193468124 ], [ 542653.295206304290332, 2354892.600985967554152 ], [ 542652.024326810031198, 2354891.447440767195076 ], [ 542649.561162089230493, 2354889.422969522885978 ], [ 542648.183335025678389, 2354888.399546931963414 ], [ 542645.533598234062083, 2354886.626256431918591 ], [ 542644.062092828098685, 2354885.742812568787485 ], [ 542641.251302381511778, 2354884.237780571449548 ], [ 542639.700290034408681, 2354883.502823483664542 ], [ 542636.75551537447609, 2354882.280544266104698 ], [ 542635.139933191123419, 2354881.701151994988322 ], [ 542632.08953411586117, 2354880.773396778386086 ], [ 542630.424941014032811, 2354880.355149181094021 ], [ 542627.298294542124495, 2354879.730852755717933 ], [ 542625.600721473572776, 2354879.477777790278196 ], [ 542622.427938905311748, 2354879.162952468264848 ], [ 542620.713734441087581, 2354879.077487385831773 ], [ 542617.525371402269229, 2354879.075165108311921 ], [ 542615.811044262489304, 2354879.158132982905954 ], [ 542612.637806433369406, 2354879.468336115591228 ], [ 542610.939866528031416, 2354879.718937920406461 ], [ 542607.812313928734511, 2354880.338679037988186 ], [ 542606.147113339044154, 2354880.754501340910792 ], [ 542603.095366010675207, 2354881.677811998408288 ], [ 542601.478941535926424, 2354882.254850200843066 ], [ 542598.532389472587965, 2354883.472838412504643 ], [ 542596.980308152618818, 2354884.205535325687379 ], [ 542594.167328271782026, 2354885.706471194047481 ], [ 542592.694537503644824, 2354886.587770543526858 ], [ 542589.684792675310746, 2354888.595648379996419 ], [ 542588.982279698364437, 2354889.089648751076311 ], [ 542575.527379126520827, 2354899.053300836589187 ], [ 542574.849951816722751, 2354899.581176832318306 ], [ 542572.051506171817891, 2354901.874392773490399 ], [ 542570.778947639279068, 2354903.026085428427905 ], [ 542568.522792410454713, 2354905.278956460766494 ], [ 542567.369247213937342, 2354906.549835951067507 ], [ 542565.344775968929753, 2354909.01300067268312 ], [ 542564.321353376959451, 2354910.390827737748623 ], [ 542562.548062875517644, 2354913.040564531460404 ], [ 542561.664619014947675, 2354914.512069933582097 ], [ 542560.159587015979923, 2354917.322860382497311 ], [ 542559.424629928776994, 2354918.873872728087008 ], [ 542558.202350711799227, 2354921.8186473865062 ], [ 542557.622958439053036, 2354923.434229575097561 ], [ 542556.695203221868724, 2354926.484628650825471 ], [ 542556.276955627137795, 2354928.149221743457019 ], [ 542555.652659198851325, 2354931.275868229102343 ], [ 542555.399584235623479, 2354932.97344128228724 ], [ 542555.084758912795223, 2354936.146223859395832 ], [ 542554.999293830711395, 2354937.8604283221066 ], [ 542554.996971552958712, 2354941.048791362438351 ], [ 542555.079939427785575, 2354942.763118500821292 ], [ 542555.390142560005188, 2354945.936356326099485 ], [ 542555.640744365868159, 2354947.634296238888055 ], [ 542556.2604854820529, 2354950.761848830152303 ], [ 542556.676307787187397, 2354952.427049428690225 ], [ 542557.599618441192433, 2354955.47879674565047 ], [ 542558.176656648749486, 2354957.095221234485507 ], [ 542559.394644854823127, 2354960.041773285251111 ], [ 542560.127341771032661, 2354961.593854611739516 ], [ 542561.62827763822861, 2354964.406834490131587 ], [ 542562.509576990967616, 2354965.879625263158232 ], [ 542564.279005684889853, 2354968.531942432746291 ], [ 542565.300420082174242, 2354969.911258875858039 ], [ 542567.321301034768112, 2354972.377370069269091 ], [ 542568.472993694711477, 2354973.649928607512265 ], [ 542570.725864723790437, 2354975.906083833426237 ], [ 542571.996744218049571, 2354977.059629033785313 ], [ 542574.459908938850276, 2354979.084100278094411 ], [ 542575.83773600240238, 2354980.107522869016975 ], [ 542578.487472794018686, 2354981.880813369061798 ], [ 542579.958978199982084, 2354982.764257232192904 ], [ 542582.769768646568991, 2354984.269289229530841 ], [ 542584.320780993672088, 2354985.004246317315847 ], [ 542587.265555653604679, 2354986.226525534875691 ], [ 542588.88113783695735, 2354986.805917805992067 ], [ 542591.931536912219599, 2354987.733673022594303 ], [ 542593.596130014047958, 2354988.151920619886369 ], [ 542596.722776485956274, 2354988.776217045262456 ], [ 542598.420349554507993, 2354989.029292010702193 ], [ 542601.59313212276902, 2354989.344117332715541 ], [ 542603.307336586993188, 2354989.429582415148616 ], [ 542606.49569962581154, 2354989.431904692668468 ], [ 542608.210026765591465, 2354989.348936818074435 ], [ 542611.383264594711363, 2354989.038733685389161 ], [ 542613.081204500049353, 2354988.788131880573928 ], [ 542616.208757099346258, 2354988.168390762992203 ], [ 542617.873957689036615, 2354987.752568460069597 ], [ 542620.925705017405562, 2354986.829257802572101 ], [ 542622.542129492154345, 2354986.252219600137323 ], [ 542625.488681555492803, 2354985.034231388475746 ], [ 542627.040762875461951, 2354984.30153447529301 ], [ 542629.853742756298743, 2354982.800598606932908 ], [ 542631.326533524435945, 2354981.919299257453531 ], [ 542634.336278352770023, 2354979.91142142098397 ], [ 542635.038791329716332, 2354979.417421049904078 ], [ 542648.493691901559941, 2354969.453768964391202 ], [ 542649.171119211358018, 2354968.925892968662083 ], [ 542651.969564856262878, 2354966.63267702748999 ], [ 542653.242123388801701, 2354965.480984372552484 ], [ 542655.498278617626056, 2354963.228113340213895 ], [ 542656.651823814143427, 2354961.957233849912882 ], [ 542658.676295059151016, 2354959.494069128297269 ], [ 542659.699717651121318, 2354958.116242063231766 ], [ 542661.473008152563125, 2354955.466505269519985 ] ] } }
]
}
