{
"type": "FeatureCollection",
"name": "reach2_s2_ref_2018_dry",
"crs": { "type": "name", "properties": { "name": "urn:ogc:def:crs:EPSG::32648" } },
"features": [
{ "type": "Feature", "properties": { "id": "ref_s2_2018_dry_2", "is_island": false, "length_m": 406.03691603718545 }, "geometry": { "type": "LineString", "coordinates": [ [ 593803.316763791954145, 2321747.58079653698951 ], [ 593804.332817568560131, 2321746.197526518721133 ], [ 593806.091939674923196, 2321743.538362426217645 ], [ 593806.967516703880392, 2321742.062162544578314 ], [ 593808.457524496363476, 2321739.243378935847431 ], [ 593809.184192491928115, 2321737.688465802930295 ], [ 593810.39073637931142, 2321734.737209109589458 ], [ 593810.961497132782824, 2321733.118557384703308 ], [ 593811.872957440209575, 2321730.063249816652387 ], [ 593812.28231421043165, 2321728.39644801011309 ], [ 593812.889913077815436, 2321725.266513844951987 ], [ 593813.133923535817303, 2321723.567614170257002 ], [ 593813.431809452595189, 2321720.393196386750787 ], [ 593813.508123645675369, 2321718.678560171276331 ], [ 593813.493427806999534, 2321715.490230155177414 ], [ 593813.401310787536204, 2321713.776370277628303 ], [ 593813.074174722773023, 2321710.604833386372775 ], [ 593812.81451362837106, 2321708.908255262766033 ], [ 593812.178087836597115, 2321705.784055129159242 ], [ 593811.753383344621398, 2321704.121097728144377 ], [ 593810.813796953763813, 2321701.07432210771367 ], [ 593810.228139202925377, 2321699.461000626441091 ], [ 593808.994440943235531, 2321696.520991632714868 ], [ 593808.253470134921372, 2321694.97284322977066 ], [ 593806.737541197333485, 2321692.167914762161672 ], [ 593805.848393285064958, 2321690.699848954100162 ], [ 593804.064832891337574, 2321688.057014001067728 ], [ 593803.036070861271583, 2321686.683169072493911 ], [ 593801.002055673510768, 2321684.227879581507295 ], [ 593799.843587058596313, 2321682.961486399173737 ], [ 593797.578705755295232, 2321680.717388150282204 ], [ 593796.301687248400412, 2321679.570642781443894 ], [ 593793.827751874807291, 2321677.559347667265683 ], [ 593792.444481856422499, 2321676.543293891008943 ], [ 593789.785317767644301, 2321674.784171786624938 ], [ 593788.309117880067788, 2321673.908594754524529 ], [ 593785.49033427820541, 2321672.418586965184659 ], [ 593783.935421140864491, 2321671.691918967757374 ], [ 593780.984164443798363, 2321670.48537507886067 ], [ 593779.365512728807516, 2321669.914614328648895 ], [ 593776.310205152491108, 2321669.003154018893838 ], [ 593774.643403354333714, 2321668.593797250650823 ], [ 593771.513469183119014, 2321667.986198381986469 ], [ 593769.814569508307613, 2321667.742187924217433 ], [ 593766.640151722240262, 2321667.4443020070903 ], [ 593764.925515514332801, 2321667.367987814825028 ], [ 593761.737185488920659, 2321667.382683652918786 ], [ 593760.023325623711571, 2321667.474800671916455 ], [ 593756.851788725121878, 2321667.801936737261713 ], [ 593755.15521059918683, 2321668.061597832012922 ], [ 593752.031010468257591, 2321668.698023623321205 ], [ 593750.368053068290465, 2321669.122728114947677 ], [ 593747.321277448907495, 2321670.062314505688846 ], [ 593745.70795596181415, 2321670.647972258739173 ], [ 593742.76794697646983, 2321671.881670514587313 ], [ 593741.219798566424288, 2321672.622641326393932 ], [ 593738.414870099863037, 2321674.138570263516158 ], [ 593736.94680429471191, 2321675.027718173805624 ], [ 593733.947819518740289, 2321677.051632100716233 ], [ 593733.247953295707703, 2321677.549375148490071 ], [ 593697.061451362562366, 2321704.646537581458688 ], [ 593696.386851248797029, 2321705.178021886851639 ], [ 593693.60068566550035, 2321707.486142021603882 ], [ 593692.3342924809549, 2321708.644610638730228 ], [ 593690.09019423648715, 2321710.909491937607527 ], [ 593688.94344886217732, 2321712.186510450672358 ], [ 593686.932153751375154, 2321714.660445820074528 ], [ 593685.916099974769168, 2321716.043715838342905 ], [ 593684.156977868406102, 2321718.702879930846393 ], [ 593683.281400839448906, 2321720.179079812485725 ], [ 593681.791393046965823, 2321722.997863421216607 ], [ 593681.064725051401183, 2321724.552776554133743 ], [ 593679.858181164017878, 2321727.504033247474581 ], [ 593679.287420410546474, 2321729.12268497236073 ], [ 593678.375960103119723, 2321732.177992540411651 ], [ 593677.966603332897648, 2321733.844794346950948 ], [ 593677.359004465513863, 2321736.974728512112051 ], [ 593677.114994007511996, 2321738.673628186807036 ], [ 593676.817108090734109, 2321741.848045970313251 ], [ 593676.74079389765393, 2321743.562682185787708 ], [ 593676.755489736329764, 2321746.751012201886624 ], [ 593676.847606755793095, 2321748.464872079435736 ], [ 593677.174742820556276, 2321751.636408970691264 ], [ 593677.434403914958239, 2321753.332987094298005 ], [ 593678.070829706732184, 2321756.457187227904797 ], [ 593678.495534198707901, 2321758.120144628919661 ], [ 593679.435120589565486, 2321761.166920249350369 ], [ 593680.020778340403922, 2321762.780241730622947 ], [ 593681.254476600093767, 2321765.720250724349171 ], [ 593681.995447408407927, 2321767.268399127293378 ], [ 593683.511376345995814, 2321770.073327594902366 ], [ 593684.40052425826434, 2321771.541393402963877 ], [ 593686.184084651991725, 2321774.184228355996311 ], [ 593687.212846682057716, 2321775.558073284570128 ], [ 593689.246861869818531, 2321778.013362775556743 ], [ 593690.405330484732985, 2321779.279755957890302 ], [ 593692.670211788034067, 2321781.523854206781834 ], [ 593693.947230294928886, 2321782.670599575620145 ], [ 593696.421165668522008, 2321784.681894689798355 ], [ 593697.8044356869068, 2321785.697948466055095 ], [ 593700.463599775684997, 2321787.4570705704391 ], [ 593701.93979966326151, 2321788.33264760253951 ], [ 593704.758583265123889, 2321789.82265539187938 ], [ 593706.313496402464807, 2321790.549323389306664 ], [ 593709.264753099530935, 2321791.755867278203368 ], [ 593710.883404814521782, 2321792.326628028415143 ], [ 593713.938712390838191, 2321793.238088338170201 ], [ 593715.605514188995585, 2321793.647445106413215 ], [ 593718.735448360210285, 2321794.255043975077569 ], [ 593720.434348035021685, 2321794.499054432846606 ], [ 593723.608765821089037, 2321794.796940349973738 ], [ 593725.323402028996497, 2321794.87325454223901 ], [ 593728.51173205440864, 2321794.858558704145253 ], [ 593730.225591919617727, 2321794.766441685147583 ], [ 593733.39712881820742, 2321794.439305619802326 ], [ 593735.093706944142468, 2321794.179644525051117 ], [ 593738.217907075071707, 2321793.543218733742833 ], [ 593739.880864475038834, 2321793.118514242116362 ], [ 593742.927640094421804, 2321792.178927851375192 ], [ 593744.540961581515148, 2321791.593270098324865 ], [ 593747.480970566859469, 2321790.359571842476726 ], [ 593749.029118976905011, 2321789.618601030670106 ], [ 593751.834047443466261, 2321788.102672093547881 ], [ 593753.302113248617388, 2321787.213524183258414 ], [ 593756.30109802458901, 2321785.189610256347805 ], [ 593757.000964247621596, 2321784.691867208573967 ], [ 593793.187466180766933, 2321757.594704775605351 ], [ 593793.862066294532269, 2321757.0632204702124 ], [ 593796.648231877828948, 2321754.755100335460156 ], [ 593797.914625062374398, 2321753.596631718333811 ], [ 593800.158723306842148, 2321751.331750419456512 ], [ 593801.305468681151979, 2321750.05473190639168 ], [ 593803.316763791954145, 2321747.58079653698951 ] ] } },
{ "type": "Feature", "properties": { "id": "ref_s2_2018_dry_3", "is_island": false, "length_m": 403.60789387622532 }, "geometry": { "type": "LineString", "coordinates": [ [ 591245.761390391620807, 2323025.713763223029673 ], [ 591246.740154849481769, 2323024.303862041793764 ], [ 591248.427662075613625, 2323021.598684856668115 ], [ 591249.263519039028324, 2323020.099637031089514 ], [ 591250.677746723755263, 2323017.242081383243203 ], [ 591251.362646423862316, 2323015.668323579244316 ], [ 591252.489974784548394, 2323012.685909284744412 ], [ 591253.017321265186183, 2323011.052597646601498 ], [ 591253.846893511828966, 2323007.974046988412738 ], [ 591254.211608138517477, 2323006.296911199577153 ], [ 591254.735435035894625, 2323003.151872305665165 ], [ 591254.934005408431403, 2323001.44706409657374 ], [ 591255.147042217664421, 2322998.265825410373509 ], [ 591255.177555994014256, 2322996.549763021990657 ], [ 591255.077751053962857, 2322993.362961609382182 ], [ 591254.93991437018849, 2322991.652171656023711 ], [ 591254.528228857088834, 2322988.490498159080744 ], [ 591254.223369155428372, 2322986.801456484012306 ], [ 591253.50376782566309, 2322983.695359545759857 ], [ 591253.034821072244085, 2322982.044332544784993 ], [ 591252.014234080910683, 2322979.023725578561425 ], [ 591251.385716487769969, 2322977.426613540388644 ], [ 591250.073972643353045, 2322974.520586638245732 ], [ 591249.291937182308175, 2322972.992770634125918 ], [ 591247.701669297297485, 2322970.229310427326709 ], [ 591246.773647392634302, 2322968.78550415020436 ], [ 591244.920170613448136, 2322966.191224267706275 ], [ 591243.855099628097378, 2322964.845332369208336 ], [ 591241.756263955147006, 2322962.445217151660472 ], [ 591240.564401094336063, 2322961.210201294161379 ], [ 591238.240419462206773, 2322959.027365161571652 ], [ 591236.933243026724085, 2322957.915119234472513 ], [ 591234.406496639130637, 2322955.970584082882851 ], [ 591232.99659545684699, 2322954.991819624323398 ], [ 591230.29141826776322, 2322953.304312395863235 ], [ 591228.792370449169539, 2322952.468455436639488 ], [ 591225.934814798180014, 2322951.054227749817073 ], [ 591224.361056994181126, 2322950.369328049942851 ], [ 591221.378642698866315, 2322949.241999689023942 ], [ 591219.745331064914353, 2322948.714653209783137 ], [ 591216.66678040730767, 2322947.885080962907523 ], [ 591214.989644611719996, 2322947.520366334822029 ], [ 591211.844605715130456, 2322946.996539436746389 ], [ 591210.139797518029809, 2322946.797969065606594 ], [ 591206.958558830665424, 2322946.584932256489992 ], [ 591205.242496431688778, 2322946.554418480023742 ], [ 591202.055695023620501, 2322946.654223420191556 ], [ 591200.344905075849965, 2322946.792060103267431 ], [ 591197.183231570175849, 2322947.20374561753124 ], [ 591195.494189901510254, 2322947.508605318143964 ], [ 591192.388092963956296, 2322948.22820664756 ], [ 591190.737065956695005, 2322948.697153402958065 ], [ 591187.716458991519175, 2322949.717740394175053 ], [ 591186.119346957304515, 2322950.346257986035198 ], [ 591183.213320054928772, 2322951.658001830335706 ], [ 591181.685504049062729, 2322952.440037291962653 ], [ 591178.549638497177511, 2322954.244610510300845 ], [ 591177.816012860042974, 2322954.691101592034101 ], [ 591140.808423725306056, 2322978.478124756366014 ], [ 591140.097590060555376, 2322978.960075317882001 ], [ 591137.153703658725135, 2322981.063327600713819 ], [ 591135.807811757549644, 2322982.128398588392884 ], [ 591133.407696535345167, 2322984.227234265767038 ], [ 591132.172680689487606, 2322985.419097115285695 ], [ 591129.989844548632391, 2322987.743078755680472 ], [ 591128.877598624443635, 2322989.050255187787116 ], [ 591126.933063471806236, 2322991.577001577243209 ], [ 591125.954299013945274, 2322992.986902758479118 ], [ 591124.266791787813418, 2322995.692079943604767 ], [ 591123.430934824398719, 2322997.191127769183367 ], [ 591122.01670713967178, 2323000.048683417029679 ], [ 591121.331807439564727, 2323001.622441221028566 ], [ 591120.204479078878649, 2323004.60485551552847 ], [ 591119.67713259824086, 2323006.238167153671384 ], [ 591118.847560351598077, 2323009.316717811860144 ], [ 591118.482845724909566, 2323010.993853600695729 ], [ 591117.959018827532418, 2323014.138892494607717 ], [ 591117.76044845499564, 2323015.843700703699142 ], [ 591117.547411645762622, 2323019.024939389899373 ], [ 591117.516897869412787, 2323020.741001778282225 ], [ 591117.616702809464186, 2323023.9278031908907 ], [ 591117.754539493238553, 2323025.638593144249171 ], [ 591118.166225006338209, 2323028.800266641192138 ], [ 591118.471084707998671, 2323030.489308316260576 ], [ 591119.190686037763953, 2323033.595405254513025 ], [ 591119.659632791182958, 2323035.246432255487889 ], [ 591120.68021978251636, 2323038.267039221711457 ], [ 591121.308737375657074, 2323039.864151259884238 ], [ 591122.620481220073998, 2323042.77017816202715 ], [ 591123.402516681118868, 2323044.297994166146964 ], [ 591124.992784566129558, 2323047.061454372946173 ], [ 591125.920806470792741, 2323048.505260650068521 ], [ 591127.774283249978907, 2323051.099540532566607 ], [ 591128.839354235329665, 2323052.445432431064546 ], [ 591130.938189908280037, 2323054.84554764861241 ], [ 591132.13005276909098, 2323056.080563506111503 ], [ 591134.45403440122027, 2323058.26339963870123 ], [ 591135.761210836702958, 2323059.375645565800369 ], [ 591138.287957224296406, 2323061.320180717390031 ], [ 591139.697858406580053, 2323062.298945175949484 ], [ 591142.403035595663823, 2323063.986452404409647 ], [ 591143.902083414257504, 2323064.822309363633394 ], [ 591146.759639065247029, 2323066.236537050455809 ], [ 591148.333396869245917, 2323066.921436750330031 ], [ 591151.315811164560728, 2323068.04876511124894 ], [ 591152.94912279851269, 2323068.576111590489745 ], [ 591156.027673456119373, 2323069.405683837365359 ], [ 591157.704809251707047, 2323069.770398465450853 ], [ 591160.849848148296587, 2323070.294225363526493 ], [ 591162.554656345397234, 2323070.492795734666288 ], [ 591165.735895032761618, 2323070.70583254378289 ], [ 591167.451957431738265, 2323070.73634632024914 ], [ 591170.638758839806542, 2323070.636541380081326 ], [ 591172.349548787577078, 2323070.498704697005451 ], [ 591175.511222293251194, 2323070.087019182741642 ], [ 591177.200263961916789, 2323069.782159482128918 ], [ 591180.306360899470747, 2323069.062558152712882 ], [ 591181.957387906732038, 2323068.593611397314817 ], [ 591184.977994871907867, 2323067.573024406097829 ], [ 591186.575106906122528, 2323066.944506814237684 ], [ 591189.481133808498271, 2323065.632762969937176 ], [ 591191.008949814364314, 2323064.850727508310229 ], [ 591194.144815366249532, 2323063.046154289972037 ], [ 591194.878441003384069, 2323062.59966320823878 ], [ 591231.886030138120987, 2323038.812640043906868 ], [ 591232.596863802871667, 2323038.330689482390881 ], [ 591235.540750204701908, 2323036.227437199559063 ], [ 591236.886642105877399, 2323035.162366211879998 ], [ 591239.286757328081876, 2323033.063530534505844 ], [ 591240.521773173939437, 2323031.871667684987187 ], [ 591242.704609314794652, 2323029.54768604459241 ], [ 591243.816855238983408, 2323028.240509612485766 ], [ 591245.761390391620807, 2323025.713763223029673 ] ] } },
{ "type": "Feature", "properties": { "id": "ref_s2_2018_dry_4", "is_island": false, "length_m": 366.81585852593702 }, "geometry": { "type": "LineString", "coordinates": [ [ 589717.517035418422893, 2326647.508217019960284 ], [ 589717.361875787144527, 2326645.79891110630706 ], [ 589716.918184167006984, 2326642.641570136416703 ], [ 589716.59623039374128, 2326640.955703299026936 ], [ 589715.845201737829484, 2326637.857055176049471 ], [ 589715.359554413123988, 2326636.210863234009594 ], [ 589714.308421535883099, 2326633.200749625451863 ], [ 589713.663757712347433, 2326631.610086317639798 ], [ 589712.322643598075956, 2326628.717496264725924 ], [ 589711.525171738234349, 2326627.19768053945154 ], [ 589709.906992050935514, 2326624.450471270363778 ], [ 589708.964392241439782, 2326623.016139779239893 ], [ 589707.084730936214328, 2326620.440768420696259 ], [ 589706.006080934195779, 2326619.105734569486231 ], [ 589703.883040173561312, 2326616.72700335085392 ], [ 589702.678727967082523, 2326615.504124242346734 ], [ 589700.332753798924387, 2326613.344941650982946 ], [ 589699.01437756663654, 2326612.245994274038821 ], [ 589696.468062999774702, 2326610.327154414728284 ], [ 589695.048319439054467, 2326609.362722244113684 ], [ 589692.326186875463463, 2326607.702704594470561 ], [ 589690.818748876452446, 2326606.882075627334416 ], [ 589687.947013953933492, 2326605.496867071371526 ], [ 589686.366398967453279, 2326604.827944415155798 ], [ 589683.372718051075935, 2326603.730885261669755 ], [ 589681.734148276853375, 2326603.220111013855785 ], [ 589678.64735215192195, 2326602.421766542363912 ], [ 589676.966607902781107, 2326602.074059734586626 ], [ 589673.816424108110368, 2326601.582118439953774 ], [ 589672.10969187610317, 2326601.400827679783106 ], [ 589668.926458387519233, 2326601.22002722369507 ], [ 589667.21017494413536, 2326601.206898441072553 ], [ 589664.024548052344471, 2326601.338980032131076 ], [ 589662.315242141019553, 2326601.49413966294378 ], [ 589659.157901165192015, 2326601.937831284012645 ], [ 589657.472034331294708, 2326602.259785056579858 ], [ 589654.373386206105351, 2326603.010813712608069 ], [ 589652.727194263832644, 2326603.496461037546396 ], [ 589649.717080658767372, 2326604.547593913506716 ], [ 589648.126417345600203, 2326605.192257739603519 ], [ 589645.233827296528034, 2326606.533371851779521 ], [ 589643.714011571835726, 2326607.330843711271882 ], [ 589640.966802298440598, 2326608.949023401364684 ], [ 589639.532470813137479, 2326609.891623206902295 ], [ 589636.957099450752139, 2326611.771284514572471 ], [ 589635.622065601288341, 2326612.849934515077621 ], [ 589633.243334384984337, 2326614.972975274082273 ], [ 589632.020455269142985, 2326616.177287487778813 ], [ 589629.861272680689581, 2326618.523261653259397 ], [ 589628.762325307354331, 2326619.841637880541384 ], [ 589626.843485448160209, 2326622.387952447403222 ], [ 589625.879053271957673, 2326623.807696016039699 ], [ 589624.219035625923425, 2326626.529828573577106 ], [ 589623.398406659020111, 2326628.037266572471708 ], [ 589622.013198098866269, 2326630.909001504071057 ], [ 589621.344275448122062, 2326632.489616477862 ], [ 589620.099376025027595, 2326635.886727411765605 ], [ 589619.823751978925429, 2326636.700110618956387 ], [ 589612.206188951269723, 2326661.137342086061835 ], [ 589611.970807731151581, 2326661.963269760366529 ], [ 589611.064877937082201, 2326665.466044162400067 ], [ 589610.717171131283976, 2326667.14678840059787 ], [ 589610.225229834788479, 2326670.296972207725048 ], [ 589610.043939075898379, 2326672.003704431466758 ], [ 589609.863138619344682, 2326675.186937922146171 ], [ 589609.850009836954996, 2326676.903221361804754 ], [ 589609.982091427897103, 2326680.088848258834332 ], [ 589610.137251059175469, 2326681.798154172487557 ], [ 589610.580942679313011, 2326684.955495142377913 ], [ 589610.902896452578716, 2326686.64136197976768 ], [ 589611.653925108490512, 2326689.740010102745146 ], [ 589612.139572433196008, 2326691.386202044785023 ], [ 589613.190705310436897, 2326694.396315653342754 ], [ 589613.835369133972563, 2326695.986978961154819 ], [ 589615.17648324824404, 2326698.879569014068693 ], [ 589615.973955108085647, 2326700.399384739343077 ], [ 589617.592134795384482, 2326703.146594008430839 ], [ 589618.534734604880214, 2326704.580925499554724 ], [ 589620.414395910105668, 2326707.156296858098358 ], [ 589621.493045912124217, 2326708.491330709308386 ], [ 589623.616086672758684, 2326710.870061927940696 ], [ 589624.820398879237473, 2326712.092941036447883 ], [ 589627.166373047395609, 2326714.25212362781167 ], [ 589628.484749279683456, 2326715.351071004755795 ], [ 589631.031063846545294, 2326717.269910864066333 ], [ 589632.450807407265529, 2326718.234343034680933 ], [ 589635.172939970856532, 2326719.894360684324056 ], [ 589636.68037796986755, 2326720.714989651460201 ], [ 589639.552112892386504, 2326722.100198207423091 ], [ 589641.132727878866717, 2326722.769120863638818 ], [ 589644.12640879524406, 2326723.866180017124861 ], [ 589645.764978569466621, 2326724.376954264938831 ], [ 589648.851774694398046, 2326725.175298736430705 ], [ 589650.532518943538889, 2326725.52300554420799 ], [ 589653.682702738209628, 2326726.014946838840842 ], [ 589655.389434970216826, 2326726.196237599011511 ], [ 589658.572668458800763, 2326726.377038055099547 ], [ 589660.288951902184635, 2326726.390166837722063 ], [ 589663.474578793975525, 2326726.258085246663541 ], [ 589665.183884705300443, 2326726.102925615850836 ], [ 589668.34122568112798, 2326725.659233994781971 ], [ 589670.027092515025288, 2326725.337280222214758 ], [ 589673.125740640214644, 2326724.586251566186547 ], [ 589674.771932582487352, 2326724.10060424124822 ], [ 589677.782046187552623, 2326723.0494713652879 ], [ 589679.372709500719793, 2326722.404807539191097 ], [ 589682.265299549791962, 2326721.063693427015096 ], [ 589683.785115274484269, 2326720.266221567522734 ], [ 589686.532324547879398, 2326718.648041877429932 ], [ 589687.966656033182517, 2326717.705442071892321 ], [ 589690.542027395567857, 2326715.825780764222145 ], [ 589691.877061245031655, 2326714.747130763716996 ], [ 589694.255792461335659, 2326712.624090004712343 ], [ 589695.47867157717701, 2326711.419777791015804 ], [ 589697.637854165630415, 2326709.07380362553522 ], [ 589698.736801538965665, 2326707.755427398253232 ], [ 589700.655641398159787, 2326705.209112831391394 ], [ 589701.620073574362323, 2326703.789369262754917 ], [ 589703.280091220396571, 2326701.06723670521751 ], [ 589704.100720187299885, 2326699.559798706322908 ], [ 589705.485928747453727, 2326696.68806377472356 ], [ 589706.154851398197934, 2326695.107448800932616 ], [ 589707.3997508212924, 2326691.710337867029011 ], [ 589707.675374867394567, 2326690.896954659838229 ], [ 589715.292937895050272, 2326666.459723192732781 ], [ 589715.528319115168415, 2326665.633795518428087 ], [ 589716.434248909237795, 2326662.13102111639455 ], [ 589716.78195571503602, 2326660.450276878196746 ], [ 589717.273897011531517, 2326657.300093071069568 ], [ 589717.455187770421617, 2326655.593360847327858 ], [ 589717.635988226975314, 2326652.410127356648445 ], [ 589717.649117009365, 2326650.693843916989863 ], [ 589717.517035418422893, 2326647.508217019960284 ] ] } },
{ "type": "Feature", "properties": { "id": "ref_s2_2018_dry_5", "is_island": false, "length_m": 1002.2283498654459 }, "geometry": { "type": "LineString", "coordinates": [ [ 589304.154622922418639, 2327256.799169761128724 ], [ 589303.943976149428636, 2327258.502527960110456 ], [ 589303.708400350180455, 2327261.682177045382559 ], [ 589303.665726198581979, 2327263.397980102337897 ], [ 589303.742944871657528, 2327266.585408774670213 ], [ 589303.868654316989705, 2327268.29713257169351 ], [ 589304.257923804572783, 2327271.461644149851054 ], [ 589304.550806195707992, 2327273.152803845703602 ], [ 589305.248377620126121, 2327276.263922355137765 ], [ 589305.705612339428626, 2327277.918231159448624 ], [ 589306.704767706338316, 2327280.945994827430695 ], [ 589307.321951334713958, 2327282.547520845197141 ], [ 589308.61306823103223, 2327285.462770649697632 ], [ 589309.384256950812414, 2327286.996090305969119 ], [ 589310.954901216435246, 2327289.770750801078975 ], [ 589311.872668061521836, 2327291.221097393892705 ], [ 589313.707713530864567, 2327293.828447078820318 ], [ 589314.763219902873971, 2327295.181852973997593 ], [ 589316.844994084909558, 2327297.596781645901501 ], [ 589318.028074884205125, 2327298.840212809387594 ], [ 589320.336529161315411, 2327301.039463391527534 ], [ 589321.635790663771331, 2327302.160944891627878 ], [ 589324.14869335538242, 2327304.123337394092232 ], [ 589325.551622964791022, 2327305.112068755552173 ], [ 589328.244773451471701, 2327306.818704270292073 ], [ 589329.737860191613436, 2327307.665163471363485 ], [ 589332.585321952356026, 2327309.09960615914315 ], [ 589334.154186579864472, 2327309.795641334261745 ], [ 589337.128537005512044, 2327310.944076729938388 ], [ 589338.75807050417643, 2327311.482984682545066 ], [ 589341.830664967535995, 2327312.334352723322809 ], [ 589343.505174035555683, 2327312.710943473968655 ], [ 589346.646421776385978, 2327313.257045022211969 ], [ 589348.349779975949787, 2327313.467691795434803 ], [ 589351.529429057845846, 2327313.703267594333738 ], [ 589353.24523211887572, 2327313.745941746048629 ], [ 589356.432660787017085, 2327313.668723073322326 ], [ 589358.144384587998502, 2327313.543013627640903 ], [ 589361.308896163944155, 2327313.15374414017424 ], [ 589363.000055863871239, 2327312.860861747991294 ], [ 589366.111174366087653, 2327312.163290325552225 ], [ 589367.765483175870031, 2327311.706055604852736 ], [ 589370.793246841407381, 2327310.706900238525122 ], [ 589372.394772861152887, 2327310.089716609567404 ], [ 589375.310022662277333, 2327308.798599714878947 ], [ 589376.843342325650156, 2327308.027410991024226 ], [ 589379.618002813891508, 2327306.4567667292431 ], [ 589381.068349406588823, 2327305.538999884389341 ], [ 589382.249458616715856, 2327304.707738501485437 ], [ 589385.120553391054273, 2327302.888864105101675 ], [ 589388.154528545332141, 2327301.357040343806148 ], [ 589391.322774339583702, 2327300.126711989287287 ], [ 589394.595414890442044, 2327299.209480776917189 ], [ 589397.941589894006029, 2327298.613996000494808 ], [ 589401.329745632014237, 2327298.345872955862433 ], [ 589404.727932517183945, 2327298.407639985904098 ], [ 589408.104106370476075, 2327298.798714640550315 ], [ 589411.426430590916425, 2327299.515409168787301 ], [ 589414.663576368126087, 2327300.550965294241905 ], [ 589417.785018106689677, 2327301.895617942791432 ], [ 589420.761321275262162, 2327303.536687326617539 ], [ 589423.564419968286529, 2327305.458698510192335 ], [ 589426.167881561908871, 2327307.64352733688429 ], [ 589428.547155967331491, 2327310.070571336895227 ], [ 589430.679807133274153, 2327312.716944000683725 ], [ 589432.545724613242783, 2327315.557690598070621 ], [ 589434.127313202363439, 2327318.566023493185639 ], [ 589435.409658857155591, 2327321.713574746623635 ], [ 589436.380669330712408, 2327324.970663620624691 ], [ 589436.829041838296689, 2327327.269953730050474 ], [ 589436.838003837270662, 2327327.268201308790594 ], [ 589437.614750910433941, 2327331.240537115372717 ], [ 589438.026377961155958, 2327332.906779707409441 ], [ 589438.94199963088613, 2327335.960842778440565 ], [ 589439.514964919537306, 2327337.578715452458709 ], [ 589440.725528149283491, 2327340.528325757011771 ], [ 589441.454313704743981, 2327342.082247509155422 ], [ 589442.948160109226592, 2327344.898998688906431 ], [ 589443.825747330323793, 2327346.374004408717155 ], [ 589445.588490350754, 2327349.030769607517868 ], [ 589446.606427595834248, 2327350.412654186598957 ], [ 589448.62109104776755, 2327352.883847297634929 ], [ 589449.769575025420636, 2327354.159302431158721 ], [ 589452.016756609547883, 2327356.421124526765198 ], [ 589453.284726777346805, 2327357.577866870909929 ], [ 589455.742784903617576, 2327359.608535363338888 ], [ 589457.118030028883368, 2327360.635424870066345 ], [ 589459.763292249524966, 2327362.4153833091259 ], [ 589461.232567971106619, 2327363.30253046983853 ], [ 589464.039558967575431, 2327364.814636884257197 ], [ 589465.588715343968943, 2327365.553497980348766 ], [ 589468.530402260250412, 2327366.783189959824085 ], [ 589470.144520085421391, 2327367.366649362724274 ], [ 589473.192572852945887, 2327368.302084296010435 ], [ 589474.856107296189293, 2327368.724522972945124 ], [ 589477.981171511230059, 2327369.356692114379257 ], [ 589479.678101800614968, 2327369.614041742868721 ], [ 589482.850081407348625, 2327369.936856961809099 ], [ 589484.564065171172842, 2327370.026639126241207 ], [ 589487.752412260044366, 2327370.036991531029344 ], [ 589489.466942914761603, 2327369.958341582678258 ], [ 589492.64095195196569, 2327369.656131473835558 ], [ 589494.339517634711228, 2327369.409806854091585 ], [ 589497.468621171079576, 2327368.797944682650268 ], [ 589499.134863769984804, 2327368.386317630298436 ], [ 589502.188926836592145, 2327367.470695961732417 ], [ 589503.806799515499733, 2327366.897730671335012 ], [ 589506.75640981295146, 2327365.68716744473204 ], [ 589508.3103315733606, 2327364.958381885662675 ], [ 589509.855707520968281, 2327364.138801398687065 ], [ 589512.952481855754741, 2327362.685666473582387 ], [ 589516.176319467835128, 2327361.541776862926781 ], [ 589519.496425175108016, 2327360.718059385195374 ], [ 589522.881084210239351, 2327360.222382466774434 ], [ 589526.297965170466341, 2327360.059480980969965 ], [ 589529.714428858831525, 2327360.230911017395556 ], [ 589533.097840063855983, 2327360.735035018529743 ], [ 589536.415879302774556, 2327361.567037422209978 ], [ 589539.636851547751576, 2327362.718970661517233 ], [ 589542.729988987674005, 2327364.179831082001328 ], [ 589545.665744932251982, 2327365.935664054006338 ], [ 589548.416076052584685, 2327367.969697268679738 ], [ 589550.954710259800777, 2327370.26250095712021 ], [ 589553.257397665292956, 2327372.792173486202955 ], [ 589555.302142223808914, 2327375.534550571814179 ], [ 589557.069411847158335, 2327378.463436105754226 ], [ 589558.542324980604462, 2327381.550852386746556 ], [ 589559.706811862415634, 2327384.767307375092059 ], [ 589560.471704840194434, 2327387.253436504397541 ], [ 589561.556244500330649, 2327390.242696925066411 ], [ 589562.220076753292233, 2327391.825456536840647 ], [ 589563.596035950002261, 2327394.701634644996375 ], [ 589564.411809236044064, 2327396.211705890484154 ], [ 589566.063057570368983, 2327398.939166835974902 ], [ 589567.022915550041944, 2327400.362006910145283 ], [ 589568.933550591929816, 2327402.914483742322773 ], [ 589570.028249310562387, 2327404.236389921512455 ], [ 589572.179870602907613, 2327406.589300897438079 ], [ 589573.39886750804726, 2327407.797542495653033 ], [ 589575.770753763965331, 2327409.928227799478918 ], [ 589577.102309253299609, 2327411.011168794240803 ], [ 589579.671617904561572, 2327412.899108754005283 ], [ 589581.10290837334469, 2327413.846319832839072 ], [ 589583.844895577523857, 2327415.473332559689879 ], [ 589585.362136911484413, 2327416.275691558606923 ], [ 589588.250395834213123, 2327417.626108030322939 ], [ 589589.838976166327484, 2327418.275887793395668 ], [ 589592.845691293245181, 2327419.336702760308981 ], [ 589594.490311736590229, 2327419.827645556535572 ], [ 589597.586526758503169, 2327420.588642790913582 ], [ 589599.271348709706217, 2327420.91602056985721 ], [ 589602.427245387458242, 2327421.369871253147721 ], [ 589604.136043088743463, 2327421.530531188007444 ], [ 589607.321228406508453, 2327421.672864488791674 ], [ 589609.037545216386206, 2327421.665259337984025 ], [ 589612.221344087971374, 2327421.494704509619623 ], [ 589613.928650931688026, 2327421.318907513748854 ], [ 589617.080401653191075, 2327420.837107091210783 ], [ 589618.762256218236871, 2327420.494811274111271 ], [ 589621.851605704869144, 2327419.706405258271843 ], [ 589623.491810821346007, 2327419.200907114427537 ], [ 589626.48900694353506, 2327418.113488286267966 ], [ 589628.071766539709643, 2327417.449656039942056 ], [ 589630.947944662068039, 2327416.073696836363524 ], [ 589632.458015897660516, 2327415.257923555094749 ], [ 589635.185476850252599, 2327413.606675216462463 ], [ 589636.60831691918429, 2327412.646817240398377 ], [ 589639.160793753457256, 2327410.736182197462767 ], [ 589640.48269993334543, 2327409.641483477782458 ], [ 589642.835610908688977, 2327407.489862186368555 ], [ 589644.0438525081845, 2327406.270865279715508 ], [ 589646.174537808168679, 2327403.898979027289897 ], [ 589647.257478805608116, 2327402.567423534579575 ], [ 589649.145418766071089, 2327399.998114882502705 ], [ 589650.092629843624309, 2327398.566824416164309 ], [ 589651.719642568845302, 2327395.824837214779109 ], [ 589652.522001570439897, 2327394.307595876976848 ], [ 589653.872418041806668, 2327391.419336954597384 ], [ 589654.522197804879397, 2327389.830756621900946 ], [ 589655.583012772840448, 2327386.824041492305696 ], [ 589656.073955567204393, 2327385.179421054664999 ], [ 589656.834952802862972, 2327382.083206028677523 ], [ 589657.162330580875278, 2327380.398384080734104 ], [ 589657.616181264282204, 2327377.242487403564155 ], [ 589657.776841199607588, 2327375.533689699135721 ], [ 589657.938355410587974, 2327371.919267138000578 ], [ 589657.955627250019461, 2327371.060627205297351 ], [ 589657.809460699209012, 2327338.07402088213712 ], [ 589657.784580269362777, 2327337.215567729901522 ], [ 589657.591041382052936, 2327333.602718443609774 ], [ 589657.415244386880659, 2327331.895411604084074 ], [ 589656.933443964342587, 2327328.743660883046687 ], [ 589656.591148145962507, 2327327.061806313693523 ], [ 589655.802742131636478, 2327323.972456834279001 ], [ 589655.297243985114619, 2327322.332251708954573 ], [ 589654.209825161378831, 2327319.335055598523468 ], [ 589653.545992908417247, 2327317.752295986749232 ], [ 589652.170033711707219, 2327314.876117878593504 ], [ 589651.354260425665416, 2327313.366046633105725 ], [ 589649.703012091340497, 2327310.638585687614977 ], [ 589648.743154111667536, 2327309.215745613444597 ], [ 589646.832519069779664, 2327306.663268781267107 ], [ 589645.737820351147093, 2327305.341362602077425 ], [ 589643.586199058801867, 2327302.9884516261518 ], [ 589642.36720215366222, 2327301.780210027936846 ], [ 589639.995315897744149, 2327299.649524724110961 ], [ 589638.663760408409871, 2327298.566583729349077 ], [ 589636.094451757147908, 2327296.678643769584596 ], [ 589634.66316128836479, 2327295.731432690750808 ], [ 589631.921174084185623, 2327294.1044199639 ], [ 589630.403932750225067, 2327293.302060964982957 ], [ 589627.515673827496357, 2327291.95164449326694 ], [ 589625.927093495381996, 2327291.301864730194211 ], [ 589622.920378368464299, 2327290.241049763280898 ], [ 589621.275757925119251, 2327289.750106967054307 ], [ 589618.179542903206311, 2327288.989109732676297 ], [ 589616.494720952003263, 2327288.661731953732669 ], [ 589613.338824274251238, 2327288.207881270442158 ], [ 589611.630026572966017, 2327288.047221335582435 ], [ 589608.444841255201027, 2327287.904888034798205 ], [ 589606.728524445323274, 2327287.912493185605854 ], [ 589603.544725573738106, 2327288.083048013970256 ], [ 589601.837418730021454, 2327288.258845009841025 ], [ 589598.685668008518405, 2327288.740645432379097 ], [ 589597.003813443472609, 2327289.082941249478608 ], [ 589593.914463956840336, 2327289.871347265318036 ], [ 589592.274258840363473, 2327290.376845409162343 ], [ 589589.277062718058005, 2327291.464264237787575 ], [ 589587.02168544055894, 2327292.410202058963478 ], [ 589583.775365885579959, 2327293.587043781299144 ], [ 589580.428881231229752, 2327294.43827086687088 ], [ 589577.014804512029514, 2327294.955597890075296 ], [ 589573.566366670536809, 2327295.133989444002509 ], [ 589570.117133103543893, 2327294.971709152683616 ], [ 589566.700676952837966, 2327294.470336573664099 ], [ 589563.350252321106382, 2327293.634751820005476 ], [ 589560.098470592871308, 2327292.473088062833995 ], [ 589556.976983011001721, 2327290.996652365196496 ], [ 589554.016172599280253, 2327289.219815625343472 ], [ 589551.244858429185115, 2327287.159872698131949 ], [ 589548.690015108673833, 2327284.836874054279178 ], [ 589546.376510225236416, 2327282.273430618457496 ], [ 589544.326862296904437, 2327279.494493687991053 ], [ 589542.56102158781141, 2327276.527112067677081 ], [ 589541.096175922313705, 2327273.400168788619339 ], [ 589539.539680727524683, 2327269.600068391766399 ], [ 589538.816124000470154, 2327268.057295584585518 ], [ 589537.322277595987543, 2327265.240544404834509 ], [ 589536.444690374890342, 2327263.765538685023785 ], [ 589534.681947354460135, 2327261.108773486223072 ], [ 589533.664010109379888, 2327259.726888907141984 ], [ 589531.649346657446586, 2327257.255695796106011 ], [ 589530.500862679793499, 2327255.980240662582219 ], [ 589528.253681095666252, 2327253.718418566975743 ], [ 589526.985710927867331, 2327252.561676222831011 ], [ 589524.52765280159656, 2327250.531007730402052 ], [ 589523.152407676330768, 2327249.504118223674595 ], [ 589520.507145455689169, 2327247.72415978461504 ], [ 589519.037869734107517, 2327246.83701262390241 ], [ 589516.230878737638704, 2327245.324906209483743 ], [ 589514.681722361245193, 2327244.586045113392174 ], [ 589511.740035444963723, 2327243.356353133916855 ], [ 589510.125917619792745, 2327242.772893731016666 ], [ 589507.077864852268249, 2327241.837458797730505 ], [ 589505.414330409024842, 2327241.415020120795816 ], [ 589502.289266193984076, 2327240.782850979361683 ], [ 589500.592335904599167, 2327240.525501350872219 ], [ 589497.42035629786551, 2327240.202686131931841 ], [ 589495.706372534041293, 2327240.112903967499733 ], [ 589492.518025445169769, 2327240.102551562711596 ], [ 589490.803494790452532, 2327240.181201511062682 ], [ 589487.629485753248446, 2327240.483411619905382 ], [ 589485.930920070502907, 2327240.729736239649355 ], [ 589482.801816534134559, 2327241.341598411090672 ], [ 589481.135573935229331, 2327241.753225463442504 ], [ 589478.08151086862199, 2327242.668847132008523 ], [ 589476.463638189714402, 2327243.241812422405928 ], [ 589473.514027892262675, 2327244.4523756490089 ], [ 589471.960106130689383, 2327245.181161209009588 ], [ 589469.143354959553108, 2327246.67500760871917 ], [ 589466.929956947918981, 2327247.991917627863586 ], [ 589466.915447219274938, 2327247.967530384659767 ], [ 589465.257907618186437, 2327248.955261968076229 ], [ 589462.194628163822927, 2327250.399638909380883 ], [ 589459.00609034660738, 2327251.541187135037035 ], [ 589455.722149046720006, 2327252.369218114297837 ], [ 589452.373552425182424, 2327252.875978836789727 ], [ 589448.991654023062438, 2327253.056724406778812 ], [ 589445.608119192183949, 2327252.909762469585985 ], [ 589442.254628606373444, 2327252.436469056643546 ], [ 589438.962581629864872, 2327251.641275704372674 ], [ 589435.76280231855344, 2327250.531627957243472 ], [ 589432.685250808950514, 2327249.11791565688327 ], [ 589429.758742795558646, 2327247.413375657051802 ], [ 589427.010679724276997, 2327245.433967886958271 ], [ 589424.466792227234691, 2327243.198225914966315 ], [ 589422.150899202213623, 2327240.727083413861692 ], [ 589420.084684792091139, 2327238.043678156565875 ], [ 589418.287495351396501, 2327235.173135372344404 ], [ 589416.776158303604461, 2327232.142332493327558 ], [ 589415.564824581961147, 2327228.979647498112172 ], [ 589414.664836132549681, 2327225.714693202171475 ], [ 589414.227387100690976, 2327223.763701902236789 ], [ 589413.77015238115564, 2327222.10939309746027 ], [ 589412.77099701424595, 2327219.081629429478198 ], [ 589412.153813385870308, 2327217.480103411711752 ], [ 589410.862696489552036, 2327214.564853607211262 ], [ 589410.091507769771852, 2327213.031533950939775 ], [ 589408.52086350414902, 2327210.256873455829918 ], [ 589407.60309665906243, 2327208.806526863016188 ], [ 589405.768051189719699, 2327206.199177178088576 ], [ 589404.712544817710295, 2327204.845771282911301 ], [ 589402.630770635674708, 2327202.430842611007392 ], [ 589401.447689836379141, 2327201.187411447521299 ], [ 589399.139235559268855, 2327198.98816086538136 ], [ 589397.839974056812935, 2327197.866679365281016 ], [ 589395.327071365201846, 2327195.904286862816662 ], [ 589393.924141755793244, 2327194.915555501356721 ], [ 589391.230991269112565, 2327193.20891998661682 ], [ 589389.73790452897083, 2327192.362460785545409 ], [ 589386.89044276822824, 2327190.928018097765744 ], [ 589385.321578140719794, 2327190.231982922647148 ], [ 589382.347227715072222, 2327189.083547526970506 ], [ 589380.717694216407835, 2327188.544639574363828 ], [ 589377.645099753048271, 2327187.693271533586085 ], [ 589375.970590685028583, 2327187.316680782940239 ], [ 589372.829342944198288, 2327186.770579234696925 ], [ 589371.125984744634479, 2327186.559932461474091 ], [ 589367.94633566273842, 2327186.324356662575155 ], [ 589366.230532601708546, 2327186.281682510860264 ], [ 589363.043103933567181, 2327186.358901183586568 ], [ 589361.331380132585764, 2327186.484610629267991 ], [ 589358.166868556640111, 2327186.873880116734654 ], [ 589356.475708856713027, 2327187.1667625089176 ], [ 589353.364590354496613, 2327187.864333931356668 ], [ 589351.710281544714235, 2327188.321568652056158 ], [ 589348.682517879176885, 2327189.320724018383771 ], [ 589347.080991859431379, 2327189.93790764734149 ], [ 589344.165742058306932, 2327191.229024542029947 ], [ 589342.63242239493411, 2327192.000213265884668 ], [ 589339.857761906692758, 2327193.570857527665794 ], [ 589338.407415312947705, 2327194.488624372985214 ], [ 589335.800065626972355, 2327196.323669843375683 ], [ 589334.446659731096588, 2327197.379176215734333 ], [ 589332.031731058144942, 2327199.460950398351997 ], [ 589330.788299896405078, 2327200.644031196366996 ], [ 589328.5890493162442, 2327202.95248547103256 ], [ 589327.46756781404838, 2327204.251746975816786 ], [ 589325.505175312049687, 2327206.764649666845798 ], [ 589324.516443946980871, 2327208.167579282075167 ], [ 589322.809808438876644, 2327210.86072975769639 ], [ 589321.963349232682958, 2327212.353816507384181 ], [ 589320.335600299760699, 2327215.585003700572997 ], [ 589319.96815986011643, 2327216.361243600025773 ], [ 589308.099699919694103, 2327243.112775214482099 ], [ 589307.770790363312699, 2327243.906109550502151 ], [ 589306.467591214808635, 2327247.28128499025479 ], [ 589305.928683262201957, 2327248.910818488802761 ], [ 589305.077315220958553, 2327251.983412953093648 ], [ 589304.700724470429122, 2327253.657922021113336 ], [ 589304.154622922418639, 2327256.799169761128724 ] ] } },
{ "type": "Feature", "properties": { "id": "ref_s2_2018_dry_6", "is_island": false, "length_m": 433.64157751911046 }, "geometry": { "type": "LineString", "coordinates": [ [ 585469.141421962878667, 2333093.907899758312851 ], [ 585470.631096417899244, 2333093.055449622217566 ], [ 585473.31736957130488, 2333091.338009443134069 ], [ 585474.716316118719988, 2333090.343650452792645 ], [ 585477.221315558883362, 2333088.371179403271526 ], [ 585478.516061567352153, 2333087.24448778713122 ], [ 585480.815662781591527, 2333085.035981840919703 ], [ 585481.993739141034894, 2333083.787808254361153 ], [ 585484.065795709611848, 2333081.364536533132195 ], [ 585485.115856907214038, 2333080.006901563610882 ], [ 585486.940413791802712, 2333077.392201500013471 ], [ 585487.852347158943303, 2333075.938179920427501 ], [ 585489.411832881974988, 2333073.157232500612736 ], [ 585490.176856000674888, 2333071.620827337726951 ], [ 585491.456251861411147, 2333068.700414606370032 ], [ 585492.066997146466747, 2333067.096422269474715 ], [ 585493.053981859586202, 2333064.064669406972826 ], [ 585493.504567497759126, 2333062.408537223469466 ], [ 585494.189635864575393, 2333059.294641658198088 ], [ 585494.475722468574531, 2333057.602319090627134 ], [ 585494.852276905439794, 2333054.436269341036677 ], [ 585494.97110930562485, 2333052.724054380320013 ], [ 585495.035523387370631, 2333049.536341234110296 ], [ 585494.985957162920386, 2333047.820723444689065 ], [ 585494.737610546639189, 2333044.642046326305717 ], [ 585494.520123047055677, 2333042.939548041205853 ], [ 585493.961407446302474, 2333039.800519346725196 ], [ 585493.578093196148984, 2333038.127536563202739 ], [ 585492.714389347704127, 2333035.058386855758727 ], [ 585492.168939870549366, 2333033.431031303480268 ], [ 585491.008565715746954, 2333030.461318174842745 ], [ 585490.306233990937471, 2333028.895262185484171 ], [ 585488.860364564228803, 2333026.053585589397699 ], [ 585488.007914428133518, 2333024.563911133445799 ], [ 585486.290474245324731, 2333021.877637974917889 ], [ 585485.296115261968225, 2333020.478691436816007 ], [ 585483.323644207092002, 2333017.973691989667714 ], [ 585482.196952595491894, 2333016.678945986554027 ], [ 585479.988446644158103, 2333014.379344766959548 ], [ 585478.740273060859181, 2333013.20126841077581 ], [ 585476.317001334275119, 2333011.129211837891489 ], [ 585474.959366374649107, 2333010.079150647856295 ], [ 585472.344666305813007, 2333008.254593759775162 ], [ 585470.890644724015146, 2333007.342660391237587 ], [ 585468.109697307692841, 2333005.783174669835716 ], [ 585466.573292140616104, 2333005.018151549156755 ], [ 585463.652879410423338, 2333003.738755689002573 ], [ 585462.048887078999542, 2333003.128010405693203 ], [ 585459.017134210211225, 2333002.141025690827519 ], [ 585457.361002029851079, 2333001.690440053120255 ], [ 585454.247106459457427, 2333001.005371685139835 ], [ 585452.554783901083283, 2333000.719285083003342 ], [ 585449.388734142761678, 2333000.342730645090342 ], [ 585447.67651918833144, 2333000.223898245021701 ], [ 585444.488806035602465, 2333000.159484163392335 ], [ 585442.773188250954263, 2333000.209050388075411 ], [ 585439.594511130242608, 2333000.457397004589438 ], [ 585437.892012848635204, 2333000.67488450370729 ], [ 585434.329967001336627, 2333001.308892911300063 ], [ 585433.488390219397843, 2333001.480092723853886 ], [ 585417.919743602629751, 2333005.047185083385557 ], [ 585375.968053134274669, 2333014.660245249513537 ], [ 585375.135895623359829, 2333014.872553376946598 ], [ 585371.653169623808935, 2333015.852735434193164 ], [ 585370.025827397592366, 2333016.398224637843668 ], [ 585367.056142588378862, 2333017.558671298436821 ], [ 585365.490103752468713, 2333018.261041253339499 ], [ 585362.648462456534617, 2333019.706980054732412 ], [ 585361.158808808308095, 2333020.559466561768204 ], [ 585358.472577584208921, 2333022.276972323190421 ], [ 585357.073655318818055, 2333023.271365462336689 ], [ 585354.568704027449712, 2333025.243897673208266 ], [ 585353.273985531646758, 2333026.370620893780142 ], [ 585350.974438234698027, 2333028.579182982444763 ], [ 585349.796392347081564, 2333029.827385330572724 ], [ 585347.7243949418189, 2333032.250707635655999 ], [ 585346.674366887193173, 2333033.60836824355647 ], [ 585344.849873839877546, 2333036.223112847656012 ], [ 585343.937975969049148, 2333037.677156693302095 ], [ 585342.378558141528629, 2333040.45814218185842 ], [ 585341.613572528935038, 2333041.994566028937697 ], [ 585340.334247970138676, 2333044.915009986143559 ], [ 585339.723541843472049, 2333046.519017235841602 ], [ 585338.736631146282889, 2333049.550794194452465 ], [ 585338.286085941246711, 2333051.206937375944108 ], [ 585337.601093595963903, 2333054.320849666837603 ], [ 585337.315048308460973, 2333056.013179214671254 ], [ 585336.938571166247129, 2333059.179238160606474 ], [ 585336.819780567660928, 2333060.891456021461636 ], [ 585336.755444309790619, 2333064.079170738812536 ], [ 585336.805052418727428, 2333065.794787317048758 ], [ 585337.053476638509892, 2333068.973458374384791 ], [ 585337.271005701622926, 2333070.67595134396106 ], [ 585337.829797937185504, 2333073.814966396428645 ], [ 585338.213153032585979, 2333075.487939828075469 ], [ 585339.076931808725931, 2333078.557068443857133 ], [ 585339.622421015053988, 2333080.184410678222775 ], [ 585340.782867672503926, 2333083.154095480684191 ], [ 585341.485237630200572, 2333084.720134322531521 ], [ 585342.931176431011409, 2333087.561775616370142 ], [ 585343.783662936184555, 2333089.051429261919111 ], [ 585345.501168700167909, 2333091.737660490442067 ], [ 585346.495561838732101, 2333093.136582754552364 ], [ 585348.468094045994803, 2333095.64153404161334 ], [ 585349.594817268662155, 2333096.936252539977431 ], [ 585351.803379357326776, 2333099.235799836926162 ], [ 585353.05158170661889, 2333100.413845725823194 ], [ 585355.4749040172901, 2333102.48584313550964 ], [ 585356.83256461226847, 2333103.535871180240065 ], [ 585359.447309227776714, 2333105.360364235471934 ], [ 585360.901353064575233, 2333106.272262100595981 ], [ 585363.682338558835909, 2333107.831679931376129 ], [ 585365.218762400909327, 2333108.596665541641414 ], [ 585368.139206368825398, 2333109.875990105327219 ], [ 585369.743213606183417, 2333110.486696226987988 ], [ 585372.774990571779199, 2333111.473606926389039 ], [ 585374.431133749312721, 2333111.924152130261064 ], [ 585377.545046040206216, 2333112.609144475776702 ], [ 585379.237375592230819, 2333112.895189764443785 ], [ 585382.403434537700377, 2333113.271666906308383 ], [ 585384.115652396227233, 2333113.390457504894584 ], [ 585387.303367115790024, 2333113.454793762415648 ], [ 585389.018983690883033, 2333113.405185653828084 ], [ 585392.197654748801142, 2333113.156761433929205 ], [ 585393.900147718610242, 2333112.939232370816171 ], [ 585397.462178098619916, 2333112.305136998184025 ], [ 585398.303750683437102, 2333112.133916642982513 ], [ 585440.252818113192916, 2333102.521457509603351 ], [ 585455.821708065574057, 2333098.954309386666864 ], [ 585456.653870775364339, 2333098.742021570913494 ], [ 585460.136620692326687, 2333097.76192454341799 ], [ 585461.763976245420054, 2333097.216475065797567 ], [ 585464.73368938267231, 2333096.056100907735527 ], [ 585466.299745362019166, 2333095.353769187349826 ], [ 585469.141421962878667, 2333093.907899758312851 ] ] } },
{ "type": "Feature", "properties": { "id": "ref_s2_2018_dry_7", "is_island": false, "length_m": 696.15983190262682 }, "geometry": { "type": "LineString", "coordinates": [ [ 585034.102688446990214, 2332260.572208613622934 ], [ 585032.596457987790927, 2332261.395051868632436 ], [ 585029.876767756650224, 2332263.059067888185382 ], [ 585028.458442953182384, 2332264.025585329625756 ], [ 585025.914950860664248, 2332265.948164920322597 ], [ 585024.598190962686203, 2332267.049048450309783 ], [ 585022.255392230232246, 2332269.211676118895411 ], [ 585021.052878345130011, 2332270.436323634814471 ], [ 585018.933335411245935, 2332272.818172089289874 ], [ 585017.856648402754217, 2332274.154789569787681 ], [ 585015.980773624381982, 2332276.732920305803418 ], [ 585015.040282580303028, 2332278.168635391164571 ], [ 585013.426141654024832, 2332280.91821960452944 ], [ 585012.630904017947614, 2332282.43920557340607 ], [ 585011.294042003690265, 2332285.333763263188303 ], [ 585010.651716349180788, 2332286.925372187513858 ], [ 585009.605007957783528, 2332289.937027183827013 ], [ 585009.121780232526362, 2332291.583930999040604 ], [ 585008.375305838766508, 2332294.683679415844381 ], [ 585008.055829789256677, 2332296.370017539244145 ], [ 585007.616778349154629, 2332299.528007105924189 ], [ 585007.464130704523996, 2332301.23753918055445 ], [ 585007.336730523966253, 2332304.423356728162616 ], [ 585007.352381364675239, 2332306.139619025867432 ], [ 585007.537859376287088, 2332309.322583391796798 ], [ 585007.721657976391725, 2332311.029047367163002 ], [ 585008.218227925826795, 2332314.178504867013544 ], [ 585008.568404204328544, 2332315.858736337628216 ], [ 585009.3712838513311, 2332318.944355971645564 ], [ 585009.884465418406762, 2332320.582173388916999 ], [ 585010.985922595020384, 2332323.574238959234208 ], [ 585011.657167230383493, 2332325.153869243804365 ], [ 585013.046594300190918, 2332328.023565517738461 ], [ 585013.869437555782497, 2332329.529795977286994 ], [ 585015.533453572890721, 2332332.249486204236746 ], [ 585016.499971017474309, 2332333.66781101282686 ], [ 585018.422550602117553, 2332336.211303097195923 ], [ 585019.523434141185135, 2332337.528063005767763 ], [ 585021.686061802785844, 2332339.870861730538309 ], [ 585022.910709322313778, 2332341.073375619016588 ], [ 585025.292557774926536, 2332343.192918551620096 ], [ 585026.629175256937742, 2332344.269605561159551 ], [ 585029.207305991905741, 2332346.145480338484049 ], [ 585030.64302107936237, 2332347.085971383843571 ], [ 585033.392605285276659, 2332348.700112306047231 ], [ 585034.913591260788962, 2332349.495349945966154 ], [ 585036.495403545093723, 2332350.225915712304413 ], [ 585039.548463549697772, 2332351.82278436049819 ], [ 585042.429722584900446, 2332353.712099380325526 ], [ 585045.111259098746814, 2332355.875551898032427 ], [ 585047.567086999653839, 2332358.29217644315213 ], [ 585049.773407481261529, 2332360.938554119318724 ], [ 585051.708839650382288, 2332363.789039549883455 ], [ 585053.354627723805606, 2332366.816009402275085 ], [ 585054.694822785910219, 2332369.990130078513175 ], [ 585055.716437345719896, 2332373.280641978606582 ], [ 585056.409571195137687, 2332376.655657584313303 ], [ 585056.767507349490188, 2332380.082470473833382 ], [ 585056.786777140223421, 2332383.527872271370143 ], [ 585056.467193828546442, 2332386.958474460057914 ], [ 585055.811854415456764, 2332390.341031942982227 ], [ 585054.827109629404731, 2332393.642765211872756 ], [ 585054.814374746871181, 2332393.678870456293225 ], [ 585054.323577731382102, 2332395.323534405790269 ], [ 585053.562854944379069, 2332398.419816871639341 ], [ 585053.23562650824897, 2332400.104667831677943 ], [ 585052.782055562129244, 2332403.260604725219309 ], [ 585052.621547093149275, 2332404.969416665844619 ], [ 585052.479496124433354, 2332408.154614585451782 ], [ 585052.487253407482058, 2332409.870930708479136 ], [ 585052.658090444514528, 2332413.054714460857213 ], [ 585052.834038772503845, 2332414.762005707249045 ], [ 585053.316118561313488, 2332417.913713711779565 ], [ 585053.658563455450349, 2332419.595537931192666 ], [ 585054.447243303875439, 2332422.684817517641932 ], [ 585054.952886833809316, 2332424.324977827724069 ], [ 585056.04057132336311, 2332427.322077543474734 ], [ 585056.704543864121661, 2332428.904778298921883 ], [ 585058.080757998162881, 2332431.780834435950965 ], [ 585058.896665134816431, 2332433.290833370760083 ], [ 585060.5481552190613, 2332436.018147936090827 ], [ 585061.508139313082211, 2332437.440902922768146 ], [ 585063.419000601279549, 2332439.993210394866765 ], [ 585064.513816481339745, 2332441.315019527915865 ], [ 585066.665646329289302, 2332443.667739782948047 ], [ 585067.884750326164067, 2332444.875873324926943 ], [ 585070.256825436488725, 2332447.006348380353302 ], [ 585071.588476904900745, 2332448.089171337895095 ], [ 585074.157952897832729, 2332449.976883554831147 ], [ 585075.589327315916307, 2332450.923967758659273 ], [ 585078.331458727014251, 2332452.550737432669848 ], [ 585079.848771172808483, 2332453.352961941156536 ], [ 585082.73714978643693, 2332454.703122396487743 ], [ 585084.325787711539306, 2332455.352761348243803 ], [ 585087.332596850930713, 2332456.413309797644615 ], [ 585088.977260810788721, 2332456.904106816276908 ], [ 585092.073543273145333, 2332457.664829601999372 ], [ 585093.758394227945246, 2332457.992058037314564 ], [ 585096.914331129053608, 2332458.445628984831274 ], [ 585098.623143064323813, 2332458.606137453112751 ], [ 585101.808340978692286, 2332458.748188421595842 ], [ 585103.524657114292495, 2332458.740431138314307 ], [ 585106.708440859336406, 2332458.569594101514667 ], [ 585108.415732108056545, 2332458.393645773176104 ], [ 585111.99216593708843, 2332457.84660065965727 ], [ 585112.837663557264023, 2332457.695953341200948 ], [ 585177.157931981841102, 2332444.599372106604278 ], [ 585177.995019274763763, 2332444.407419641502202 ], [ 585181.500611786148511, 2332443.512456886004657 ], [ 585183.140772097627632, 2332443.006813355721533 ], [ 585186.137871814891696, 2332441.919128865469247 ], [ 585187.720572569640353, 2332441.255156325176358 ], [ 585190.596628707950003, 2332439.878942190203816 ], [ 585192.106627635308541, 2332439.063035057391971 ], [ 585194.833942210534588, 2332437.411544967442751 ], [ 585196.256697192904539, 2332436.451560875866562 ], [ 585198.809004658018239, 2332434.54069959372282 ], [ 585200.130813803640194, 2332433.445883702952415 ], [ 585202.483534050523303, 2332431.294053862337023 ], [ 585203.691667596111074, 2332430.074949861969799 ], [ 585205.822142646065913, 2332427.702874757815152 ], [ 585206.904965610359795, 2332426.371223281137645 ], [ 585208.792677825316787, 2332423.801747290883213 ], [ 585209.739762027864344, 2332422.37037287466228 ], [ 585211.366531703621149, 2332419.628241460770369 ], [ 585212.168756211642176, 2332418.110929015558213 ], [ 585213.518916666624136, 2332415.222550403792411 ], [ 585214.16855561779812, 2332413.633912479504943 ], [ 585215.229104068945162, 2332410.627103334292769 ], [ 585215.719901084783487, 2332408.982439383864403 ], [ 585216.48062387178652, 2332405.886156918015331 ], [ 585216.807852307916619, 2332404.201305957976729 ], [ 585217.261423254036345, 2332401.045369064435363 ], [ 585217.421931723016314, 2332399.336557123810053 ], [ 585217.563982691732235, 2332396.15135920420289 ], [ 585217.556225408683531, 2332394.435043081175536 ], [ 585217.385388371651061, 2332391.25125932879746 ], [ 585217.209440043661743, 2332389.543968082405627 ], [ 585216.727360254852101, 2332386.392260077875108 ], [ 585216.38491536071524, 2332384.710435858462006 ], [ 585215.59623551229015, 2332381.62115627201274 ], [ 585215.090591982356273, 2332379.980995961930603 ], [ 585214.002907492802478, 2332376.983896246179938 ], [ 585213.338934952043928, 2332375.401195490732789 ], [ 585211.962720818002708, 2332372.525139353703707 ], [ 585211.146813681349158, 2332371.015140418894589 ], [ 585209.495323597104289, 2332368.287825853563845 ], [ 585208.535339503083378, 2332366.865070866886526 ], [ 585206.624478214886039, 2332364.312763394787908 ], [ 585205.529662334825844, 2332362.990954261738807 ], [ 585203.377832486876287, 2332360.638234006706625 ], [ 585202.158728490001522, 2332359.43010046472773 ], [ 585199.786653379676864, 2332357.29962540930137 ], [ 585198.455001911264844, 2332356.216802451759577 ], [ 585195.88552591833286, 2332354.329090234823525 ], [ 585194.454151500249282, 2332353.382006030995399 ], [ 585191.712020089151338, 2332351.755236356984824 ], [ 585190.194707642542198, 2332350.953011848032475 ], [ 585188.853214242961258, 2332350.325936391018331 ], [ 585185.825989830773324, 2332348.72599388891831 ], [ 585182.969585075741634, 2332346.83791138837114 ], [ 585180.311337295453995, 2332344.679758847225457 ], [ 585177.876687339739874, 2332342.272190936375409 ], [ 585175.68893610779196, 2332339.638249365147203 ], [ 585173.769021546235308, 2332336.803142360411584 ], [ 585172.135318261804059, 2332333.794003408867866 ], [ 585170.803461666801013, 2332330.639631575439125 ], [ 585169.786198339425027, 2332327.370215882081538 ], [ 585169.093264032504521, 2332324.01704638171941 ], [ 585168.731290497118607, 2332320.61221469566226 ], [ 585168.703742013196461, 2332317.188306879252195 ], [ 585169.010882234433666, 2332313.778091558255255 ], [ 585169.649771664990112, 2332310.414206312038004 ], [ 585170.614295792067423, 2332307.128845318220556 ], [ 585171.022546145366505, 2332305.954201810527593 ], [ 585171.505773870623671, 2332304.307297995314002 ], [ 585172.252248264383525, 2332301.207549578510225 ], [ 585172.571724313893355, 2332299.521211455110461 ], [ 585173.010775753995404, 2332296.363221888430417 ], [ 585173.163423398626037, 2332294.653689813800156 ], [ 585173.29082357918378, 2332291.467872266191989 ], [ 585173.275172738474794, 2332289.751609968487173 ], [ 585173.089694726862945, 2332286.568645602557808 ], [ 585172.905896126758307, 2332284.862181627191603 ], [ 585172.409326177323237, 2332281.712724127341062 ], [ 585172.059149898821488, 2332280.03249265672639 ], [ 585171.256270251818933, 2332276.946873022709042 ], [ 585170.74308868474327, 2332275.309055605437607 ], [ 585169.641631508129649, 2332272.316990035120398 ], [ 585168.970386872766539, 2332270.73735975055024 ], [ 585167.580959802959114, 2332267.867663476616144 ], [ 585166.758116547367536, 2332266.361433017067611 ], [ 585165.094100530259311, 2332263.64174279011786 ], [ 585164.127583085675724, 2332262.223417981527746 ], [ 585162.205003501032479, 2332259.679925897158682 ], [ 585161.104119961964898, 2332258.363165988586843 ], [ 585158.941492300364189, 2332256.020367263816297 ], [ 585157.716844780836254, 2332254.817853375338018 ], [ 585155.334996328223497, 2332252.69831044273451 ], [ 585153.99837884621229, 2332251.621623433195055 ], [ 585151.420248111244291, 2332249.745748655870557 ], [ 585149.984533023787662, 2332248.805257610511035 ], [ 585147.234948817873374, 2332247.191116688307375 ], [ 585145.713962837820873, 2332246.395879046060145 ], [ 585142.819405158865266, 2332245.059017037041485 ], [ 585141.227796225924976, 2332244.416691378690302 ], [ 585138.216141233220696, 2332243.369982988573611 ], [ 585136.569237421266735, 2332242.886755264364183 ], [ 585133.469489001319744, 2332242.140280869789422 ], [ 585131.78315087442752, 2332241.820804819930345 ], [ 585128.625161311472766, 2332241.381753380410373 ], [ 585126.915629236027598, 2332241.229105735663325 ], [ 585123.729811685159802, 2332241.101705554872751 ], [ 585122.013549396535382, 2332241.117356395348907 ], [ 585118.830585023504682, 2332241.302834406960756 ], [ 585117.124121051514521, 2332241.486633006948978 ], [ 585113.550241002230905, 2332242.050120984204113 ], [ 585112.70544516958762, 2332242.204655303619802 ], [ 585047.519532957230695, 2332255.790021691005677 ], [ 585046.683337345253676, 2332255.985822036396712 ], [ 585043.181897984351963, 2332256.896898167207837 ], [ 585041.54408058070112, 2332257.410079729743302 ], [ 585038.55201500095427, 2332258.511536909732968 ], [ 585036.972384720807895, 2332259.182781543582678 ], [ 585034.102688446990214, 2332260.572208613622934 ] ] } },
{ "type": "Feature", "properties": { "id": "ref_s2_2018_dry_8", "is_island": false, "length_m": 602.72877472019979 }, "geometry": { "type": "LineString", "coordinates": [ [ 581608.534514211700298, 2333111.351290423888713 ], [ 581608.608482935116626, 2333112.586693165823817 ], [ 581608.667150631081313, 2333113.978685206733644 ], [ 581608.957555169356056, 2333117.153796146158129 ], [ 581609.197561473934911, 2333118.853266120422632 ], [ 581609.797782928915694, 2333121.984623407479376 ], [ 581610.203210724401288, 2333123.65238523716107 ], [ 581611.107468636357225, 2333126.709832195192575 ], [ 581611.674413430620916, 2333128.329824420623481 ], [ 581612.873999299830757, 2333131.283916157670319 ], [ 581613.597001108457334, 2333132.840537376701832 ], [ 581615.080362268723547, 2333135.66282437928021 ], [ 581615.95245818211697, 2333137.141083464957774 ], [ 581617.70530905504711, 2333139.804385567083955 ], [ 581618.718100318918005, 2333141.190046086907387 ], [ 581620.723559989011846, 2333143.668714228086174 ], [ 581621.867292871465907, 2333144.948431514203548 ], [ 581624.106047668959945, 2333147.21859476948157 ], [ 581625.369707385427319, 2333148.380044433288276 ], [ 581627.820196879794821, 2333150.419839891139418 ], [ 581629.191613713279366, 2333151.451836552470922 ], [ 581631.830238345894031, 2333153.241619863081723 ], [ 581633.296204781392589, 2333154.134224814362824 ], [ 581636.097553167724982, 2333155.656759394332767 ], [ 581637.643951155827381, 2333156.401376369874924 ], [ 581640.581044766469859, 2333157.641999370418489 ], [ 581642.192981663276441, 2333158.231457306537777 ], [ 581645.237534671905451, 2333159.17822084762156 ], [ 581646.899486643960699, 2333159.606842940673232 ], [ 581650.022178352810442, 2333160.250629177317023 ], [ 581651.71813987090718, 2333160.514287556055933 ], [ 581654.88889705168549, 2333160.848896474577487 ], [ 581656.602535106474534, 2333160.945051969029009 ], [ 581660.220476784161292, 2333160.970254017040133 ], [ 581661.079157763859257, 2333160.955158608499914 ], [ 581699.075684558716603, 2333159.353735167067498 ], [ 581699.932590497308411, 2333159.296524465084076 ], [ 581703.535581059288234, 2333158.966984858270735 ], [ 581705.235051025054418, 2333158.726978554856032 ], [ 581708.366408311296254, 2333158.126757100224495 ], [ 581710.03417014842853, 2333157.721329302992672 ], [ 581713.091617102734745, 2333156.817071391735226 ], [ 581714.711609329446219, 2333156.250126597005874 ], [ 581717.665701068937778, 2333155.050540727097541 ], [ 581719.222322280751541, 2333154.327538921963423 ], [ 581722.044609282980673, 2333152.844177761580795 ], [ 581723.522868375526741, 2333151.972081844229251 ], [ 581726.186170474858955, 2333150.219230972696096 ], [ 581727.57183099410031, 2333149.206439709290862 ], [ 581730.050499138538726, 2333147.200980036519468 ], [ 581731.330216418253258, 2333146.057247160002589 ], [ 581733.600379677838646, 2333143.818492358550429 ], [ 581734.761829342227429, 2333142.554832641035318 ], [ 581736.80162479786668, 2333140.104343149345368 ], [ 581737.833621459663846, 2333138.732926315162331 ], [ 581739.623404769226909, 2333136.094301684293896 ], [ 581740.516009723069146, 2333134.628335244953632 ], [ 581742.038544300594367, 2333131.826986862812191 ], [ 581742.783161278930493, 2333130.280588868074119 ], [ 581744.023784277960658, 2333127.343495260924101 ], [ 581744.61324221349787, 2333125.731558366678655 ], [ 581745.560005757259205, 2333122.687005349434912 ], [ 581745.988627846585587, 2333121.025053392164409 ], [ 581746.632414084859192, 2333117.902361674699932 ], [ 581746.896072463714518, 2333116.206400156952441 ], [ 581747.230681382818148, 2333113.035642970353365 ], [ 581747.326836876571178, 2333111.322004929184914 ], [ 581747.349046010174789, 2333108.133718395605683 ], [ 581747.27677258849144, 2333106.41890710266307 ], [ 581747.116835405002348, 2333104.670248820912093 ], [ 581747.054395438521169, 2333103.627395812887698 ], [ 581746.750462339492515, 2333099.712717730551958 ], [ 581746.533803319442086, 2333098.010113816242665 ], [ 581745.97661526943557, 2333094.870813616085798 ], [ 581745.594115155632608, 2333093.197644505184144 ], [ 581744.731904889922589, 2333090.128074872773141 ], [ 581744.187247367110103, 2333088.500454095657915 ], [ 581743.028318443568423, 2333085.530176667496562 ], [ 581742.326748858671635, 2333083.963779096025974 ], [ 581740.882262394763529, 2333081.121399263851345 ], [ 581740.030537251499481, 2333079.631310174707323 ], [ 581738.314404443255626, 2333076.944201612845063 ], [ 581737.320726314443164, 2333075.544771367218345 ], [ 581734.823464318295009, 2333072.370120661798865 ], [ 581732.804683945723809, 2333069.522161301225424 ], [ 581731.079646627418697, 2333066.487265428062528 ], [ 581729.665513100335374, 2333063.295624301768839 ], [ 581728.576351218856871, 2333059.978988490067422 ], [ 581727.8229960068129, 2333056.570352012757212 ], [ 581727.412941870512441, 2333053.103624115232378 ], [ 581727.350268044392578, 2333049.613291938323528 ], [ 581727.63559800980147, 2333046.134077440481633 ], [ 581728.266093293437734, 2333042.700591980013996 ], [ 581729.235481704236008, 2333039.346992000937462 ], [ 581730.534119729301892, 2333036.106639243662357 ], [ 581732.149088468053378, 2333033.011768861208111 ], [ 581733.581213351106271, 2333030.572237153537571 ], [ 581734.376450988114811, 2333029.051251183263958 ], [ 581735.713313001906499, 2333026.156693494413048 ], [ 581736.355638657463714, 2333024.565084567293525 ], [ 581737.402347047696821, 2333021.553429574239999 ], [ 581737.885574773536064, 2333019.906525757163763 ], [ 581738.632049167179503, 2333016.806777340825647 ], [ 581738.951525216689333, 2333015.120439217425883 ], [ 581739.390576656791382, 2333011.962449650745839 ], [ 581739.543224301422015, 2333010.252917576115578 ], [ 581739.670624481979758, 2333007.067100028507411 ], [ 581739.654973641270772, 2333005.350837730802596 ], [ 581739.469495629658923, 2333002.167873363476247 ], [ 581739.285697029554285, 2333000.461409389507025 ], [ 581738.78912708023563, 2332997.311951891053468 ], [ 581738.438950801501051, 2332995.631720419041812 ], [ 581737.636071155080572, 2332992.546100786887109 ], [ 581737.122889586957172, 2332990.908283365890384 ], [ 581736.021432411274873, 2332987.916217798367143 ], [ 581735.35018777474761, 2332986.336587511003017 ], [ 581733.960760705173016, 2332983.466891238000244 ], [ 581733.137917451327667, 2332981.96066078171134 ], [ 581731.473901432938874, 2332979.240970552433282 ], [ 581730.507383988355286, 2332977.822645743843168 ], [ 581728.58480440475978, 2332975.279153660871089 ], [ 581727.48392086464446, 2332973.962393750902265 ], [ 581725.321293201646768, 2332971.619595024269074 ], [ 581724.096645683632232, 2332970.417081137187779 ], [ 581721.714797231601551, 2332968.297538205049932 ], [ 581720.378179747262038, 2332967.220851194113493 ], [ 581717.800049014855176, 2332965.34497641865164 ], [ 581716.364333928679116, 2332964.40448537375778 ], [ 581713.614749714266509, 2332962.790344446431845 ], [ 581712.093763745739125, 2332961.995106810703874 ], [ 581709.199206055374816, 2332960.658244796097279 ], [ 581707.607597133377567, 2332960.01591914286837 ], [ 581704.595942142186686, 2332958.96921075321734 ], [ 581702.949038313119672, 2332958.485983023885638 ], [ 581699.849289908073843, 2332957.739508633036166 ], [ 581698.162951777223498, 2332957.420032582245767 ], [ 581695.004962214152329, 2332956.980981142725796 ], [ 581693.295430138707161, 2332956.828333497978747 ], [ 581690.10961258772295, 2332956.700933317188174 ], [ 581688.393350299098529, 2332956.716584157664329 ], [ 581685.21038592653349, 2332956.902062169276178 ], [ 581683.503921953612007, 2332957.0858607692644 ], [ 581679.930041899206117, 2332957.649348747450858 ], [ 581679.085246078437194, 2332957.80388306453824 ], [ 581642.370306481025182, 2332965.45562696736306 ], [ 581641.534110897569917, 2332965.651427306234837 ], [ 581638.032671522698365, 2332966.562503440771252 ], [ 581636.394854119047523, 2332967.075685003306717 ], [ 581633.402788545470685, 2332968.177142180968076 ], [ 581631.823158254730515, 2332968.848386819008738 ], [ 581628.953461981611326, 2332970.237813888583332 ], [ 581627.447231528582051, 2332971.060657140798867 ], [ 581624.727541295113042, 2332972.724673161748797 ], [ 581623.309216491645202, 2332973.69119060318917 ], [ 581620.765724399359897, 2332975.613770193420351 ], [ 581619.448964501731098, 2332976.714653723407537 ], [ 581617.106165768927895, 2332978.877281391993165 ], [ 581615.903651882777922, 2332980.101928909309208 ], [ 581613.784108950057998, 2332982.483777361921966 ], [ 581612.707421940634958, 2332983.820394844282418 ], [ 581610.831547162844799, 2332986.398525579366833 ], [ 581609.891056118765846, 2332987.834240664727986 ], [ 581608.27691519248765, 2332990.583824878092855 ], [ 581607.481677556410432, 2332992.104810846969485 ], [ 581606.144815542618744, 2332994.999368535820395 ], [ 581605.502489887061529, 2332996.590977462939918 ], [ 581604.455781496828422, 2332999.602632455993444 ], [ 581603.97255377098918, 2333001.24953627306968 ], [ 581603.226079377345741, 2333004.349284689407796 ], [ 581602.90660332783591, 2333006.03562281280756 ], [ 581602.467551887733862, 2333009.193612379487604 ], [ 581602.314904243103229, 2333010.903144454117864 ], [ 581602.187504062545486, 2333014.088962001726031 ], [ 581602.203154903254472, 2333015.805224299430847 ], [ 581602.388632914866321, 2333018.988188666757196 ], [ 581602.572431514970958, 2333020.694652640726417 ], [ 581603.069001464289613, 2333023.844110139179975 ], [ 581603.419177743024193, 2333025.52434161119163 ], [ 581604.222057389444672, 2333028.609961243346334 ], [ 581604.735238957568072, 2333030.247778664343059 ], [ 581605.836696133250371, 2333033.2398442318663 ], [ 581606.507940769777633, 2333034.819474519230425 ], [ 581607.897367839352228, 2333037.689170792233199 ], [ 581608.720211093197577, 2333039.195401248522103 ], [ 581610.38422711158637, 2333041.915091477800161 ], [ 581611.350744557450525, 2333043.333416287787259 ], [ 581611.853288657264784, 2333043.998261036351323 ], [ 581613.758105895482004, 2333046.788683274295181 ], [ 581615.385000695823692, 2333049.749763868749142 ], [ 581616.718813340645283, 2333052.853910902515054 ], [ 581617.74711510760244, 2333056.07219933765009 ], [ 581618.460324083920568, 2333059.374640545807779 ], [ 581618.851794451242313, 2333062.730461746454239 ], [ 581618.917878413805738, 2333066.108392753172666 ], [ 581618.657960188575089, 2333069.476957357488573 ], [ 581618.074461743352003, 2333072.804766628425568 ], [ 581617.172820228501223, 2333076.060811400413513 ], [ 581615.961437312653288, 2333079.214751223567873 ], [ 581614.451600894331932, 2333082.237197082024068 ], [ 581613.903293506707996, 2333083.213849999010563 ], [ 581613.137522844830528, 2333084.749882717616856 ], [ 581611.856706033577211, 2333087.669672531075776 ], [ 581611.245180299971253, 2333089.273367486428469 ], [ 581610.256720420788042, 2333092.304639711976051 ], [ 581609.805328945163637, 2333093.960552436765283 ], [ 581609.118745404761285, 2333097.074114272836596 ], [ 581608.831835332326591, 2333098.766297427937388 ], [ 581608.453740306780674, 2333101.932163567747921 ], [ 581608.334074738668278, 2333103.64432050101459 ], [ 581608.268109489581548, 2333106.832001922186464 ], [ 581608.316840870538726, 2333108.547643632162362 ], [ 581608.534514211700298, 2333111.351290423888713 ] ] } }
]
}
