{
"type": "FeatureCollection",
"name": "shoreline_2018_dry_final",
"crs": { "type": "name", "properties": { "name": "urn:ogc:def:crs:EPSG::32648" } },
"features": [
{ "type": "Feature", "properties": { "id": "shoreline_2018_dry_0", "bank_type": "left", "length_m": 1071.9666421691957, "is_island": false, "year": 2018, "season": "dry", "source": "S1", "processing_version": "1.0" }, "geometry": { "type": "LineString", "coordinates": [ [ 581591.25, 2333255.625 ], [ 581586.5625, 2333252.8125 ], [ 581583.125, 2333248.75 ], [ 581580.9375, 2333243.4375 ], [ 581580.0, 2333236.875 ], [ 581579.6875, 2332989.6875 ], [ 581576.875, 2332981.25 ], [ 581573.4375, 2332977.1875 ], [ 581564.6875, 2332970.9375 ], [ 581560.9375, 2332963.4375 ], [ 581560.0, 2332956.875 ], [ 581559.720719025935978, 2332859.805664586368948 ], [ 581558.32431415526662, 2332854.458987518213689 ], [ 581555.810785388108343, 2332850.834968795068562 ], [ 581552.180132724577561, 2332848.933608417399228 ], [ 581547.620291312923655, 2332848.648538578301668 ], [ 581542.695066598942503, 2332849.660655855666846 ], [ 581537.404458582401276, 2332851.969960249960423 ], [ 581525.865352798718959, 2332860.208018267992884 ], [ 581511.978567423764616, 2332872.700166087131947 ], [ 581496.935985187883489, 2332889.337167793419212 ], [ 581485.892213333514519, 2332904.425939437467605 ], [ 581476.316293810959905, 2332920.465055788401514 ], [ 581468.275649769697338, 2332937.347268847748637 ], [ 581461.866894625360146, 2332954.907243399880826 ], [ 581457.940392039832659, 2332969.333153147250414 ], [ 581455.096416671643965, 2332984.021440049633384 ], [ 581453.363060011761263, 2332998.87018029903993 ], [ 581452.757176954415627, 2333013.81821961235255 ], [ 581453.57341488415841, 2333032.484340540599078 ], [ 581458.458850164199248, 2333076.79449598910287 ], [ 581458.958176147658378, 2333114.021825028583407 ], [ 581460.291125342715532, 2333132.678618567995727 ], [ 581463.239045536960475, 2333151.132310431450605 ], [ 581467.859117234474979, 2333169.253754002973437 ], [ 581472.753508300636895, 2333183.373299891129136 ], [ 581480.343699981924146, 2333200.461783257313073 ], [ 581489.499007912119851, 2333216.759298311546445 ], [ 581497.894612621981651, 2333229.1288121342659 ], [ 581509.668434420367703, 2333243.65547435451299 ], [ 581522.733272295910865, 2333257.007539108861238 ], [ 581537.001565364655107, 2333269.09348570369184 ], [ 581555.528275203192607, 2333281.737151082139462 ], [ 581578.761062014382333, 2333293.757109152618796 ], [ 581587.321960969013162, 2333295.598777048755437 ], [ 581591.617295067990199, 2333294.527751510031521 ], [ 581594.783083670306951, 2333291.617682661861181 ], [ 581598.550856575020589, 2333282.588114047423005 ], [ 581599.855085657443851, 2333275.026922165881842 ], [ 581599.6875, 2333267.051554461475462 ], [ 581598.125, 2333262.494787838775665 ], [ 581595.3125, 2333258.685936351772398 ], [ 581591.25, 2333255.625 ] ] } },
{ "type": "Feature", "properties": { "id": "shoreline_2018_dry_1", "bank_type": "left", "length_m": 1116.3997275066515, "is_island": false, "year": 2018, "season": "dry", "source": "S1", "processing_version": "1.0" }, "geometry": { "type": "LineString", "coordinates": [ [ 581751.25, 2332824.375 ], [ 581746.5625, 2332827.1875 ], [ 581743.125, 2332831.25 ], [ 581740.9375, 2332836.5625 ], [ 581740.0, 2332843.125 ], [ 581740.0, 2333116.875 ], [ 581740.9375, 2333123.4375 ], [ 581743.125, 2333128.75 ], [ 581746.5625, 2333132.8125 ], [ 581755.3125, 2333139.0625 ], [ 581758.125, 2333143.75 ], [ 581759.6875, 2333149.6875 ], [ 581760.302146942354739, 2333280.183617914095521 ], [ 581761.812881653779186, 2333285.476707483176142 ], [ 581764.532204134622589, 2333289.004268708638847 ], [ 581768.4601143845357, 2333290.766301589086652 ], [ 581773.403944935533218, 2333290.953528367914259 ], [ 581781.640786818694323, 2333289.354419711977243 ], [ 581790.862943970132619, 2333285.499372468329966 ], [ 581806.948326396406628, 2333275.977524663321674 ], [ 581822.075901809963398, 2333264.986403821967542 ], [ 581833.380745702190325, 2333255.21242684032768 ], [ 581846.442940033623017, 2333241.829375994857401 ], [ 581858.189262635656632, 2333227.299633460585028 ], [ 581866.582587513606995, 2333214.915641222614795 ], [ 581874.009988963138312, 2333201.941691782325506 ], [ 581880.448694597696885, 2333188.436989871319383 ], [ 581885.860750440391712, 2333174.500210045836866 ], [ 581890.219741764245555, 2333160.1890057194978 ], [ 581893.481644025072455, 2333145.599465911276639 ], [ 581895.639701952459291, 2333130.795050349086523 ], [ 581896.682656761491671, 2333115.881525243166834 ], [ 581896.491135610849597, 2333097.18044624151662 ], [ 581894.217229547910392, 2333074.852300331927836 ], [ 581888.150748749729246, 2333041.921226581558585 ], [ 581887.825156707316637, 2333030.842560912016779 ], [ 581888.992301359307021, 2333000.989798305556178 ], [ 581886.534120121272281, 2332974.949207069352269 ], [ 581882.697477668058127, 2332956.648342023603618 ], [ 581878.409735015360638, 2332942.334032291080803 ], [ 581871.555480232578702, 2332924.939051658380777 ], [ 581864.921844919561408, 2332911.543377634137869 ], [ 581855.24672460835427, 2332895.551054088398814 ], [ 581841.720876501640305, 2332877.657290987670422 ], [ 581826.276377791306004, 2332861.400756465736777 ], [ 581812.083622541627847, 2332849.251724457368255 ], [ 581790.424969815183431, 2332834.577984751667827 ], [ 581764.124236451811157, 2332821.309025220107287 ], [ 581760.355104629648849, 2332820.852244227193296 ], [ 581751.25, 2332824.375 ] ] } },
{ "type": "Feature", "properties": { "id": "shoreline_2018_dry_2", "bank_type": "left", "length_m": 1061.3357334517279, "is_island": false, "year": 2018, "season": "dry", "source": "S1", "processing_version": "1.0" }, "geometry": { "type": "LineString", "coordinates": [ [ 585088.75, 2332595.625 ], [ 585093.4375, 2332592.8125 ], [ 585098.125, 2332586.25 ], [ 585099.6875, 2332580.3125 ], [ 585099.84375, 2332569.53125 ], [ 585099.0625, 2332562.8125 ], [ 585096.71875, 2332553.90625 ], [ 585084.375, 2332528.75 ], [ 585081.5625, 2332520.3125 ], [ 585080.15625, 2332510.46875 ], [ 585080.0, 2332473.125 ], [ 585079.0625, 2332466.5625 ], [ 585075.3125, 2332459.0625 ], [ 585066.5625, 2332452.8125 ], [ 585061.875, 2332446.25 ], [ 585060.3125, 2332440.3125 ], [ 585059.6875, 2332429.6875 ], [ 585056.875, 2332421.25 ], [ 585053.4375, 2332417.1875 ], [ 585046.5625, 2332412.8125 ], [ 585041.875, 2332406.25 ], [ 585040.0, 2332396.875 ], [ 585040.0, 2332363.125 ], [ 585039.0625, 2332356.5625 ], [ 585035.3125, 2332349.0625 ], [ 585026.5625, 2332342.8125 ], [ 585021.875, 2332336.25 ], [ 585020.3125, 2332330.3125 ], [ 585019.6875, 2332319.6875 ], [ 585016.875, 2332311.25 ], [ 585013.4375, 2332307.1875 ], [ 585006.40625, 2332302.96875 ], [ 585000.3125, 2332297.8125 ], [ 584995.625, 2332291.25 ], [ 584982.8125, 2332266.5625 ], [ 584978.75, 2332263.125 ], [ 584973.4375, 2332260.9375 ], [ 584966.875, 2332260.0 ], [ 584933.125, 2332260.0 ], [ 584926.5625, 2332260.9375 ], [ 584919.0625, 2332264.6875 ], [ 584912.8125, 2332273.4375 ], [ 584906.25, 2332278.125 ], [ 584900.3125, 2332279.6875 ], [ 584889.6875, 2332280.3125 ], [ 584881.25, 2332283.125 ], [ 584875.625, 2332288.75 ], [ 584860.818369177402928, 2332314.731100526638329 ], [ 584859.5470812022686, 2332320.42826141230762 ], [ 584859.298566878540441, 2332326.891938216984272 ], [ 584862.820954745053314, 2332348.816840807907283 ], [ 584867.801378126838244, 2332366.840054855216295 ], [ 584874.440814901259728, 2332384.299551475327462 ], [ 584882.693067702348344, 2332401.077872012741864 ], [ 584894.428558948799036, 2332420.169962574727833 ], [ 584899.509732759092003, 2332429.966406955383718 ], [ 584918.629734068061225, 2332486.052621691022068 ], [ 584926.675784908700734, 2332502.931598581373692 ], [ 584936.253670889302157, 2332518.969693377614021 ], [ 584952.103693692479283, 2332539.780772909056395 ], [ 584970.55441703600809, 2332558.32965884078294 ], [ 584991.263722289353609, 2332574.317982884589583 ], [ 585013.895783400163054, 2332587.44168556202203 ], [ 585027.526806932408363, 2332593.5692996410653 ], [ 585041.596659519826062, 2332598.668704968877137 ], [ 585055.989453334128484, 2332602.690526849590242 ], [ 585069.442850382067263, 2332605.217653831467032 ], [ 585076.946127966395579, 2332604.598098344635218 ], [ 585081.271388169727288, 2332600.154175023082644 ], [ 585088.75, 2332595.625 ] ] } },
{ "type": "Feature", "properties": { "id": "shoreline_2018_dry_3", "bank_type": "left", "length_m": 1116.1947453127214, "is_island": false, "year": 2018, "season": "dry", "source": "S1", "processing_version": "1.0" }, "geometry": { "type": "LineString", "coordinates": [ [ 585235.625, 2332148.75 ], [ 585232.8125, 2332153.4375 ], [ 585226.25, 2332158.125 ], [ 585220.3125, 2332159.6875 ], [ 585202.8125, 2332160.9375 ], [ 585193.90625, 2332163.28125 ], [ 585168.75, 2332175.625 ], [ 585163.125, 2332181.25 ], [ 585160.9375, 2332186.5625 ], [ 585160.0, 2332193.125 ], [ 585160.15625, 2332290.46875 ], [ 585160.9375, 2332297.1875 ], [ 585163.28125, 2332306.09375 ], [ 585175.625, 2332331.25 ], [ 585178.4375, 2332339.6875 ], [ 585180.0, 2332353.125 ], [ 585180.0, 2332386.875 ], [ 585181.875, 2332396.25 ], [ 585186.5625, 2332402.8125 ], [ 585211.25, 2332415.625 ], [ 585216.875, 2332421.25 ], [ 585219.0625, 2332426.5625 ], [ 585220.3125, 2332440.3125 ], [ 585221.875, 2332446.25 ], [ 585224.6875, 2332450.9375 ], [ 585233.4375, 2332457.1875 ], [ 585236.875, 2332461.25 ], [ 585239.0625, 2332466.5625 ], [ 585240.3125, 2332480.3125 ], [ 585241.875, 2332486.25 ], [ 585244.6875, 2332490.9375 ], [ 585253.4375, 2332497.1875 ], [ 585258.125, 2332503.75 ], [ 585260.0, 2332513.125 ], [ 585260.0, 2332546.875 ], [ 585261.284256615908816, 2332552.762385195121169 ], [ 585264.280855386168696, 2332556.499617316760123 ], [ 585268.989796310896054, 2332558.086696364916861 ], [ 585271.986395081272349, 2332558.073928486555815 ], [ 585278.760739143472165, 2332556.73441320983693 ], [ 585288.359571070759557, 2332552.933367924764752 ], [ 585297.283181998645887, 2332546.982195794582367 ], [ 585305.605540309450589, 2332539.448593822307885 ], [ 585315.996860065963119, 2332528.708402113988996 ], [ 585325.563652224140242, 2332517.199311219155788 ], [ 585336.256870804354548, 2332501.878328934311867 ], [ 585343.75759138551075, 2332488.934528481215239 ], [ 585350.258572919759899, 2332475.472617092076689 ], [ 585355.736064473399892, 2332461.551409879233688 ], [ 585360.150481157470495, 2332447.268932029604912 ], [ 585363.486085203941911, 2332432.686175169888884 ], [ 585365.716646999469958, 2332417.904792016372085 ], [ 585366.835698258131742, 2332402.987603018525988 ], [ 585366.095013353507966, 2332376.839133648201823 ], [ 585361.938719980302267, 2332351.014680057298392 ], [ 585354.43982083525043, 2332325.959699863567948 ], [ 585345.45135101582855, 2332305.426966102793813 ], [ 585324.22400948102586, 2332266.412084824405611 ], [ 585320.256294702528976, 2332256.152898525353521 ], [ 585314.537694354192354, 2332234.523300246335566 ], [ 585309.761793924146332, 2332220.357167582958937 ], [ 585303.934181770659052, 2332206.578162936493754 ], [ 585297.09924819576554, 2332193.28155130520463 ], [ 585287.183581213350408, 2332177.435340290889144 ], [ 585278.197993351262994, 2332165.474202650599182 ], [ 585270.711741455481388, 2332157.453688137233257 ], [ 585262.499793414841406, 2332150.590245010796934 ], [ 585251.490394242340699, 2332143.566482338123024 ], [ 585243.484544238308445, 2332140.0 ], [ 585240.030428955098614, 2332141.875 ], [ 585235.625, 2332148.75 ] ] } },
{ "type": "Feature", "properties": { "id": "shoreline_2018_dry_4", "bank_type": "left", "length_m": 1051.1181303202161, "is_island": false, "year": 2018, "season": "dry", "source": "S1", "processing_version": "1.0" }, "geometry": { "type": "LineString", "coordinates": [ [ 585408.75, 2332904.375 ], [ 585413.4375, 2332907.1875 ], [ 585418.125, 2332913.75 ], [ 585419.6875, 2332919.6875 ], [ 585420.3125, 2332930.3125 ], [ 585423.125, 2332938.75 ], [ 585426.5625, 2332942.8125 ], [ 585433.4375, 2332947.1875 ], [ 585438.125, 2332953.75 ], [ 585439.6875, 2332959.6875 ], [ 585440.3125, 2332970.3125 ], [ 585443.125, 2332978.75 ], [ 585448.75, 2332984.375 ], [ 585471.25, 2332995.625 ], [ 585475.3125, 2332999.0625 ], [ 585479.0625, 2333006.5625 ], [ 585480.3125, 2333020.3125 ], [ 585483.125, 2333028.75 ], [ 585486.5625, 2333032.8125 ], [ 585493.4375, 2333037.1875 ], [ 585498.125, 2333043.75 ], [ 585499.6875, 2333049.6875 ], [ 585500.3125, 2333060.3125 ], [ 585503.125, 2333068.75 ], [ 585506.5625, 2333072.8125 ], [ 585513.4375, 2333077.1875 ], [ 585518.125, 2333083.75 ], [ 585520.0, 2333093.125 ], [ 585520.0, 2333126.875 ], [ 585520.9375, 2333133.4375 ], [ 585523.125, 2333138.75 ], [ 585528.75, 2333144.375 ], [ 585551.25, 2333155.625 ], [ 585555.3125, 2333159.0625 ], [ 585559.0625, 2333166.5625 ], [ 585560.301943393773399, 2333180.285308877471834 ], [ 585561.811660362873226, 2333186.086853264831007 ], [ 585566.340811269590631, 2333192.241486427839845 ], [ 585570.869962176657282, 2333194.646119590848684 ], [ 585575.762457690318115, 2333195.305131390225142 ], [ 585583.254703992977738, 2333192.77882348978892 ], [ 585590.931153934216127, 2333186.034724868834019 ], [ 585605.265109706902876, 2333168.803159000817686 ], [ 585615.678874220349826, 2333153.275333674624562 ], [ 585622.927890117745847, 2333140.202686835546046 ], [ 585629.182847750722431, 2333126.614637408405542 ], [ 585635.537999136373401, 2333109.037442123517394 ], [ 585639.419292905367911, 2333094.601962355896831 ], [ 585642.733710421947762, 2333076.200832711532712 ], [ 585644.134718330809847, 2333061.323356311768293 ], [ 585644.312461378984153, 2333042.624635035172105 ], [ 585643.194474060903303, 2333027.722725228406489 ], [ 585640.229713557404466, 2333009.260909496806562 ], [ 585636.6211584857665, 2332994.753586757928133 ], [ 585630.598420743248425, 2332977.057263641618192 ], [ 585622.944656722247601, 2332959.995811402332038 ], [ 585615.695558044360951, 2332946.92738238722086 ], [ 585605.270131940254942, 2332931.401507527567446 ], [ 585590.92866617674008, 2332914.160544306971133 ], [ 585577.566041255951859, 2332901.103482896462083 ], [ 585559.983945055864751, 2332887.170847427565604 ], [ 585540.955394505755976, 2332875.294888021424413 ], [ 585524.174376910901628, 2332867.090100032743067 ], [ 585506.679292716784403, 2332860.489475718699396 ], [ 585484.990037403418683, 2332854.77621154114604 ], [ 585462.81010960182175, 2332851.535286506637931 ], [ 585440.399140025372617, 2332850.803013175725937 ], [ 585425.66821518051438, 2332851.874044890049845 ], [ 585419.271460024174303, 2332853.531743286177516 ], [ 585413.736174189369194, 2332856.093377270270139 ], [ 585407.048500414472073, 2332861.630707472097129 ], [ 585403.775982364895754, 2332866.403568496927619 ], [ 585401.510392945958301, 2332872.015549206640571 ], [ 585400.251732157659717, 2332878.466649601235986 ], [ 585400.0, 2332899.510817984584719 ], [ 585408.75, 2332904.375 ] ] } },
{ "type": "Feature", "properties": { "id": "shoreline_2018_dry_5", "bank_type": "right", "length_m": 1010.1618935706374, "is_island": false, "year": 2018, "season": "dry", "source": "S1", "processing_version": "1.0" }, "geometry": { "type": "LineString", "coordinates": [ [ 585391.25, 2333215.625 ], [ 585386.5625, 2333212.8125 ], [ 585381.875, 2333206.25 ], [ 585380.3125, 2333200.3125 ], [ 585379.6875, 2333189.6875 ], [ 585376.875, 2333181.25 ], [ 585373.4375, 2333177.1875 ], [ 585366.5625, 2333172.8125 ], [ 585361.875, 2333166.25 ], [ 585360.3125, 2333160.3125 ], [ 585359.53125, 2333146.09375 ], [ 585357.65625, 2333136.71875 ], [ 585355.625, 2333131.25 ], [ 585344.375, 2333108.75 ], [ 585339.6875, 2333102.1875 ], [ 585335.78125, 2333098.59375 ], [ 585326.5625, 2333092.8125 ], [ 585321.875, 2333086.25 ], [ 585320.0, 2333076.875 ], [ 585320.0, 2333013.125 ], [ 585319.0625, 2333006.5625 ], [ 585315.3125, 2332999.0625 ], [ 585306.5625, 2332992.8125 ], [ 585301.875, 2332986.25 ], [ 585300.3125, 2332980.3125 ], [ 585299.6875, 2332969.6875 ], [ 585296.875, 2332961.25 ], [ 585293.4375, 2332957.1875 ], [ 585286.5625, 2332952.8125 ], [ 585281.875, 2332946.25 ], [ 585280.3125, 2332940.3125 ], [ 585278.483455041889101, 2332919.831583194900304 ], [ 585274.540438150521368, 2332909.268699501641095 ], [ 585271.491630714852363, 2332906.295404498465359 ], [ 585269.656059245578945, 2332905.70684293936938 ], [ 585265.362580804852769, 2332906.325891706161201 ], [ 585257.366524386801757, 2332911.744894568808377 ], [ 585243.734888204839081, 2332924.522219848353416 ], [ 585231.345389908761717, 2332938.530005960725248 ], [ 585222.4246923152823, 2332950.519443734548986 ], [ 585212.56772404757794, 2332966.40872080437839 ], [ 585205.78696755238343, 2332979.731348807923496 ], [ 585198.74081563798245, 2332997.044004985131323 ], [ 585194.2908795500407, 2333011.325923774391413 ], [ 585190.924487773794681, 2333025.89032267825678 ], [ 585188.265529866097495, 2333044.397138841915876 ], [ 585187.393661794718355, 2333059.314470790792257 ], [ 585187.879902224289253, 2333078.006916080601513 ], [ 585189.526127347024158, 2333092.858613317832351 ], [ 585193.143596780952066, 2333111.201834687031806 ], [ 585197.262530560372397, 2333125.571133404038846 ], [ 585202.448791062226519, 2333139.601897681131959 ], [ 585210.385159047786146, 2333156.52407106757164 ], [ 585219.864447638159618, 2333172.621511972043663 ], [ 585233.175793269881979, 2333190.675427476875484 ], [ 585245.758798765134998, 2333204.497215990442783 ], [ 585259.572286351001821, 2333217.075232874602079 ], [ 585277.625483163981698, 2333230.389590079430491 ], [ 585293.733313230564818, 2333239.87369750533253 ], [ 585310.648644477245398, 2333247.807317099533975 ], [ 585331.831058883341029, 2333255.192748916335404 ], [ 585353.709745247848332, 2333260.135216313414276 ], [ 585379.735059459228069, 2333262.767281766515225 ], [ 585388.828056772937998, 2333260.972144072875381 ], [ 585393.110597767401487, 2333257.857821337413043 ], [ 585395.969572989735752, 2333253.209447184111923 ], [ 585398.88043694163207, 2333241.896036496851593 ], [ 585399.888043694198132, 2333233.90870428737253 ], [ 585399.6875, 2333226.459371328353882 ], [ 585398.125, 2333222.212795870378613 ], [ 585395.3125, 2333218.60133876092732 ], [ 585391.25, 2333215.625 ] ] } },
{ "type": "Feature", "properties": { "id": "shoreline_2018_dry_6", "bank_type": "left", "length_m": 1487.4707315062515, "is_island": false, "year": 2018, "season": "dry", "source": "S1", "processing_version": "1.0" }, "geometry": { "type": "LineString", "coordinates": [ [ 589750.771471065934747, 2327198.900220123119652 ], [ 589737.127929699840024, 2327186.124388420023024 ], [ 589722.34298823447898, 2327174.679702750407159 ], [ 589706.568232047487982, 2327164.67897843150422 ], [ 589689.909912386792712, 2327156.189534990116954 ], [ 589665.417011156096123, 2327147.004915993660688 ], [ 589640.010529613588005, 2327140.889188202098012 ], [ 589629.586668814299628, 2327137.448068037629128 ], [ 589619.774788258597255, 2327132.688766710925847 ], [ 589587.740721541456878, 2327114.083794351201504 ], [ 589574.299590210663155, 2327107.551847944967449 ], [ 589553.289384243777022, 2327099.689322436694056 ], [ 589520.865315508330241, 2327091.414475997909904 ], [ 589503.62805484700948, 2327086.150783451739699 ], [ 589490.620662886882201, 2327079.913434877991676 ], [ 589468.873282884946093, 2327065.547002458944917 ], [ 589449.045275303185917, 2327055.05889144167304 ], [ 589428.172647232189775, 2327046.866524531040341 ], [ 589406.520687102340162, 2327041.069786400534213 ], [ 589384.342249211040325, 2327037.737860663793981 ], [ 589358.192639730754308, 2327037.026167887263 ], [ 589332.175795056042261, 2327039.743197771254927 ], [ 589310.323699742439203, 2327044.766379655338824 ], [ 589296.132567230495624, 2327049.462865620851517 ], [ 589282.324069500202313, 2327055.214835510123521 ], [ 589268.993949708645232, 2327061.979238410945982 ], [ 589256.199653749819845, 2327069.730243774596602 ], [ 589248.630219302023761, 2327076.874442416708916 ], [ 589245.146918893791735, 2327082.515127075370401 ], [ 589242.91400986444205, 2327088.858120185788721 ], [ 589241.214170776889659, 2327099.280883523635566 ], [ 589240.080944718443789, 2327113.729392415843904 ], [ 589240.3125, 2327124.627500193659216 ], [ 589241.875, 2327130.565000193659216 ], [ 589246.5625, 2327137.127500193659216 ], [ 589258.217031268170103, 2327144.222968925721943 ], [ 589266.262812584755011, 2327151.177187608554959 ], [ 589273.0157814132981, 2327159.424218780361116 ], [ 589281.502500193542801, 2327173.4375 ], [ 589285.565000193542801, 2327176.875 ], [ 589294.002500193542801, 2327179.6875 ], [ 589322.274140755063854, 2327181.415859438478947 ], [ 589331.795781316584907, 2327183.144218876957893 ], [ 589337.328750048414804, 2327185.111250145360827 ], [ 589344.295781316584907, 2327189.394218876957893 ], [ 589350.019218876957893, 2327194.920781316701323 ], [ 589354.486250145127997, 2327197.953750048298389 ], [ 589362.519218876957893, 2327201.170781316701323 ], [ 589374.65109380451031, 2327204.038906389381737 ], [ 589384.295781316584907, 2327209.394218876957893 ], [ 589393.0157814132981, 2327219.424218780361116 ], [ 589401.502500193542801, 2327233.4375 ], [ 589408.065000193542801, 2327238.125 ], [ 589414.002500193542801, 2327239.6875 ], [ 589442.274140755063854, 2327241.415859438478947 ], [ 589454.65109380451031, 2327244.038906389381737 ], [ 589462.15109380451031, 2327247.788906389381737 ], [ 589470.019218876957893, 2327254.920781316701323 ], [ 589474.486250145127997, 2327257.953750048298389 ], [ 589482.519218876957893, 2327261.170781316701323 ], [ 589497.328750048414804, 2327265.111250145360827 ], [ 589502.15109380451031, 2327267.788906389381737 ], [ 589510.086640755063854, 2327274.853359438478947 ], [ 589514.8907814132981, 2327277.549218780361116 ], [ 589520.675234559457749, 2327279.264765634201467 ], [ 589527.440000193542801, 2327280.0 ], [ 589561.190000193542801, 2327280.0 ], [ 589567.752500193542801, 2327280.9375 ], [ 589575.252500193542801, 2327284.6875 ], [ 589581.502500193542801, 2327293.4375 ], [ 589588.065000193542801, 2327298.125 ], [ 589594.002500193542801, 2327299.6875 ], [ 589622.274140755063854, 2327301.415859438478947 ], [ 589634.65109380451031, 2327304.038906389381737 ], [ 589642.15109380451031, 2327307.788906389381737 ], [ 589650.086640755063854, 2327314.853359438478947 ], [ 589654.8907814132981, 2327317.549218780361116 ], [ 589660.675234559457749, 2327319.264765634201467 ], [ 589674.71632831543684, 2327320.223671877756715 ], [ 589683.9532814132981, 2327322.236718780361116 ], [ 589688.992890755063854, 2327324.697109438478947 ], [ 589699.828750048414804, 2327332.611250145360827 ], [ 589704.96359380451031, 2327334.976406389381737 ], [ 589713.677187608904205, 2327337.512812584638596 ], [ 589721.986250145127997, 2327337.769687512423843 ], [ 589729.081718876957893, 2327335.214062439277768 ], [ 589739.424218780244701, 2327326.9842185867019 ], [ 589753.4375, 2327318.497499806340784 ], [ 589756.875, 2327314.434999806340784 ], [ 589759.0625, 2327309.122499806340784 ], [ 589760.0, 2327302.559999806340784 ], [ 589760.0, 2327215.857713334262371 ], [ 589758.022458085557446, 2327208.948202631436288 ], [ 589750.771471065934747, 2327198.900220123119652 ] ] } },
{ "type": "Feature", "properties": { "id": "shoreline_2018_dry_7", "bank_type": "right", "length_m": 1021.8198685268734, "is_island": false, "year": 2018, "season": "dry", "source": "S1", "processing_version": "1.0" }, "geometry": { "type": "LineString", "coordinates": [ [ 589791.25, 2326795.625 ], [ 589768.75, 2326784.375 ], [ 589764.21875, 2326781.40625 ], [ 589758.59375, 2326775.78125 ], [ 589752.8125, 2326766.5625 ], [ 589748.75, 2326763.125 ], [ 589743.4375, 2326760.9375 ], [ 589729.6875, 2326759.6875 ], [ 589723.75, 2326758.125 ], [ 589719.0625, 2326755.3125 ], [ 589712.8125, 2326746.5625 ], [ 589708.75, 2326743.125 ], [ 589703.4375, 2326740.9375 ], [ 589689.6875, 2326739.6875 ], [ 589683.75, 2326738.125 ], [ 589679.0625, 2326735.3125 ], [ 589672.8125, 2326726.5625 ], [ 589666.25, 2326721.875 ], [ 589660.3125, 2326720.3125 ], [ 589649.53125, 2326719.84375 ], [ 589639.6875, 2326718.4375 ], [ 589631.25, 2326715.625 ], [ 589608.75, 2326704.375 ], [ 589603.28125, 2326702.34375 ], [ 589593.90625, 2326700.46875 ], [ 589579.6875, 2326699.6875 ], [ 589573.75, 2326698.125 ], [ 589567.1875, 2326693.4375 ], [ 589560.9375, 2326684.6875 ], [ 589553.4375, 2326680.9375 ], [ 589546.875, 2326680.0 ], [ 589513.125, 2326680.0 ], [ 589503.75, 2326678.125 ], [ 589499.0625, 2326675.3125 ], [ 589495.625, 2326671.25 ], [ 589484.375, 2326648.75 ], [ 589479.804094394436106, 2326644.351743312552571 ], [ 589476.072735986090265, 2326644.004358282312751 ], [ 589474.001830380526371, 2326644.606101594865322 ], [ 589469.449566366500221, 2326647.360459877643734 ], [ 589465.580326089053415, 2326651.422045276500285 ], [ 589462.804207595065236, 2326656.537323871161789 ], [ 589460.689633197383955, 2326666.185916506685317 ], [ 589460.599544231197797, 2326684.878443645779043 ], [ 589462.262195597286336, 2326703.503645771183074 ], [ 589464.844895235379227, 2326718.223156893160194 ], [ 589468.534288546070457, 2326732.726974514313042 ], [ 589474.641655172337778, 2326750.381262415088713 ], [ 589480.703814872540534, 2326764.06429448351264 ], [ 589487.771500290604308, 2326777.231578290928155 ], [ 589495.822103727376089, 2326789.847864500712603 ], [ 589507.157673301408067, 2326804.700476507656276 ], [ 589517.200547805055976, 2326815.788774495013058 ], [ 589528.043830598355271, 2326826.080450174864382 ], [ 589539.637750672758557, 2326835.535710893105716 ], [ 589551.899356348440051, 2326844.088235558010638 ], [ 589568.076442669145763, 2326853.453499189112335 ], [ 589581.60932145616971, 2326859.829476707614958 ], [ 589599.119745024014264, 2326866.340962992981076 ], [ 589617.179728452465497, 2326871.188647010363638 ], [ 589631.88711833988782, 2326873.832322249189019 ], [ 589650.502434488618746, 2326875.578612487297505 ], [ 589665.449855722370557, 2326875.714413330890238 ], [ 589684.087732852902263, 2326874.310423201415688 ], [ 589702.518019853159785, 2326871.165316542610526 ], [ 589716.983741174452007, 2326867.420146570540965 ], [ 589734.626003151526675, 2326861.224549397826195 ], [ 589751.594610238797031, 2326853.411496749613434 ], [ 589767.766860652249306, 2326844.040727836079895 ], [ 589782.811892204219475, 2326833.120427230373025 ], [ 589787.687518201419152, 2326828.03429121337831 ], [ 589793.284849301446229, 2326819.466649510897696 ], [ 589800.0, 2326801.023676046170294 ], [ 589791.25, 2326795.625 ] ] } },
{ "type": "Feature", "properties": { "id": "shoreline_2018_dry_8", "bank_type": "left", "length_m": 1425.3682024101815, "is_island": false, "year": 2018, "season": "dry", "source": "S1", "processing_version": "1.0" }, "geometry": { "type": "LineString", "coordinates": [ [ 591111.25, 2322826.450783979147673 ], [ 591106.488364857854322, 2322830.30117596918717 ], [ 591101.133648578776047, 2322837.308486822061241 ], [ 591098.755662015406415, 2322842.80117596918717 ], [ 591095.652283462462947, 2322854.77193255815655 ], [ 591093.31651317817159, 2322859.936162273865193 ], [ 591090.32382403081283, 2322864.443473126273602 ], [ 591084.693162015406415, 2322870.062811111100018 ], [ 591076.02759457367938, 2322876.397243669722229 ], [ 591061.74268914735876, 2322884.612338243518025 ], [ 591048.242378036025912, 2322895.487027131952345 ], [ 591045.075161756947637, 2322895.44481085287407 ], [ 591043.602756330510601, 2322894.597405426204205 ], [ 591038.173369595548138, 2322886.798298762179911 ], [ 591034.638463051989675, 2322884.539792572148144 ], [ 591030.275631273514591, 2322884.474481430370361 ], [ 591025.084874260239303, 2322886.602365335915238 ], [ 591016.658221438527107, 2322892.709696420002729 ], [ 591009.10426437901333, 2322900.161509891971946 ], [ 591000.353430894203484, 2322912.074752058833838 ], [ 590992.680629305308685, 2322924.897144829388708 ], [ 590983.015568843693472, 2322945.137979263439775 ], [ 590976.741776654031128, 2322962.744773058686405 ], [ 590972.144467445090413, 2322980.851760415360332 ], [ 590969.260129939764738, 2322999.327435006387532 ], [ 590968.11959976516664, 2323017.974732327274978 ], [ 590968.728867717203684, 2323036.657158000394702 ], [ 590971.766903771553189, 2323058.882730424869806 ], [ 590976.187425234238617, 2323077.035875300876796 ], [ 590982.292771401582286, 2323094.703803988173604 ], [ 590990.040457654511556, 2323111.722308403812349 ], [ 591001.370747106615454, 2323131.066637514159083 ], [ 591012.424018652411178, 2323146.141331698745489 ], [ 591024.855064742267132, 2323160.109992519021034 ], [ 591041.398731501307338, 2323175.238171115051955 ], [ 591056.41576858854387, 2323186.36950774397701 ], [ 591072.418838765937835, 2323196.041626251768321 ], [ 591089.240108727710322, 2323204.163837898056954 ], [ 591106.765006619156338, 2323210.68287798948586 ], [ 591128.48007428064011, 2323216.295517196878791 ], [ 591146.949056243640371, 2323219.084086982533336 ], [ 591165.616662128129974, 2323220.133279643021524 ], [ 591188.019486261764541, 2323219.078445411752909 ], [ 591206.487038192339242, 2323216.284934993367642 ], [ 591224.630532704759389, 2323211.771052516065538 ], [ 591245.72220505704172, 2323204.145479580387473 ], [ 591265.848502120003104, 2323194.262628011405468 ], [ 591291.525012428872287, 2323178.792476524133235 ], [ 591322.581378297065385, 2323157.818237324245274 ], [ 591337.109683597460389, 2323146.062208613846451 ], [ 591350.532303880550899, 2323133.042285989969969 ], [ 591362.674042751663364, 2323118.830029840581119 ], [ 591373.427490289788693, 2323103.552939228713512 ], [ 591384.381793854292482, 2323083.978382050991058 ], [ 591391.781074430327863, 2323066.813985290937126 ], [ 591397.539552550646476, 2323049.04242339078337 ], [ 591402.220107132103294, 2323027.105958407744765 ], [ 591404.407027794863097, 2323004.785631764680147 ], [ 591404.305939863552339, 2322986.108391842339188 ], [ 591401.877572997822426, 2322963.812974856235087 ], [ 591396.959966676542535, 2322941.928888731636107 ], [ 591389.61866678041406, 2322920.742574865464121 ], [ 591379.950073593528941, 2322900.520601293072104 ], [ 591368.065853555686772, 2322881.500143021345139 ], [ 591354.11855867144186, 2322863.932181218639016 ], [ 591338.292187020531856, 2322848.04675786010921 ], [ 591320.789120993111283, 2322834.04178605787456 ], [ 591301.811760655371472, 2322822.08527516759932 ], [ 591281.605006752768531, 2322812.342975260689855 ], [ 591260.441979916067794, 2322804.92411316325888 ], [ 591238.58807512675412, 2322799.934229572303593 ], [ 591212.563728959532455, 2322797.263057155534625 ], [ 591190.134793888311833, 2322797.689150145277381 ], [ 591164.234609851147979, 2322801.380737954284996 ], [ 591139.304785681189969, 2322808.360623333603144 ], [ 591127.230489241075702, 2322813.962363145779818 ], [ 591111.25, 2322826.450783979147673 ] ] } },
{ "type": "Feature", "properties": { "id": "shoreline_2018_dry_9", "bank_type": "right", "length_m": 1461.5365272139131, "is_island": false, "year": 2018, "season": "dry", "source": "S1", "processing_version": "1.0" }, "geometry": { "type": "LineString", "coordinates": [ [ 593808.75, 2321895.625 ], [ 593813.4375, 2321892.8125 ], [ 593818.125, 2321886.25 ], [ 593819.6875, 2321880.3125 ], [ 593820.9375, 2321862.8125 ], [ 593823.28125, 2321853.90625 ], [ 593835.625, 2321828.75 ], [ 593838.59375, 2321824.21875 ], [ 593844.21875, 2321818.59375 ], [ 593848.75, 2321815.625 ], [ 593871.25, 2321804.375 ], [ 593875.78125, 2321803.28125 ], [ 593881.40625, 2321805.15625 ], [ 593887.1875, 2321813.4375 ], [ 593893.75, 2321818.125 ], [ 593903.125, 2321820.0 ], [ 593917.1875, 2321818.726422363892198 ], [ 593923.28125, 2321816.816055910661817 ], [ 593931.25, 2321812.358534184284508 ], [ 593938.029220808995888, 2321806.372679013293236 ], [ 593943.727272831369191, 2321799.049506902694702 ], [ 593949.788496268447489, 2321787.375890721101314 ], [ 593954.65583612723276, 2321774.179242683574557 ], [ 593959.146644702297635, 2321756.094031159766018 ], [ 593961.916921043535694, 2321737.607125102542341 ], [ 593962.880213621770963, 2321722.688752917572856 ], [ 593962.502563599031419, 2321703.993983426596969 ], [ 593960.942618267610669, 2321689.131586693692952 ], [ 593957.430005033267662, 2321670.764616386033595 ], [ 593952.217969289515167, 2321652.82458214648068 ], [ 593945.347471134038642, 2321635.441669118590653 ], [ 593934.997863409807906, 2321615.541895268019289 ], [ 593924.717671926831827, 2321599.943850048817694 ], [ 593913.017663159873337, 2321585.367949858307838 ], [ 593897.250141144962981, 2321569.415558674838394 ], [ 593882.81993266439531, 2321557.552066951990128 ], [ 593867.335230542696081, 2321547.084519539959729 ], [ 593850.932723402045667, 2321538.111041322816163 ], [ 593833.779837121022865, 2321530.719229722861201 ], [ 593812.379040083964355, 2321524.009719622787088 ], [ 593794.056671337457374, 2321520.283838858827949 ], [ 593775.484639698406681, 2321518.290775783825666 ], [ 593756.788046195171773, 2321518.044171601999551 ], [ 593734.449482841533609, 2321520.06110832747072 ], [ 593716.116493314388208, 2321523.645409550052136 ], [ 593698.181451962562278, 2321528.93645320693031 ], [ 593677.441457445500419, 2321537.478330662474036 ], [ 593660.982247746083885, 2321546.317258816212416 ], [ 593642.181186572299339, 2321558.61874900246039 ], [ 593606.240241778781638, 2321585.666263797320426 ], [ 593592.04698602668941, 2321597.847775414120406 ], [ 593576.400780164985918, 2321613.927486817352474 ], [ 593562.638779688393697, 2321631.635956363752484 ], [ 593552.7560192537494, 2321647.484672605525702 ], [ 593542.910350073827431, 2321667.635256780777127 ], [ 593535.389086337992921, 2321688.767041611485183 ], [ 593530.289945147698745, 2321710.602142703719437 ], [ 593527.935295669361949, 2321729.134880249388516 ], [ 593527.414006025297567, 2321751.560387386474758 ], [ 593529.414460851578042, 2321773.900318408384919 ], [ 593532.986104368930683, 2321792.235564403235912 ], [ 593539.521175168221816, 2321813.692538600414991 ], [ 593550.142304752022028, 2321837.60248849960044 ], [ 593563.788863515015692, 2321859.924082286190242 ], [ 593577.735262532019988, 2321877.483973576687276 ], [ 593596.366743306745775, 2321895.837628381792456 ], [ 593614.132707534474321, 2321909.5207041609101 ], [ 593633.336051888996735, 2321921.116731317248195 ], [ 593657.209762433310971, 2321931.815078490879387 ], [ 593671.403600838966668, 2321936.490088925696909 ], [ 593685.927959201275371, 2321940.094089387450367 ], [ 593711.829448827309534, 2321943.745354060083628 ], [ 593726.762332138372585, 2321944.297821536660194 ], [ 593741.715625950135291, 2321943.728494836483151 ], [ 593767.608734538778663, 2321940.048315693158656 ], [ 593777.704989027464762, 2321936.900898197665811 ], [ 593783.666185912676156, 2321934.016438394319266 ], [ 593793.590141559951007, 2321926.430480925366282 ], [ 593796.947686457075179, 2321922.008173953741789 ], [ 593799.08430593716912, 2321917.236112497746944 ], [ 593800.3125, 2321906.910422991961241 ], [ 593801.875, 2321902.427582377102226 ], [ 593804.6875, 2321898.665774713270366 ], [ 593808.75, 2321895.625 ] ] } },
{ "type": "Feature", "properties": { "id": "shoreline_2018_dry_10", "bank_type": "right", "length_m": 28407.780613578805, "is_island": false, "year": 2018, "season": "dry", "source": "S1", "processing_version": "1.0" }, "geometry": { "type": "LineString", "coordinates": [ [ 595608.75, 2300155.625 ], [ 595613.4375, 2300152.8125 ], [ 595618.125, 2300146.25 ], [ 595619.6875, 2300140.3125 ], [ 595620.3125, 2300129.6875 ], [ 595623.125, 2300121.25 ], [ 595626.5625, 2300117.1875 ], [ 595633.4375, 2300112.8125 ], [ 595638.125, 2300106.25 ], [ 595639.6875, 2300100.3125 ], [ 595640.3125, 2300089.6875 ], [ 595643.125, 2300081.25 ], [ 595646.5625, 2300077.1875 ], [ 595653.4375, 2300072.8125 ], [ 595658.125, 2300066.25 ], [ 595659.6875, 2300060.3125 ], [ 595660.3125, 2300049.6875 ], [ 595663.125, 2300041.25 ], [ 595666.5625, 2300037.1875 ], [ 595673.4375, 2300032.8125 ], [ 595678.125, 2300026.25 ], [ 595679.6875, 2300020.3125 ], [ 595680.3125, 2300009.6875 ], [ 595683.125, 2300001.25 ], [ 595686.5625, 2299997.1875 ], [ 595693.4375, 2299992.8125 ], [ 595698.125, 2299986.25 ], [ 595699.6875, 2299980.3125 ], [ 595700.3125, 2299969.6875 ], [ 595703.125, 2299961.25 ], [ 595708.75, 2299955.625 ], [ 595731.25, 2299944.375 ], [ 595736.875, 2299938.75 ], [ 595739.0625, 2299933.4375 ], [ 595740.3125, 2299919.6875 ], [ 595741.875, 2299913.75 ], [ 595744.6875, 2299909.0625 ], [ 595753.4375, 2299902.8125 ], [ 595756.875, 2299898.75 ], [ 595759.0625, 2299893.4375 ], [ 595760.3125, 2299879.6875 ], [ 595763.125, 2299871.25 ], [ 595766.5625, 2299867.1875 ], [ 595777.8125, 2299859.6875 ], [ 595782.96875, 2299853.59375 ], [ 595835.625, 2299748.75 ], [ 595842.1875, 2299740.3125 ], [ 595853.4375, 2299732.8125 ], [ 595856.875, 2299728.75 ], [ 595859.0625, 2299723.4375 ], [ 595860.3125, 2299709.6875 ], [ 595863.125, 2299701.25 ], [ 595868.75, 2299695.625 ], [ 595891.25, 2299684.375 ], [ 595896.875, 2299678.75 ], [ 595899.0625, 2299673.4375 ], [ 595900.3125, 2299659.6875 ], [ 595901.875, 2299653.75 ], [ 595904.6875, 2299649.0625 ], [ 595913.4375, 2299642.8125 ], [ 595916.875, 2299638.75 ], [ 595919.0625, 2299633.4375 ], [ 595920.3125, 2299619.6875 ], [ 595923.125, 2299611.25 ], [ 595926.5625, 2299607.1875 ], [ 595937.8125, 2299599.6875 ], [ 595942.96875, 2299593.59375 ], [ 595975.625, 2299528.75 ], [ 595978.59375, 2299524.21875 ], [ 595986.40625, 2299517.03125 ], [ 596011.25, 2299504.375 ], [ 596016.875, 2299498.75 ], [ 596019.0625, 2299493.4375 ], [ 596020.3125, 2299479.6875 ], [ 596023.125, 2299471.25 ], [ 596026.5625, 2299467.1875 ], [ 596033.59375, 2299462.96875 ], [ 596039.6875, 2299457.8125 ], [ 596044.375, 2299451.25 ], [ 596055.625, 2299428.75 ], [ 596058.59375, 2299424.21875 ], [ 596064.21875, 2299418.59375 ], [ 596073.4375, 2299412.8125 ], [ 596076.875, 2299408.75 ], [ 596079.6875, 2299400.3125 ], [ 596080.9375, 2299386.5625 ], [ 596084.6875, 2299379.0625 ], [ 596088.75, 2299375.625 ], [ 596113.59375, 2299362.96875 ], [ 596119.6875, 2299357.8125 ], [ 596124.375, 2299351.25 ], [ 596135.625, 2299328.75 ], [ 596142.1875, 2299320.3125 ], [ 596148.75, 2299315.625 ], [ 596171.25, 2299304.375 ], [ 596179.6875, 2299297.8125 ], [ 596184.375, 2299291.25 ], [ 596195.625, 2299268.75 ], [ 596202.1875, 2299260.3125 ], [ 596208.75, 2299255.625 ], [ 596231.25, 2299244.375 ], [ 596239.6875, 2299237.8125 ], [ 596244.375, 2299231.25 ], [ 596255.625, 2299208.75 ], [ 596262.1875, 2299200.3125 ], [ 596268.75, 2299195.625 ], [ 596291.25, 2299184.375 ], [ 596299.6875, 2299177.8125 ], [ 596304.375, 2299171.25 ], [ 596315.625, 2299148.75 ], [ 596322.1875, 2299140.3125 ], [ 596328.75, 2299135.625 ], [ 596351.25, 2299124.375 ], [ 596359.6875, 2299117.8125 ], [ 596364.375, 2299111.25 ], [ 596375.625, 2299088.75 ], [ 596382.1875, 2299080.3125 ], [ 596388.75, 2299075.625 ], [ 596411.25, 2299064.375 ], [ 596419.6875, 2299057.8125 ], [ 596424.375, 2299051.25 ], [ 596435.625, 2299028.75 ], [ 596442.1875, 2299020.3125 ], [ 596448.75, 2299015.625 ], [ 596471.25, 2299004.375 ], [ 596479.6875, 2298997.8125 ], [ 596484.375, 2298991.25 ], [ 596495.625, 2298968.75 ], [ 596502.1875, 2298960.3125 ], [ 596508.75, 2298955.625 ], [ 596571.25, 2298924.375 ], [ 596575.78125, 2298921.40625 ], [ 596582.96875, 2298913.59375 ], [ 596597.03125, 2298886.40625 ], [ 596600.3125, 2298882.1875 ], [ 596606.40625, 2298877.03125 ], [ 596711.25, 2298824.375 ], [ 596719.6875, 2298817.8125 ], [ 596727.1875, 2298806.5625 ], [ 596731.25, 2298803.125 ], [ 596739.6875, 2298800.3125 ], [ 596776.875, 2298800.0 ], [ 596786.25, 2298798.125 ], [ 596790.9375, 2298795.3125 ], [ 596797.1875, 2298786.5625 ], [ 596801.25, 2298783.125 ], [ 596806.5625, 2298780.9375 ], [ 596820.3125, 2298779.6875 ], [ 596826.25, 2298778.125 ], [ 596830.9375, 2298775.3125 ], [ 596837.1875, 2298766.5625 ], [ 596841.25, 2298763.125 ], [ 596846.5625, 2298760.9375 ], [ 596860.3125, 2298759.6875 ], [ 596866.25, 2298758.125 ], [ 596870.9375, 2298755.3125 ], [ 596877.1875, 2298746.5625 ], [ 596883.75, 2298741.875 ], [ 596893.125, 2298740.0 ], [ 596926.875, 2298740.0 ], [ 596936.25, 2298738.125 ], [ 596940.9375, 2298735.3125 ], [ 596947.1875, 2298726.5625 ], [ 596951.25, 2298723.125 ], [ 596956.5625, 2298720.9375 ], [ 596970.3125, 2298719.6875 ], [ 596976.25, 2298718.125 ], [ 596980.9375, 2298715.3125 ], [ 596987.1875, 2298706.5625 ], [ 596993.75, 2298701.875 ], [ 596999.6875, 2298700.3125 ], [ 597013.90625, 2298699.53125 ], [ 597023.28125, 2298697.65625 ], [ 597028.75, 2298695.625 ], [ 597093.90625, 2298663.28125 ], [ 597102.8125, 2298660.9375 ], [ 597120.3125, 2298659.6875 ], [ 597126.25, 2298658.125 ], [ 597130.9375, 2298655.3125 ], [ 597137.1875, 2298646.5625 ], [ 597143.75, 2298641.875 ], [ 597153.125, 2298640.0 ], [ 597186.875, 2298640.0 ], [ 597193.4375, 2298639.0625 ], [ 597200.9375, 2298635.3125 ], [ 597207.1875, 2298626.5625 ], [ 597213.75, 2298621.875 ], [ 597219.6875, 2298620.3125 ], [ 597230.46875, 2298619.84375 ], [ 597240.3125, 2298618.4375 ], [ 597248.75, 2298615.625 ], [ 597271.25, 2298604.375 ], [ 597276.71875, 2298602.34375 ], [ 597286.09375, 2298600.46875 ], [ 597300.3125, 2298599.6875 ], [ 597306.25, 2298598.125 ], [ 597310.9375, 2298595.3125 ], [ 597317.1875, 2298586.5625 ], [ 597323.75, 2298581.875 ], [ 597333.125, 2298580.0 ], [ 597366.875, 2298580.0 ], [ 597373.4375, 2298579.0625 ], [ 597380.9375, 2298575.3125 ], [ 597387.1875, 2298566.5625 ], [ 597393.75, 2298561.875 ], [ 597399.6875, 2298560.3125 ], [ 597410.46875, 2298559.84375 ], [ 597420.3125, 2298558.4375 ], [ 597428.75, 2298555.625 ], [ 597451.25, 2298544.375 ], [ 597456.71875, 2298542.34375 ], [ 597466.09375, 2298540.46875 ], [ 597480.3125, 2298539.6875 ], [ 597486.25, 2298538.125 ], [ 597490.9375, 2298535.3125 ], [ 597497.1875, 2298526.5625 ], [ 597503.75, 2298521.875 ], [ 597513.125, 2298520.0 ], [ 597546.875, 2298520.0 ], [ 597553.4375, 2298519.0625 ], [ 597560.9375, 2298515.3125 ], [ 597569.0625, 2298504.6875 ], [ 597573.75, 2298501.875 ], [ 597579.6875, 2298500.3125 ], [ 597616.875, 2298500.0 ], [ 597623.4375, 2298499.0625 ], [ 597630.9375, 2298495.3125 ], [ 597639.0625, 2298484.6875 ], [ 597646.5625, 2298480.9375 ], [ 597653.125, 2298480.0 ], [ 597720.3125, 2298479.6875 ], [ 597728.75, 2298476.875 ], [ 597732.8125, 2298473.4375 ], [ 597739.0625, 2298464.6875 ], [ 597746.5625, 2298460.9375 ], [ 597753.125, 2298460.0 ], [ 597820.3125, 2298459.6875 ], [ 597828.75, 2298456.875 ], [ 597832.8125, 2298453.4375 ], [ 597839.0625, 2298444.6875 ], [ 597843.75, 2298441.875 ], [ 597849.6875, 2298440.3125 ], [ 597950.3125, 2298439.6875 ], [ 597958.75, 2298436.875 ], [ 597962.8125, 2298433.4375 ], [ 597969.0625, 2298424.6875 ], [ 597976.5625, 2298420.9375 ], [ 597983.125, 2298420.0 ], [ 598046.875, 2298420.0 ], [ 598057.1875, 2298419.0625 ], [ 598066.09375, 2298416.71875 ], [ 598091.25, 2298404.375 ], [ 598102.8125, 2298400.9375 ], [ 598113.125, 2298400.0 ], [ 598210.3125, 2298399.6875 ], [ 598218.75, 2298396.875 ], [ 598222.8125, 2298393.4375 ], [ 598229.0625, 2298384.6875 ], [ 598233.75, 2298381.875 ], [ 598239.6875, 2298380.3125 ], [ 598370.46875, 2298379.84375 ], [ 598377.1875, 2298379.0625 ], [ 598386.09375, 2298376.71875 ], [ 598413.90625, 2298363.28125 ], [ 598426.09375, 2298360.46875 ], [ 598530.46875, 2298359.84375 ], [ 598537.1875, 2298359.0625 ], [ 598546.09375, 2298356.71875 ], [ 598573.90625, 2298343.28125 ], [ 598586.09375, 2298340.46875 ], [ 598690.3125, 2298339.6875 ], [ 598698.75, 2298336.875 ], [ 598702.8125, 2298333.4375 ], [ 598709.0625, 2298324.6875 ], [ 598713.75, 2298321.875 ], [ 598719.6875, 2298320.3125 ], [ 598786.875, 2298320.0 ], [ 598797.1875, 2298319.0625 ], [ 598806.09375, 2298316.71875 ], [ 598831.25, 2298304.375 ], [ 598839.6875, 2298301.5625 ], [ 598849.53125, 2298300.15625 ], [ 598886.875, 2298300.0 ], [ 598897.1875, 2298299.0625 ], [ 598906.09375, 2298296.71875 ], [ 598931.25, 2298284.375 ], [ 598939.6875, 2298281.5625 ], [ 598949.53125, 2298280.15625 ], [ 598986.875, 2298280.0 ], [ 598997.1875, 2298279.0625 ], [ 599006.09375, 2298276.71875 ], [ 599031.25, 2298264.375 ], [ 599039.6875, 2298261.5625 ], [ 599049.53125, 2298260.15625 ], [ 599086.875, 2298260.0 ], [ 599097.1875, 2298259.0625 ], [ 599106.09375, 2298256.71875 ], [ 599131.25, 2298244.375 ], [ 599142.8125, 2298240.9375 ], [ 599153.125, 2298240.0 ], [ 599220.3125, 2298239.6875 ], [ 599228.75, 2298236.875 ], [ 599232.8125, 2298233.4375 ], [ 599239.0625, 2298224.6875 ], [ 599246.5625, 2298220.9375 ], [ 599253.125, 2298220.0 ], [ 599316.875, 2298220.0 ], [ 599323.4375, 2298219.0625 ], [ 599330.9375, 2298215.3125 ], [ 599339.0625, 2298204.6875 ], [ 599346.5625, 2298200.9375 ], [ 599353.125, 2298200.0 ], [ 599386.875, 2298200.0 ], [ 599393.4375, 2298199.0625 ], [ 599400.9375, 2298195.3125 ], [ 599409.0625, 2298184.6875 ], [ 599416.5625, 2298180.9375 ], [ 599423.125, 2298180.0 ], [ 599456.875, 2298180.0 ], [ 599463.4375, 2298179.0625 ], [ 599470.9375, 2298175.3125 ], [ 599479.0625, 2298164.6875 ], [ 599486.5625, 2298160.9375 ], [ 599493.125, 2298160.0 ], [ 599526.875, 2298160.0 ], [ 599533.4375, 2298159.0625 ], [ 599540.9375, 2298155.3125 ], [ 599549.0625, 2298144.6875 ], [ 599556.5625, 2298140.9375 ], [ 599563.125, 2298140.0 ], [ 599600.3125, 2298139.6875 ], [ 599608.75, 2298136.875 ], [ 599612.8125, 2298133.4375 ], [ 599619.0625, 2298124.6875 ], [ 599626.5625, 2298120.9375 ], [ 599633.125, 2298120.0 ], [ 599666.875, 2298120.0 ], [ 599673.4375, 2298119.0625 ], [ 599680.9375, 2298115.3125 ], [ 599687.1875, 2298106.5625 ], [ 599693.75, 2298101.875 ], [ 599699.6875, 2298100.3125 ], [ 599710.46875, 2298099.84375 ], [ 599720.3125, 2298098.4375 ], [ 599728.75, 2298095.625 ], [ 599751.25, 2298084.375 ], [ 599756.71875, 2298082.34375 ], [ 599766.09375, 2298080.46875 ], [ 599780.3125, 2298079.6875 ], [ 599786.25, 2298078.125 ], [ 599792.8125, 2298073.4375 ], [ 599799.0625, 2298064.6875 ], [ 599806.5625, 2298060.9375 ], [ 599813.125, 2298060.0 ], [ 599846.875, 2298060.0 ], [ 599856.25, 2298058.125 ], [ 599860.9375, 2298055.3125 ], [ 599867.1875, 2298046.5625 ], [ 599873.75, 2298041.875 ], [ 599879.6875, 2298040.3125 ], [ 599897.1875, 2298039.0625 ], [ 599908.75, 2298035.625 ], [ 600171.25, 2297904.375 ], [ 600177.8125, 2297899.6875 ], [ 600182.96875, 2297893.59375 ], [ 600195.625, 2297868.75 ], [ 600199.0625, 2297864.6875 ], [ 600206.5625, 2297860.9375 ], [ 600220.3125, 2297859.6875 ], [ 600228.75, 2297856.875 ], [ 600232.8125, 2297853.4375 ], [ 600238.59375, 2297844.21875 ], [ 600244.21875, 2297838.59375 ], [ 600275.78125, 2297821.40625 ], [ 600282.96875, 2297813.59375 ], [ 600295.625, 2297788.75 ], [ 600302.1875, 2297780.3125 ], [ 600308.75, 2297775.625 ], [ 600331.25, 2297764.375 ], [ 600339.6875, 2297757.8125 ], [ 600344.375, 2297751.25 ], [ 600355.625, 2297728.75 ], [ 600362.1875, 2297720.3125 ], [ 600368.75, 2297715.625 ], [ 600391.25, 2297704.375 ], [ 600399.6875, 2297697.8125 ], [ 600404.375, 2297691.25 ], [ 600415.625, 2297668.75 ], [ 600422.1875, 2297660.3125 ], [ 600428.75, 2297655.625 ], [ 600451.25, 2297644.375 ], [ 600459.6875, 2297637.8125 ], [ 600464.375, 2297631.25 ], [ 600495.625, 2297568.75 ], [ 600498.59375, 2297564.21875 ], [ 600506.40625, 2297557.03125 ], [ 600533.59375, 2297542.96875 ], [ 600537.8125, 2297539.6875 ], [ 600542.96875, 2297533.59375 ], [ 600577.03125, 2297466.40625 ], [ 600582.1875, 2297460.3125 ], [ 600593.4375, 2297452.8125 ], [ 600596.875, 2297448.75 ], [ 600599.6875, 2297440.3125 ], [ 600600.9375, 2297426.5625 ], [ 600604.6875, 2297419.0625 ], [ 600608.75, 2297415.625 ], [ 600631.25, 2297404.375 ], [ 600636.875, 2297398.75 ], [ 600639.0625, 2297393.4375 ], [ 600640.3125, 2297379.6875 ], [ 600641.875, 2297373.75 ], [ 600644.6875, 2297369.0625 ], [ 600653.4375, 2297362.8125 ], [ 600656.875, 2297358.75 ], [ 600659.0625, 2297353.4375 ], [ 600660.3125, 2297339.6875 ], [ 600661.875, 2297333.75 ], [ 600664.6875, 2297329.0625 ], [ 600673.4375, 2297322.8125 ], [ 600676.875, 2297318.75 ], [ 600679.0625, 2297313.4375 ], [ 600680.3125, 2297299.6875 ], [ 600681.875, 2297293.75 ], [ 600684.6875, 2297289.0625 ], [ 600693.4375, 2297282.8125 ], [ 600696.875, 2297278.75 ], [ 600699.0625, 2297273.4375 ], [ 600700.3125, 2297259.6875 ], [ 600701.875, 2297253.75 ], [ 600704.6875, 2297249.0625 ], [ 600713.4375, 2297242.8125 ], [ 600716.875, 2297238.75 ], [ 600719.0625, 2297233.4375 ], [ 600720.3125, 2297219.6875 ], [ 600721.875, 2297213.75 ], [ 600724.6875, 2297209.0625 ], [ 600733.4375, 2297202.8125 ], [ 600736.875, 2297198.75 ], [ 600739.0625, 2297193.4375 ], [ 600740.3125, 2297179.6875 ], [ 600741.875, 2297173.75 ], [ 600744.6875, 2297169.0625 ], [ 600753.4375, 2297162.8125 ], [ 600758.125, 2297156.25 ], [ 600760.0, 2297146.875 ], [ 600760.0, 2297113.125 ], [ 600760.9375, 2297106.5625 ], [ 600764.6875, 2297099.0625 ], [ 600773.4375, 2297092.8125 ], [ 600778.125, 2297086.25 ], [ 600779.6875, 2297080.3125 ], [ 600780.3125, 2297069.6875 ], [ 600783.125, 2297061.25 ], [ 600786.5625, 2297057.1875 ], [ 600793.4375, 2297052.8125 ], [ 600798.125, 2297046.25 ], [ 600799.6875, 2297040.3125 ], [ 600800.46875, 2297026.09375 ], [ 600802.34375, 2297016.71875 ], [ 600816.71875, 2296986.09375 ], [ 600819.0625, 2296977.1875 ], [ 600820.0, 2296966.875 ], [ 600820.0, 2296513.125 ], [ 600819.0625, 2296506.5625 ], [ 600816.875, 2296501.25 ], [ 600813.4375, 2296497.1875 ], [ 600804.6875, 2296490.9375 ], [ 600801.875, 2296486.25 ], [ 600800.3125, 2296480.3125 ], [ 600799.6875, 2296319.6875 ], [ 600796.875, 2296311.25 ], [ 600793.4375, 2296307.1875 ], [ 600784.6875, 2296300.9375 ], [ 600781.875, 2296296.25 ], [ 600780.3125, 2296290.3125 ], [ 600779.84375, 2296189.53125 ], [ 600779.0625, 2296182.8125 ], [ 600776.71875, 2296173.90625 ], [ 600763.28125, 2296146.09375 ], [ 600760.46875, 2296133.90625 ], [ 600759.6875, 2296029.6875 ], [ 600758.125, 2296023.75 ], [ 600755.3125, 2296019.0625 ], [ 600746.5625, 2296012.8125 ], [ 600743.125, 2296008.75 ], [ 600740.9375, 2296003.4375 ], [ 600740.0, 2295996.875 ], [ 600740.0, 2295333.125 ], [ 600739.53125, 2295326.09375 ], [ 600737.65625, 2295316.71875 ], [ 600723.28125, 2295286.09375 ], [ 600720.9375, 2295277.1875 ], [ 600720.0, 2295266.875 ], [ 600720.0, 2294813.125 ], [ 600719.53125, 2294806.09375 ], [ 600717.65625, 2294796.71875 ], [ 600703.28125, 2294766.09375 ], [ 600701.5625, 2294760.3125 ], [ 600700.15625, 2294750.46875 ], [ 600700.0, 2294353.125 ], [ 600699.0625, 2294346.5625 ], [ 600696.875, 2294341.25 ], [ 600693.4375, 2294337.1875 ], [ 600686.5625, 2294332.8125 ], [ 600683.125, 2294328.75 ], [ 600680.9375, 2294323.4375 ], [ 600680.0, 2294316.875 ], [ 600680.3125, 2293829.6875 ], [ 600683.125, 2293821.25 ], [ 600686.5625, 2293817.1875 ], [ 600695.3125, 2293810.9375 ], [ 600699.0625, 2293803.4375 ], [ 600700.0, 2293796.875 ], [ 600700.3125, 2293699.6875 ], [ 600703.125, 2293691.25 ], [ 600706.5625, 2293687.1875 ], [ 600715.3125, 2293680.9375 ], [ 600718.125, 2293676.25 ], [ 600719.6875, 2293670.3125 ], [ 600720.46875, 2293566.09375 ], [ 600723.28125, 2293553.90625 ], [ 600736.71875, 2293526.09375 ], [ 600739.53125, 2293513.90625 ], [ 600740.0, 2293413.125 ], [ 600740.9375, 2293406.5625 ], [ 600744.6875, 2293399.0625 ], [ 600755.3125, 2293390.9375 ], [ 600758.125, 2293386.25 ], [ 600759.6875, 2293380.3125 ], [ 600760.3125, 2293279.6875 ], [ 600763.125, 2293271.25 ], [ 600766.5625, 2293267.1875 ], [ 600775.3125, 2293260.9375 ], [ 600778.125, 2293256.25 ], [ 600779.6875, 2293250.3125 ], [ 600780.15625, 2293149.53125 ], [ 600780.9375, 2293142.8125 ], [ 600783.28125, 2293133.90625 ], [ 600795.625, 2293108.75 ], [ 600799.0625, 2293097.1875 ], [ 600800.0, 2293086.875 ], [ 600800.0, 2293023.125 ], [ 600799.0625, 2293016.5625 ], [ 600796.875, 2293011.25 ], [ 600793.4375, 2293007.1875 ], [ 600786.5625, 2293002.8125 ], [ 600781.875, 2292996.25 ], [ 600780.3125, 2292990.3125 ], [ 600779.6875, 2292979.6875 ], [ 600776.875, 2292971.25 ], [ 600773.4375, 2292967.1875 ], [ 600766.5625, 2292962.8125 ], [ 600761.875, 2292956.25 ], [ 600760.3125, 2292950.3125 ], [ 600759.6875, 2292939.6875 ], [ 600756.875, 2292931.25 ], [ 600753.4375, 2292927.1875 ], [ 600746.5625, 2292922.8125 ], [ 600741.875, 2292916.25 ], [ 600740.3125, 2292910.3125 ], [ 600739.6875, 2292899.6875 ], [ 600736.875, 2292891.25 ], [ 600733.4375, 2292887.1875 ], [ 600726.5625, 2292882.8125 ], [ 600721.875, 2292876.25 ], [ 600720.3125, 2292870.3125 ], [ 600719.6875, 2292859.6875 ], [ 600716.875, 2292851.25 ], [ 600713.4375, 2292847.1875 ], [ 600706.5625, 2292842.8125 ], [ 600701.875, 2292836.25 ], [ 600700.3125, 2292830.3125 ], [ 600699.6875, 2292819.6875 ], [ 600696.875, 2292811.25 ], [ 600693.4375, 2292807.1875 ], [ 600686.5625, 2292802.8125 ], [ 600681.875, 2292796.25 ], [ 600680.3125, 2292790.3125 ], [ 600679.6875, 2292779.6875 ], [ 600676.875, 2292771.25 ], [ 600673.4375, 2292767.1875 ], [ 600666.5625, 2292762.8125 ], [ 600661.875, 2292756.25 ], [ 600660.3125, 2292750.3125 ], [ 600659.6875, 2292739.6875 ], [ 600656.875, 2292731.25 ], [ 600653.4375, 2292727.1875 ], [ 600646.5625, 2292722.8125 ], [ 600641.875, 2292716.25 ], [ 600640.3125, 2292710.3125 ], [ 600639.6875, 2292699.6875 ], [ 600636.875, 2292691.25 ], [ 600633.4375, 2292687.1875 ], [ 600626.5625, 2292682.8125 ], [ 600621.875, 2292676.25 ], [ 600620.0, 2292666.875 ], [ 600620.0, 2292633.125 ], [ 600619.0625, 2292626.5625 ], [ 600615.3125, 2292619.0625 ], [ 600606.5625, 2292612.8125 ], [ 600603.125, 2292608.75 ], [ 600600.3125, 2292600.3125 ], [ 600599.0625, 2292587.5 ], [ 600596.875, 2292584.375 ], [ 600595.3125, 2292583.75 ], [ 600591.25, 2292584.375 ], [ 600568.75, 2292595.625 ], [ 600564.6875, 2292599.0625 ], [ 600560.9375, 2292606.5625 ], [ 600560.0, 2292616.875 ], [ 600561.875, 2292626.25 ], [ 600566.5625, 2292632.8125 ], [ 600575.3125, 2292639.0625 ], [ 600579.0625, 2292646.5625 ], [ 600580.0, 2292653.125 ], [ 600579.6875, 2292690.3125 ], [ 600578.125, 2292696.25 ], [ 600575.3125, 2292700.9375 ], [ 600566.5625, 2292707.1875 ], [ 600561.875, 2292713.75 ], [ 600560.3125, 2292719.6875 ], [ 600559.0625, 2292737.1875 ], [ 600556.71875, 2292746.09375 ], [ 600524.375, 2292811.25 ], [ 600522.34375, 2292816.71875 ], [ 600520.15625, 2292829.53125 ], [ 600520.0, 2292896.875 ], [ 600518.125, 2292906.25 ], [ 600513.4375, 2292912.8125 ], [ 600504.21875, 2292918.59375 ], [ 600498.59375, 2292924.21875 ], [ 600481.40625, 2292955.78125 ], [ 600475.78125, 2292961.40625 ], [ 600466.5625, 2292967.1875 ], [ 600463.125, 2292971.25 ], [ 600460.9375, 2292976.5625 ], [ 600459.6875, 2292990.3125 ], [ 600458.125, 2292996.25 ], [ 600455.3125, 2293000.9375 ], [ 600446.875, 2293006.875 ], [ 600445.0, 2293009.375 ], [ 600445.0, 2293010.625 ], [ 600446.875, 2293013.125 ], [ 600455.78125, 2293018.59375 ], [ 600462.96875, 2293026.40625 ], [ 600475.625, 2293051.25 ], [ 600477.5, 2293058.75 ], [ 600477.1875, 2293063.75 ], [ 600475.625, 2293068.75 ], [ 600464.375, 2293091.25 ], [ 600462.34375, 2293096.71875 ], [ 600460.9375, 2293102.8125 ], [ 600460.0, 2293113.125 ], [ 600460.0, 2293146.875 ], [ 600460.9375, 2293153.4375 ], [ 600464.6875, 2293160.9375 ], [ 600473.4375, 2293167.1875 ], [ 600476.875, 2293171.25 ], [ 600479.0625, 2293176.5625 ], [ 600480.0, 2293183.125 ], [ 600480.0, 2293216.875 ], [ 600479.0625, 2293223.4375 ], [ 600475.3125, 2293230.9375 ], [ 600466.5625, 2293237.1875 ], [ 600463.125, 2293241.25 ], [ 600460.9375, 2293246.5625 ], [ 600460.0, 2293253.125 ], [ 600460.0, 2293286.875 ], [ 600461.5625, 2293300.3125 ], [ 600464.375, 2293308.75 ], [ 600475.625, 2293331.25 ], [ 600476.71875, 2293335.78125 ], [ 600474.84375, 2293341.40625 ], [ 600466.875, 2293346.875 ], [ 600465.625, 2293348.125 ], [ 600465.0, 2293350.625 ], [ 600466.875, 2293353.125 ], [ 600474.84375, 2293358.59375 ], [ 600476.71875, 2293364.21875 ], [ 600475.625, 2293368.75 ], [ 600464.375, 2293391.25 ], [ 600462.34375, 2293396.71875 ], [ 600460.46875, 2293406.09375 ], [ 600459.6875, 2293420.3125 ], [ 600458.125, 2293426.25 ], [ 600453.4375, 2293432.8125 ], [ 600444.6875, 2293439.0625 ], [ 600441.875, 2293443.75 ], [ 600440.3125, 2293449.6875 ], [ 600439.6875, 2293550.3125 ], [ 600438.125, 2293556.25 ], [ 600435.3125, 2293560.9375 ], [ 600426.5625, 2293567.1875 ], [ 600423.125, 2293571.25 ], [ 600420.9375, 2293576.5625 ], [ 600420.0, 2293583.125 ], [ 600419.53125, 2293713.90625 ], [ 600416.71875, 2293726.09375 ], [ 600403.28125, 2293753.90625 ], [ 600401.5625, 2293759.6875 ], [ 600400.15625, 2293769.53125 ], [ 600399.6875, 2293930.3125 ], [ 600398.125, 2293936.25 ], [ 600395.3125, 2293940.9375 ], [ 600386.5625, 2293947.1875 ], [ 600383.125, 2293951.25 ], [ 600380.9375, 2293956.5625 ], [ 600380.0, 2293963.125 ], [ 600380.0, 2294026.875 ], [ 600380.9375, 2294037.1875 ], [ 600383.28125, 2294046.09375 ], [ 600395.625, 2294071.25 ], [ 600397.5, 2294078.75 ], [ 600397.1875, 2294083.75 ], [ 600395.625, 2294088.75 ], [ 600384.375, 2294111.25 ], [ 600380.9375, 2294122.8125 ], [ 600380.0, 2294133.125 ], [ 600380.0, 2294196.875 ], [ 600380.9375, 2294203.4375 ], [ 600383.125, 2294208.75 ], [ 600386.5625, 2294212.8125 ], [ 600393.4375, 2294217.1875 ], [ 600396.875, 2294221.25 ], [ 600399.0625, 2294226.5625 ], [ 600400.0, 2294233.125 ], [ 600400.0, 2294266.875 ], [ 600399.0625, 2294273.4375 ], [ 600395.3125, 2294280.9375 ], [ 600386.5625, 2294287.1875 ], [ 600383.125, 2294291.25 ], [ 600380.9375, 2294296.5625 ], [ 600380.0, 2294303.125 ], [ 600380.3125, 2294310.3125 ], [ 600381.875, 2294316.25 ], [ 600384.6875, 2294320.9375 ], [ 600393.4375, 2294327.1875 ], [ 600396.875, 2294331.25 ], [ 600399.0625, 2294336.5625 ], [ 600400.0, 2294343.125 ], [ 600399.53125, 2294353.90625 ], [ 600397.65625, 2294363.28125 ], [ 600395.625, 2294368.75 ], [ 600384.375, 2294391.25 ], [ 600380.9375, 2294402.8125 ], [ 600380.0, 2294413.125 ], [ 600380.0, 2294476.875 ], [ 600380.9375, 2294483.4375 ], [ 600383.125, 2294488.75 ], [ 600386.5625, 2294492.8125 ], [ 600395.3125, 2294499.0625 ], [ 600398.125, 2294503.75 ], [ 600399.6875, 2294509.6875 ], [ 600400.3125, 2294640.3125 ], [ 600401.875, 2294646.25 ], [ 600404.6875, 2294650.9375 ], [ 600413.4375, 2294657.1875 ], [ 600416.875, 2294661.25 ], [ 600419.0625, 2294666.5625 ], [ 600420.0, 2294673.125 ], [ 600420.3125, 2294830.3125 ], [ 600421.875, 2294836.25 ], [ 600424.6875, 2294840.9375 ], [ 600433.4375, 2294847.1875 ], [ 600436.875, 2294851.25 ], [ 600439.0625, 2294856.5625 ], [ 600440.0, 2294863.125 ], [ 600439.6875, 2294870.3125 ], [ 600438.125, 2294876.25 ], [ 600435.3125, 2294880.9375 ], [ 600426.5625, 2294887.1875 ], [ 600423.125, 2294891.25 ], [ 600420.9375, 2294896.5625 ], [ 600420.0, 2294906.875 ], [ 600420.9375, 2294913.4375 ], [ 600423.125, 2294918.75 ], [ 600426.5625, 2294922.8125 ], [ 600435.3125, 2294929.0625 ], [ 600438.125, 2294933.75 ], [ 600439.6875, 2294939.6875 ], [ 600440.0, 2295156.875 ], [ 600440.9375, 2295163.4375 ], [ 600443.125, 2295168.75 ], [ 600446.5625, 2295172.8125 ], [ 600453.4375, 2295177.1875 ], [ 600456.875, 2295181.25 ], [ 600459.0625, 2295186.5625 ], [ 600460.0, 2295193.125 ], [ 600460.46875, 2295473.90625 ], [ 600463.28125, 2295486.09375 ], [ 600477.65625, 2295516.71875 ], [ 600479.53125, 2295526.09375 ], [ 600480.3125, 2295540.3125 ], [ 600481.875, 2295546.25 ], [ 600484.6875, 2295550.9375 ], [ 600493.4375, 2295557.1875 ], [ 600496.875, 2295561.25 ], [ 600499.0625, 2295566.5625 ], [ 600500.3125, 2295580.3125 ], [ 600501.875, 2295586.25 ], [ 600504.6875, 2295590.9375 ], [ 600513.4375, 2295597.1875 ], [ 600516.875, 2295601.25 ], [ 600519.0625, 2295606.5625 ], [ 600520.3125, 2295620.3125 ], [ 600523.125, 2295628.75 ], [ 600526.5625, 2295632.8125 ], [ 600535.78125, 2295638.59375 ], [ 600541.40625, 2295644.21875 ], [ 600557.03125, 2295673.59375 ], [ 600562.1875, 2295679.6875 ], [ 600575.3125, 2295689.0625 ], [ 600578.125, 2295693.75 ], [ 600579.6875, 2295699.6875 ], [ 600579.6875, 2295770.3125 ], [ 600578.125, 2295776.25 ], [ 600575.3125, 2295780.9375 ], [ 600566.5625, 2295787.1875 ], [ 600563.125, 2295791.25 ], [ 600560.9375, 2295796.5625 ], [ 600560.0, 2295803.125 ], [ 600560.46875, 2295813.90625 ], [ 600562.34375, 2295823.28125 ], [ 600564.375, 2295828.75 ], [ 600575.625, 2295851.25 ], [ 600577.1875, 2295856.25 ], [ 600577.5, 2295861.25 ], [ 600575.625, 2295868.75 ], [ 600563.28125, 2295893.90625 ], [ 600560.9375, 2295902.8125 ], [ 600560.0, 2295913.125 ], [ 600560.0, 2295976.875 ], [ 600559.0625, 2295983.4375 ], [ 600555.3125, 2295990.9375 ], [ 600546.5625, 2295997.1875 ], [ 600541.875, 2296003.75 ], [ 600540.0, 2296013.125 ], [ 600540.9375, 2296023.4375 ], [ 600544.6875, 2296030.9375 ], [ 600548.75, 2296034.375 ], [ 600555.78125, 2296038.59375 ], [ 600561.40625, 2296044.21875 ], [ 600564.375, 2296048.75 ], [ 600575.625, 2296071.25 ], [ 600580.3125, 2296077.8125 ], [ 600588.75, 2296084.375 ], [ 600613.59375, 2296097.03125 ], [ 600617.8125, 2296100.3125 ], [ 600622.96875, 2296106.40625 ], [ 600635.625, 2296131.25 ], [ 600637.65625, 2296136.71875 ], [ 600639.53125, 2296146.09375 ], [ 600640.3125, 2296160.3125 ], [ 600641.875, 2296166.25 ], [ 600644.6875, 2296170.9375 ], [ 600653.4375, 2296177.1875 ], [ 600656.875, 2296181.25 ], [ 600659.0625, 2296186.5625 ], [ 600660.0, 2296193.125 ], [ 600659.6875, 2296470.3125 ], [ 600658.125, 2296476.25 ], [ 600655.3125, 2296480.9375 ], [ 600646.5625, 2296487.1875 ], [ 600641.875, 2296493.75 ], [ 600640.3125, 2296499.6875 ], [ 600639.53125, 2296513.90625 ], [ 600637.65625, 2296523.28125 ], [ 600623.28125, 2296553.90625 ], [ 600620.9375, 2296562.8125 ], [ 600620.0, 2296573.125 ], [ 600620.3125, 2296580.3125 ], [ 600623.125, 2296588.75 ], [ 600626.5625, 2296592.8125 ], [ 600633.4375, 2296597.1875 ], [ 600638.125, 2296603.75 ], [ 600640.0, 2296613.125 ], [ 600640.0, 2296646.875 ], [ 600640.9375, 2296653.4375 ], [ 600644.6875, 2296660.9375 ], [ 600653.4375, 2296667.1875 ], [ 600656.875, 2296671.25 ], [ 600659.6875, 2296679.6875 ], [ 600659.6875, 2296690.3125 ], [ 600656.875, 2296698.75 ], [ 600653.4375, 2296702.8125 ], [ 600644.6875, 2296709.0625 ], [ 600640.9375, 2296716.5625 ], [ 600640.0, 2296723.125 ], [ 600640.0, 2296756.875 ], [ 600638.125, 2296766.25 ], [ 600633.4375, 2296772.8125 ], [ 600624.6875, 2296779.0625 ], [ 600620.9375, 2296786.5625 ], [ 600620.0, 2296793.125 ], [ 600620.0, 2296826.875 ], [ 600618.125, 2296836.25 ], [ 600613.4375, 2296842.8125 ], [ 600586.40625, 2296857.03125 ], [ 600582.1875, 2296860.3125 ], [ 600577.03125, 2296866.40625 ], [ 600543.28125, 2296933.90625 ], [ 600540.9375, 2296942.8125 ], [ 600539.6875, 2296960.3125 ], [ 600538.125, 2296966.25 ], [ 600535.3125, 2296970.9375 ], [ 600526.5625, 2296977.1875 ], [ 600523.125, 2296981.25 ], [ 600520.9375, 2296986.5625 ], [ 600519.6875, 2297000.3125 ], [ 600518.125, 2297006.25 ], [ 600515.3125, 2297010.9375 ], [ 600506.5625, 2297017.1875 ], [ 600501.875, 2297023.75 ], [ 600500.0, 2297033.125 ], [ 600500.0, 2297126.875 ], [ 600499.0625, 2297133.4375 ], [ 600496.875, 2297138.75 ], [ 600491.25, 2297144.375 ], [ 600466.40625, 2297157.03125 ], [ 600458.59375, 2297164.21875 ], [ 600455.625, 2297168.75 ], [ 600424.375, 2297231.25 ], [ 600419.6875, 2297237.8125 ], [ 600413.59375, 2297242.96875 ], [ 600388.75, 2297255.625 ], [ 600382.1875, 2297260.3125 ], [ 600377.03125, 2297266.40625 ], [ 600364.375, 2297291.25 ], [ 600359.6875, 2297297.8125 ], [ 600353.59375, 2297302.96875 ], [ 600328.75, 2297315.625 ], [ 600322.1875, 2297320.3125 ], [ 600317.03125, 2297326.40625 ], [ 600304.375, 2297351.25 ], [ 600299.6875, 2297357.8125 ], [ 600293.59375, 2297362.96875 ], [ 600268.75, 2297375.625 ], [ 600262.1875, 2297380.3125 ], [ 600257.03125, 2297386.40625 ], [ 600244.375, 2297411.25 ], [ 600239.6875, 2297417.8125 ], [ 600233.59375, 2297422.96875 ], [ 600208.75, 2297435.625 ], [ 600202.1875, 2297440.3125 ], [ 600197.03125, 2297446.40625 ], [ 600184.375, 2297471.25 ], [ 600180.9375, 2297475.3125 ], [ 600173.4375, 2297479.0625 ], [ 600159.6875, 2297480.3125 ], [ 600151.25, 2297483.125 ], [ 600147.1875, 2297486.5625 ], [ 600141.40625, 2297495.78125 ], [ 600135.78125, 2297501.40625 ], [ 600131.25, 2297504.375 ], [ 600108.75, 2297515.625 ], [ 600102.1875, 2297520.3125 ], [ 600097.03125, 2297526.40625 ], [ 600084.375, 2297551.25 ], [ 600080.9375, 2297555.3125 ], [ 600073.4375, 2297559.0625 ], [ 600059.6875, 2297560.3125 ], [ 600051.25, 2297563.125 ], [ 600047.1875, 2297566.5625 ], [ 600042.8125, 2297573.4375 ], [ 600036.25, 2297578.125 ], [ 600030.3125, 2297579.6875 ], [ 600019.6875, 2297580.3125 ], [ 600011.25, 2297583.125 ], [ 600007.1875, 2297586.5625 ], [ 600002.8125, 2297593.4375 ], [ 599996.25, 2297598.125 ], [ 599990.3125, 2297599.6875 ], [ 599979.6875, 2297600.3125 ], [ 599971.25, 2297603.125 ], [ 599967.1875, 2297606.5625 ], [ 599962.96875, 2297613.59375 ], [ 599957.8125, 2297619.6875 ], [ 599951.25, 2297624.375 ], [ 599928.75, 2297635.625 ], [ 599924.21875, 2297638.59375 ], [ 599918.59375, 2297644.21875 ], [ 599912.8125, 2297653.4375 ], [ 599908.75, 2297656.875 ], [ 599903.4375, 2297659.0625 ], [ 599889.6875, 2297660.3125 ], [ 599883.75, 2297661.875 ], [ 599879.0625, 2297664.6875 ], [ 599872.8125, 2297673.4375 ], [ 599868.75, 2297676.875 ], [ 599863.4375, 2297679.0625 ], [ 599849.6875, 2297680.3125 ], [ 599843.75, 2297681.875 ], [ 599839.0625, 2297684.6875 ], [ 599832.8125, 2297693.4375 ], [ 599828.75, 2297696.875 ], [ 599823.4375, 2297699.0625 ], [ 599809.6875, 2297700.3125 ], [ 599801.25, 2297703.125 ], [ 599795.625, 2297708.75 ], [ 599784.375, 2297731.25 ], [ 599778.75, 2297736.875 ], [ 599773.4375, 2297739.0625 ], [ 599759.6875, 2297740.3125 ], [ 599753.75, 2297741.875 ], [ 599749.0625, 2297744.6875 ], [ 599742.8125, 2297753.4375 ], [ 599738.75, 2297756.875 ], [ 599733.4375, 2297759.0625 ], [ 599719.6875, 2297760.3125 ], [ 599713.75, 2297761.875 ], [ 599709.0625, 2297764.6875 ], [ 599702.8125, 2297773.4375 ], [ 599696.25, 2297778.125 ], [ 599686.875, 2297780.0 ], [ 599653.125, 2297780.0 ], [ 599646.5625, 2297780.9375 ], [ 599641.25, 2297783.125 ], [ 599635.625, 2297788.75 ], [ 599624.375, 2297811.25 ], [ 599620.9375, 2297815.3125 ], [ 599616.25, 2297818.125 ], [ 599606.875, 2297820.0 ], [ 599573.125, 2297820.0 ], [ 599566.5625, 2297820.9375 ], [ 599559.0625, 2297824.6875 ], [ 599550.9375, 2297835.3125 ], [ 599546.25, 2297838.125 ], [ 599540.3125, 2297839.6875 ], [ 599503.125, 2297840.0 ], [ 599496.5625, 2297840.9375 ], [ 599489.0625, 2297844.6875 ], [ 599480.9375, 2297855.3125 ], [ 599473.4375, 2297859.0625 ], [ 599466.875, 2297860.0 ], [ 599433.125, 2297860.0 ], [ 599426.5625, 2297860.9375 ], [ 599419.0625, 2297864.6875 ], [ 599412.8125, 2297873.4375 ], [ 599406.25, 2297878.125 ], [ 599400.3125, 2297879.6875 ], [ 599389.6875, 2297880.3125 ], [ 599381.25, 2297883.125 ], [ 599377.1875, 2297886.5625 ], [ 599372.8125, 2297893.4375 ], [ 599366.25, 2297898.125 ], [ 599360.3125, 2297899.6875 ], [ 599342.8125, 2297900.9375 ], [ 599333.90625, 2297903.28125 ], [ 599266.09375, 2297936.71875 ], [ 599260.3125, 2297938.4375 ], [ 599250.46875, 2297939.84375 ], [ 599209.53125, 2297940.15625 ], [ 599196.71875, 2297942.34375 ], [ 599191.25, 2297944.375 ], [ 599126.09375, 2297976.71875 ], [ 599117.1875, 2297979.0625 ], [ 599099.6875, 2297980.3125 ], [ 599093.75, 2297981.875 ], [ 599089.0625, 2297984.6875 ], [ 599082.8125, 2297993.4375 ], [ 599076.25, 2297998.125 ], [ 599066.875, 2298000.0 ], [ 599033.125, 2298000.0 ], [ 599023.75, 2298001.875 ], [ 599019.0625, 2298004.6875 ], [ 599012.8125, 2298013.4375 ], [ 599008.75, 2298016.875 ], [ 599003.4375, 2298019.0625 ], [ 598989.6875, 2298020.3125 ], [ 598983.75, 2298021.875 ], [ 598977.1875, 2298026.5625 ], [ 598970.9375, 2298035.3125 ], [ 598963.4375, 2298039.0625 ], [ 598956.875, 2298040.0 ], [ 598919.6875, 2298040.3125 ], [ 598911.25, 2298043.125 ], [ 598907.1875, 2298046.5625 ], [ 598900.9375, 2298055.3125 ], [ 598893.4375, 2298059.0625 ], [ 598886.875, 2298060.0 ], [ 598853.125, 2298060.0 ], [ 598846.5625, 2298060.9375 ], [ 598839.0625, 2298064.6875 ], [ 598832.8125, 2298073.4375 ], [ 598826.25, 2298078.125 ], [ 598820.3125, 2298079.6875 ], [ 598806.09375, 2298080.46875 ], [ 598796.71875, 2298082.34375 ], [ 598791.25, 2298084.375 ], [ 598768.75, 2298095.625 ], [ 598760.3125, 2298098.4375 ], [ 598750.46875, 2298099.84375 ], [ 598713.125, 2298100.0 ], [ 598706.5625, 2298100.9375 ], [ 598699.0625, 2298104.6875 ], [ 598692.8125, 2298113.4375 ], [ 598688.75, 2298116.875 ], [ 598683.4375, 2298119.0625 ], [ 598669.6875, 2298120.3125 ], [ 598663.75, 2298121.875 ], [ 598657.1875, 2298126.5625 ], [ 598650.9375, 2298135.3125 ], [ 598643.4375, 2298139.0625 ], [ 598636.875, 2298140.0 ], [ 598629.53125, 2298139.84375 ], [ 598616.71875, 2298137.65625 ], [ 598611.25, 2298135.625 ], [ 598588.75, 2298124.375 ], [ 598577.1875, 2298120.9375 ], [ 598566.875, 2298120.0 ], [ 598526.09375, 2298120.46875 ], [ 598519.6875, 2298121.5625 ], [ 598511.25, 2298124.375 ], [ 598486.40625, 2298137.03125 ], [ 598478.59375, 2298144.21875 ], [ 598472.8125, 2298153.4375 ], [ 598466.25, 2298158.125 ], [ 598456.875, 2298160.0 ], [ 598393.125, 2298160.0 ], [ 598386.5625, 2298160.9375 ], [ 598379.0625, 2298164.6875 ], [ 598370.9375, 2298175.3125 ], [ 598366.25, 2298178.125 ], [ 598360.3125, 2298179.6875 ], [ 598233.125, 2298180.0 ], [ 598226.5625, 2298180.9375 ], [ 598221.25, 2298183.125 ], [ 598217.1875, 2298186.5625 ], [ 598210.9375, 2298195.3125 ], [ 598206.25, 2298198.125 ], [ 598200.3125, 2298199.6875 ], [ 598069.6875, 2298200.3125 ], [ 598063.75, 2298201.875 ], [ 598059.0625, 2298204.6875 ], [ 598052.8125, 2298213.4375 ], [ 598046.25, 2298218.125 ], [ 598036.875, 2298220.0 ], [ 598003.125, 2298220.0 ], [ 597996.5625, 2298220.9375 ], [ 597989.0625, 2298224.6875 ], [ 597980.9375, 2298235.3125 ], [ 597976.25, 2298238.125 ], [ 597970.3125, 2298239.6875 ], [ 597959.6875, 2298239.6875 ], [ 597951.25, 2298236.875 ], [ 597947.1875, 2298233.4375 ], [ 597940.9375, 2298224.6875 ], [ 597933.4375, 2298220.9375 ], [ 597926.875, 2298220.0 ], [ 597893.125, 2298220.0 ], [ 597886.09375, 2298220.46875 ], [ 597876.71875, 2298222.34375 ], [ 597846.09375, 2298236.71875 ], [ 597833.90625, 2298239.53125 ], [ 597729.6875, 2298240.3125 ], [ 597723.75, 2298241.875 ], [ 597719.0625, 2298244.6875 ], [ 597712.8125, 2298253.4375 ], [ 597706.25, 2298258.125 ], [ 597700.3125, 2298259.6875 ], [ 597689.6875, 2298260.3125 ], [ 597681.25, 2298263.125 ], [ 597677.1875, 2298266.5625 ], [ 597672.8125, 2298273.4375 ], [ 597666.25, 2298278.125 ], [ 597656.875, 2298280.0 ], [ 597593.125, 2298280.0 ], [ 597586.5625, 2298280.9375 ], [ 597579.0625, 2298284.6875 ], [ 597570.9375, 2298295.3125 ], [ 597566.25, 2298298.125 ], [ 597560.3125, 2298299.6875 ], [ 597399.6875, 2298300.3125 ], [ 597393.75, 2298301.875 ], [ 597389.0625, 2298304.6875 ], [ 597382.8125, 2298313.4375 ], [ 597376.25, 2298318.125 ], [ 597370.3125, 2298319.6875 ], [ 597359.6875, 2298320.3125 ], [ 597351.25, 2298323.125 ], [ 597347.1875, 2298326.5625 ], [ 597342.8125, 2298333.4375 ], [ 597336.25, 2298338.125 ], [ 597330.3125, 2298339.6875 ], [ 597319.6875, 2298340.3125 ], [ 597311.25, 2298343.125 ], [ 597307.1875, 2298346.5625 ], [ 597302.8125, 2298353.4375 ], [ 597296.25, 2298358.125 ], [ 597290.3125, 2298359.6875 ], [ 597279.6875, 2298360.3125 ], [ 597271.25, 2298363.125 ], [ 597267.1875, 2298366.5625 ], [ 597262.8125, 2298373.4375 ], [ 597256.25, 2298378.125 ], [ 597250.3125, 2298379.6875 ], [ 597239.6875, 2298380.3125 ], [ 597231.25, 2298383.125 ], [ 597227.1875, 2298386.5625 ], [ 597220.9375, 2298395.3125 ], [ 597213.4375, 2298399.0625 ], [ 597206.875, 2298400.0 ], [ 597053.125, 2298400.0 ], [ 597046.5625, 2298400.9375 ], [ 597041.25, 2298403.125 ], [ 597037.1875, 2298406.5625 ], [ 597030.9375, 2298415.3125 ], [ 597026.25, 2298418.125 ], [ 597020.3125, 2298419.6875 ], [ 596893.125, 2298420.0 ], [ 596882.8125, 2298420.9375 ], [ 596873.90625, 2298423.28125 ], [ 596848.75, 2298435.625 ], [ 596840.3125, 2298438.4375 ], [ 596830.46875, 2298439.84375 ], [ 596793.125, 2298440.0 ], [ 596786.5625, 2298440.9375 ], [ 596779.0625, 2298444.6875 ], [ 596770.9375, 2298455.3125 ], [ 596763.4375, 2298459.0625 ], [ 596756.875, 2298460.0 ], [ 596693.125, 2298460.0 ], [ 596686.5625, 2298460.9375 ], [ 596679.0625, 2298464.6875 ], [ 596672.8125, 2298473.4375 ], [ 596668.75, 2298476.875 ], [ 596663.4375, 2298479.0625 ], [ 596649.6875, 2298480.3125 ], [ 596643.75, 2298481.875 ], [ 596637.1875, 2298486.5625 ], [ 596630.9375, 2298495.3125 ], [ 596623.4375, 2298499.0625 ], [ 596616.875, 2298500.0 ], [ 596583.125, 2298500.0 ], [ 596576.5625, 2298500.9375 ], [ 596569.0625, 2298504.6875 ], [ 596560.9375, 2298515.3125 ], [ 596556.25, 2298518.125 ], [ 596550.3125, 2298519.6875 ], [ 596483.125, 2298520.0 ], [ 596476.5625, 2298520.9375 ], [ 596469.0625, 2298524.6875 ], [ 596462.8125, 2298533.4375 ], [ 596456.25, 2298538.125 ], [ 596450.3125, 2298539.6875 ], [ 596439.6875, 2298540.3125 ], [ 596431.25, 2298543.125 ], [ 596427.1875, 2298546.5625 ], [ 596421.40625, 2298555.78125 ], [ 596415.78125, 2298561.40625 ], [ 596411.25, 2298564.375 ], [ 596388.75, 2298575.625 ], [ 596380.3125, 2298582.1875 ], [ 596375.625, 2298588.75 ], [ 596362.96875, 2298613.59375 ], [ 596359.6875, 2298617.8125 ], [ 596353.59375, 2298622.96875 ], [ 596208.75, 2298695.625 ], [ 596204.6875, 2298699.0625 ], [ 596201.875, 2298703.75 ], [ 596200.3125, 2298709.6875 ], [ 596199.6875, 2298750.3125 ], [ 596198.125, 2298756.25 ], [ 596195.3125, 2298760.9375 ], [ 596191.25, 2298764.375 ], [ 596166.40625, 2298777.03125 ], [ 596160.3125, 2298782.1875 ], [ 596155.625, 2298788.75 ], [ 596142.96875, 2298813.59375 ], [ 596135.78125, 2298821.40625 ], [ 596131.25, 2298824.375 ], [ 596068.75, 2298855.625 ], [ 596062.1875, 2298860.3125 ], [ 596057.03125, 2298866.40625 ], [ 596044.375, 2298891.25 ], [ 596039.6875, 2298897.8125 ], [ 596033.59375, 2298902.96875 ], [ 596008.75, 2298915.625 ], [ 596002.1875, 2298920.3125 ], [ 595997.03125, 2298926.40625 ], [ 595984.375, 2298951.25 ], [ 595979.6875, 2298957.8125 ], [ 595973.59375, 2298962.96875 ], [ 595948.75, 2298975.625 ], [ 595942.1875, 2298980.3125 ], [ 595937.03125, 2298986.40625 ], [ 595924.375, 2299011.25 ], [ 595919.6875, 2299017.8125 ], [ 595913.59375, 2299022.96875 ], [ 595888.75, 2299035.625 ], [ 595880.3125, 2299042.1875 ], [ 595875.625, 2299048.75 ], [ 595864.375, 2299071.25 ], [ 595861.40625, 2299075.78125 ], [ 595855.78125, 2299081.40625 ], [ 595846.5625, 2299087.1875 ], [ 595843.125, 2299091.25 ], [ 595840.3125, 2299099.6875 ], [ 595839.0625, 2299113.4375 ], [ 595835.3125, 2299120.9375 ], [ 595831.25, 2299124.375 ], [ 595806.40625, 2299137.03125 ], [ 595802.1875, 2299140.3125 ], [ 595797.03125, 2299146.40625 ], [ 595764.375, 2299211.25 ], [ 595761.40625, 2299215.78125 ], [ 595755.78125, 2299221.40625 ], [ 595751.25, 2299224.375 ], [ 595726.25, 2299236.5625 ], [ 595721.25, 2299237.5 ], [ 595713.75, 2299236.5625 ], [ 595688.75, 2299224.375 ], [ 595682.1875, 2299219.6875 ], [ 595675.625, 2299211.25 ], [ 595664.375, 2299188.75 ], [ 595662.5, 2299181.25 ], [ 595662.8125, 2299176.25 ], [ 595664.375, 2299171.25 ], [ 595675.625, 2299148.75 ], [ 595678.59375, 2299144.21875 ], [ 595684.21875, 2299138.59375 ], [ 595693.4375, 2299132.8125 ], [ 595696.875, 2299128.75 ], [ 595699.0625, 2299123.4375 ], [ 595700.0, 2299116.875 ], [ 595700.0, 2299083.125 ], [ 595698.125, 2299073.75 ], [ 595693.4375, 2299067.1875 ], [ 595686.40625, 2299062.96875 ], [ 595680.3125, 2299057.8125 ], [ 595673.049788631382398, 2299046.875 ], [ 595670.17373178852722, 2299045.0 ], [ 595666.996829471085221, 2299045.625 ], [ 595663.519081679405645, 2299048.75 ], [ 595625.881188770756125, 2299097.137873285450041 ], [ 595620.09633432130795, 2299106.021654085256159 ], [ 595613.260595503030345, 2299119.080586835741997 ], [ 595602.63797105755657, 2299146.416774793993682 ], [ 595599.529986217850819, 2299152.423876006156206 ], [ 595593.577998621854931, 2299159.953891239129007 ], [ 595579.753212993498892, 2299172.61911822296679 ], [ 595570.775994572788477, 2299185.587662600912154 ], [ 595564.525994572788477, 2299201.248667009174824 ], [ 595561.003212993498892, 2299219.15464295912534 ], [ 595560.0, 2299237.689150999765843 ], [ 595560.9375, 2299244.251650999765843 ], [ 595563.125, 2299249.564150999765843 ], [ 595566.5625, 2299253.626650999765843 ], [ 595575.819413328077644, 2299259.369737671688199 ], [ 595579.814711093669757, 2299262.874439905863255 ], [ 595587.734507702989504, 2299273.70464329700917 ], [ 595591.936939905979671, 2299277.002211093902588 ], [ 595600.488929890212603, 2299279.700221109203994 ], [ 595614.682237671571784, 2299280.506913328543305 ], [ 595623.904584359144792, 2299282.534566640388221 ], [ 595651.25, 2299296.439150999765843 ], [ 595657.888826656271704, 2299301.050324343610555 ], [ 595664.731191062368453, 2299309.207959937397391 ], [ 595674.832959937397391, 2299329.106191062368453 ], [ 595677.340153312310576, 2299336.835171030834317 ], [ 595677.034846687689424, 2299344.335171030834317 ], [ 595675.268808937631547, 2299349.207959937397391 ], [ 595639.171462250058539, 2299421.860613249707967 ], [ 595623.560849000350572, 2299451.25 ], [ 595617.125560094020329, 2299459.814711093902588 ], [ 595606.295356703223661, 2299467.734507702756673 ], [ 595601.798673343728296, 2299474.487824343610555 ], [ 595600.0, 2299483.939150999765843 ], [ 595600.0, 2299517.689150999765843 ], [ 595599.0625, 2299524.251650999765843 ], [ 595596.875, 2299529.564150999765843 ], [ 595593.4375, 2299533.626650999765843 ], [ 595584.180586671922356, 2299539.369737671688199 ], [ 595578.402933359378949, 2299544.842084359377623 ], [ 595575.268808937631547, 2299549.207959937397391 ], [ 595562.167320109787397, 2299573.606471109203994 ], [ 595557.125560094020329, 2299579.814711093902588 ], [ 595550.792040062602609, 2299584.731191062368453 ], [ 595526.393528890563175, 2299597.832679890096188 ], [ 595518.402933359378949, 2299604.842084359377623 ], [ 595515.268808937631547, 2299609.207959937397391 ], [ 595500.630262328428216, 2299635.819413328543305 ], [ 595495.157915640855208, 2299641.597066640388221 ], [ 595486.282635593903251, 2299647.721786593552679 ], [ 595482.921462250058539, 2299651.860613249707967 ], [ 595480.708520031301305, 2299657.147671030834317 ], [ 595479.153213406447321, 2299670.592364406213164 ], [ 595477.514386750292033, 2299676.453537750057876 ], [ 595472.903213406447321, 2299683.092364406213164 ], [ 595464.496683359378949, 2299689.685834359377623 ], [ 595461.798673343728296, 2299694.487824343610555 ], [ 595460.0, 2299703.939150999765843 ], [ 595460.0, 2299737.689150999765843 ], [ 595459.0625, 2299744.251650999765843 ], [ 595455.3125, 2299751.751650999765843 ], [ 595444.6875, 2299759.876650999765843 ], [ 595440.9375, 2299767.376650999765843 ], [ 595440.0, 2299773.939150999765843 ], [ 595440.0, 2299807.689150999765843 ], [ 595438.986173343728296, 2299817.925324343610555 ], [ 595436.451606703223661, 2299826.640757702756673 ], [ 595423.014106703223661, 2299854.453257702756673 ], [ 595420.861173343728296, 2299863.550324343610555 ], [ 595419.6875, 2299881.126650999765843 ], [ 595418.125, 2299887.064150999765843 ], [ 595415.3125, 2299891.751650999765843 ], [ 595406.5625, 2299898.001650999765843 ], [ 595403.125, 2299902.064150999765843 ], [ 595400.9375, 2299907.376650999765843 ], [ 595399.6875, 2299921.126650999765843 ], [ 595398.125, 2299927.064150999765843 ], [ 595395.3125, 2299931.751650999765843 ], [ 595386.5625, 2299938.001650999765843 ], [ 595381.875, 2299944.564150999765843 ], [ 595380.0, 2299953.939150999765843 ], [ 595379.542040062602609, 2299987.231191062368453 ], [ 595377.514386750292033, 2299996.453537750057876 ], [ 595374.727328969049267, 2300001.166479968931526 ], [ 595366.282635593903251, 2300007.721786593552679 ], [ 595362.921462250058539, 2300011.860613249707967 ], [ 595360.708520031301305, 2300017.147671030834317 ], [ 595359.153213406447321, 2300030.592364406213164 ], [ 595357.514386750292033, 2300036.453537750057876 ], [ 595354.727328969049267, 2300041.166479968931526 ], [ 595346.282635593903251, 2300047.721786593552679 ], [ 595342.921462250058539, 2300051.860613249707967 ], [ 595340.708520031301305, 2300057.147671030834317 ], [ 595339.153213406447321, 2300070.592364406213164 ], [ 595337.514386750292033, 2300076.453537750057876 ], [ 595332.903213406447321, 2300083.092364406213164 ], [ 595324.496683359378949, 2300089.685834359377623 ], [ 595321.798673343728296, 2300094.487824343610555 ], [ 595320.0, 2300103.939150999765843 ], [ 595320.0, 2300137.689150999765843 ], [ 595319.0625, 2300144.251650999765843 ], [ 595315.3125, 2300151.751650999765843 ], [ 595306.598014799645171, 2300157.969462261535227 ], [ 595303.338088797871023, 2300161.871018570847809 ], [ 595301.470221994910389, 2300166.893819927703589 ], [ 595300.994414390297607, 2300173.037866332102567 ], [ 595301.9950494983932, 2300179.605752889066935 ], [ 595304.725277860416099, 2300184.505264913663268 ], [ 595309.185099476599135, 2300187.736402405425906 ], [ 595315.374514346942306, 2300189.299165364354849 ], [ 595345.344386421144009, 2300190.0 ], [ 595577.324217728688382, 2300189.479831307195127 ], [ 595587.845981559250504, 2300188.751595138106495 ], [ 595593.488918692455627, 2300186.998566010035574 ], [ 595595.659279128303751, 2300185.522960184141994 ], [ 595598.697783738491125, 2300181.373566010035574 ], [ 595599.565927912830375, 2300178.699777660891414 ], [ 595600.3125, 2300168.959263830445707 ], [ 595601.875, 2300163.403220871463418 ], [ 595604.6875, 2300158.95846626162529 ], [ 595608.75, 2300155.625 ] ] } },
{ "type": "Feature", "properties": { "id": "shoreline_2018_dry_11", "bank_type": "right", "length_m": 4560.0, "is_island": false, "year": 2018, "season": "dry", "source": "S1", "processing_version": "1.0" }, "geometry": { "type": "LineString", "coordinates": [ [ 604540.0, 2289726.875 ], [ 604539.6875, 2289719.6875 ], [ 604536.875, 2289711.25 ], [ 604533.4375, 2289707.1875 ], [ 604526.5625, 2289702.8125 ], [ 604521.875, 2289696.25 ], [ 604520.3125, 2289690.3125 ], [ 604519.6875, 2289679.6875 ], [ 604516.875, 2289671.25 ], [ 604513.4375, 2289667.1875 ], [ 604502.1875, 2289659.6875 ], [ 604495.625, 2289651.25 ], [ 604424.375, 2289508.75 ], [ 604417.8125, 2289500.3125 ], [ 604406.5625, 2289492.8125 ], [ 604403.125, 2289488.75 ], [ 604400.9375, 2289483.4375 ], [ 604399.6875, 2289469.6875 ], [ 604396.875, 2289461.25 ], [ 604391.25, 2289455.625 ], [ 604368.75, 2289444.375 ], [ 604364.21875, 2289443.28125 ], [ 604358.59375, 2289445.15625 ], [ 604352.8125, 2289453.4375 ], [ 604348.75, 2289456.875 ], [ 604340.3125, 2289459.6875 ], [ 604209.6875, 2289460.3125 ], [ 604201.25, 2289463.125 ], [ 604197.1875, 2289466.5625 ], [ 604190.9375, 2289475.3125 ], [ 604186.25, 2289478.125 ], [ 604180.3125, 2289479.6875 ], [ 604053.125, 2289480.0 ], [ 604046.5625, 2289480.9375 ], [ 604041.25, 2289483.125 ], [ 604037.1875, 2289486.5625 ], [ 604030.9375, 2289495.3125 ], [ 604026.25, 2289498.125 ], [ 604020.3125, 2289499.6875 ], [ 603919.6875, 2289500.3125 ], [ 603911.25, 2289503.125 ], [ 603907.1875, 2289506.5625 ], [ 603900.9375, 2289515.3125 ], [ 603893.4375, 2289519.0625 ], [ 603886.875, 2289520.0 ], [ 603849.53125, 2289520.15625 ], [ 603839.6875, 2289521.5625 ], [ 603831.25, 2289524.375 ], [ 603808.75, 2289535.625 ], [ 603797.1875, 2289539.0625 ], [ 603786.875, 2289540.0 ], [ 603689.6875, 2289540.3125 ], [ 603683.75, 2289541.875 ], [ 603679.0625, 2289544.6875 ], [ 603672.8125, 2289553.4375 ], [ 603666.25, 2289558.125 ], [ 603660.3125, 2289559.6875 ], [ 603646.09375, 2289560.46875 ], [ 603636.71875, 2289562.34375 ], [ 603603.28125, 2289577.65625 ], [ 603590.46875, 2289579.84375 ], [ 603553.125, 2289580.0 ], [ 603542.8125, 2289580.9375 ], [ 603531.25, 2289584.375 ], [ 603506.09375, 2289596.71875 ], [ 603500.3125, 2289598.4375 ], [ 603490.46875, 2289599.84375 ], [ 603479.6875, 2289599.6875 ], [ 603473.75, 2289598.125 ], [ 603469.0625, 2289595.3125 ], [ 603462.8125, 2289586.5625 ], [ 603458.75, 2289583.125 ], [ 603453.4375, 2289580.9375 ], [ 603439.6875, 2289579.6875 ], [ 603433.75, 2289578.125 ], [ 603427.1875, 2289573.4375 ], [ 603420.9375, 2289564.6875 ], [ 603416.25, 2289561.875 ], [ 603410.3125, 2289560.3125 ], [ 603373.125, 2289560.0 ], [ 603362.8125, 2289560.9375 ], [ 603351.25, 2289564.375 ], [ 603326.25, 2289576.5625 ], [ 603321.25, 2289577.5 ], [ 603316.25, 2289577.1875 ], [ 603311.25, 2289575.625 ], [ 603248.75, 2289544.375 ], [ 603240.3125, 2289541.5625 ], [ 603226.875, 2289540.0 ], [ 603103.125, 2289540.0 ], [ 603096.5625, 2289539.0625 ], [ 603091.25, 2289536.875 ], [ 603087.1875, 2289533.4375 ], [ 603080.9375, 2289524.6875 ], [ 603076.25, 2289521.875 ], [ 603070.3125, 2289520.3125 ], [ 602969.6875, 2289519.6875 ], [ 602963.75, 2289518.125 ], [ 602959.0625, 2289515.3125 ], [ 602952.8125, 2289506.5625 ], [ 602946.25, 2289501.875 ], [ 602936.875, 2289500.0 ], [ 602903.125, 2289500.0 ], [ 602896.5625, 2289499.0625 ], [ 602889.0625, 2289495.3125 ], [ 602880.9375, 2289484.6875 ], [ 602876.25, 2289481.875 ], [ 602870.3125, 2289480.3125 ], [ 602803.125, 2289480.0 ], [ 602796.5625, 2289480.9375 ], [ 602789.0625, 2289484.6875 ], [ 602782.8125, 2289493.4375 ], [ 602776.25, 2289498.125 ], [ 602770.3125, 2289499.6875 ], [ 602759.6875, 2289500.3125 ], [ 602751.25, 2289503.125 ], [ 602745.625, 2289508.75 ], [ 602743.28125, 2289515.78125 ], [ 602745.15625, 2289521.40625 ], [ 602753.4375, 2289527.1875 ], [ 602758.125, 2289533.75 ], [ 602759.6875, 2289539.6875 ], [ 602760.9375, 2289557.1875 ], [ 602763.28125, 2289566.09375 ], [ 602775.625, 2289591.25 ], [ 602780.3125, 2289597.8125 ], [ 602788.75, 2289604.375 ], [ 602853.59375, 2289637.03125 ], [ 602859.6875, 2289642.1875 ], [ 602867.1875, 2289653.4375 ], [ 602871.25, 2289656.875 ], [ 602876.5625, 2289659.0625 ], [ 602890.3125, 2289660.3125 ], [ 602896.25, 2289661.875 ], [ 602900.9375, 2289664.6875 ], [ 602907.1875, 2289673.4375 ], [ 602913.75, 2289678.125 ], [ 602919.6875, 2289679.6875 ], [ 602933.90625, 2289680.46875 ], [ 602943.28125, 2289682.34375 ], [ 602976.71875, 2289697.65625 ], [ 602989.53125, 2289699.84375 ], [ 603026.875, 2289700.0 ], [ 603037.1875, 2289700.9375 ], [ 603048.75, 2289704.375 ], [ 603073.90625, 2289716.71875 ], [ 603086.09375, 2289719.53125 ], [ 603366.875, 2289720.0 ], [ 603373.4375, 2289720.9375 ], [ 603378.75, 2289723.125 ], [ 603382.8125, 2289726.5625 ], [ 603387.1875, 2289733.4375 ], [ 603391.25, 2289736.875 ], [ 603396.5625, 2289739.0625 ], [ 603403.125, 2289740.0 ], [ 604006.875, 2289740.0 ], [ 604013.4375, 2289740.9375 ], [ 604018.75, 2289743.125 ], [ 604022.8125, 2289746.5625 ], [ 604027.1875, 2289753.4375 ], [ 604031.25, 2289756.875 ], [ 604036.5625, 2289759.0625 ], [ 604043.125, 2289760.0 ], [ 604530.46875, 2289759.84375 ], [ 604537.1875, 2289759.0625 ], [ 604546.09375, 2289756.71875 ], [ 604553.125, 2289753.125 ], [ 604555.0, 2289750.625 ], [ 604554.375, 2289748.125 ], [ 604546.5625, 2289742.8125 ], [ 604543.125, 2289738.75 ], [ 604540.9375, 2289733.4375 ], [ 604540.0, 2289726.875 ] ] } }
]
}
