{
"type": "FeatureCollection",
"name": "reach2_s2_ref_2018_dry",
"crs": { "type": "name", "properties": { "name": "urn:ogc:def:crs:OGC:1.3:CRS84" } },
"features": [
{ "type": "Feature", "properties": { "id": "ref_s2_2018_dry_2", "is_island": false, "length_m": 406.03691603718545 }, "geometry": { "type": "LineString", "coordinates": [ [ 105.90250873575927, 20.993993490210887 ], [ 105.902518435482023, 20.993980941210289 ], [ 105.902535214528285, 20.993956827218376 ], [ 105.902543557760538, 20.993943445802014 ], [ 105.902557739149259, 20.993917903443521 ], [ 105.90256464554183, 20.993903818482298 ], [ 105.902576092700087, 20.993877093745088 ], [ 105.902581495741657, 20.993862440885312 ], [ 105.902590098429059, 20.993834791143946 ], [ 105.902593946086469, 20.993819711501125 ], [ 105.902599621456744, 20.993791403038266 ], [ 105.9026018766763, 20.993776041837847 ], [ 105.902604570075013, 20.993747347279839 ], [ 105.90260521113909, 20.993731852458684 ], [ 105.902604896629967, 20.993703048149982 ], [ 105.902603917366207, 20.993687568931634 ], [ 105.902600597980808, 20.993658932273327 ], [ 105.902598007821467, 20.993643617731056 ], [ 105.902591715529866, 20.993615424509461 ], [ 105.902587539420921, 20.993600422130378 ], [ 105.902578334823687, 20.993572943861043 ], [ 105.902572612984613, 20.993558398125966 ], [ 105.902560584729173, 20.99353189943886 ], [ 105.90255337226543, 20.993517950430622 ], [ 105.902538636192247, 20.993492686521687 ], [ 105.902530002564603, 20.993479468576322 ], [ 105.902512700591458, 20.993455682749669 ], [ 105.902502728947141, 20.993443323162683 ], [ 105.902483027702331, 20.993421244487674 ], [ 105.902471814074019, 20.993409862287898 ], [ 105.902449903291682, 20.993389703393024 ], [ 105.902437555672819, 20.993379408196663 ], [ 105.902413646365616, 20.993361363221872 ], [ 105.902400283670275, 20.993352254176617 ], [ 105.902374606097283, 20.993336496903744 ], [ 105.90236035701497, 20.993328661734036 ], [ 105.902333158464074, 20.993315343913121 ], [ 105.90231816022056, 20.993308858075448 ], [ 105.902289702626987, 20.993298107963398 ], [ 105.902274099662691, 20.993293033919457 ], [ 105.902244657086641, 20.99328495504497 ], [ 105.902228599665406, 20.99328134166019 ], [ 105.902198455652709, 20.993276011826676 ], [ 105.902182098414912, 20.993273893899659 ], [ 105.902151543266413, 20.993271364435977 ], [ 105.902135043739946, 20.993270762363398 ], [ 105.902104371715737, 20.993271057629542 ], [ 105.902087888798533, 20.99327197720968 ], [ 105.902057395284402, 20.993275094362204 ], [ 105.902041087714437, 20.993277526739149 ], [ 105.902011066377099, 20.993283435758514 ], [ 105.901995091203958, 20.993287357507384 ], [ 105.901965831162784, 20.993296001487092 ], [ 105.901950342234898, 20.993301374839682 ], [ 105.901922125278048, 20.993312670534237 ], [ 105.901907271761161, 20.993319443742713 ], [ 105.901880369631485, 20.993333282369392 ], [ 105.901866294572372, 20.993341390204531 ], [ 105.901837553105921, 20.99335982811818 ], [ 105.901830847154045, 20.993364360651206 ], [ 105.901484189965373, 20.993611014157128 ], [ 105.901477728890441, 20.993615850226533 ], [ 105.901451050133858, 20.993636844908877 ], [ 105.901438929792334, 20.993647375625653 ], [ 105.901417463567242, 20.993667952053748 ], [ 105.901406500705733, 20.993679547717786 ], [ 105.901387285460515, 20.993702000992009 ], [ 105.901377585657627, 20.99371454993134 ], [ 105.901360806446249, 20.993738663815581 ], [ 105.901352463116851, 20.9937520451777 ], [ 105.901338281533484, 20.993777587443144 ], [ 105.901331375029159, 20.993791672358775 ], [ 105.901319927651812, 20.993818397020338 ], [ 105.901314524486921, 20.993833049844547 ], [ 105.90130592156207, 20.993860699529957 ], [ 105.901302073773223, 20.993875779148318 ], [ 105.901296398154003, 20.993904087576613 ], [ 105.901294142798804, 20.993919448764405 ], [ 105.901291449147067, 20.993948143310284 ], [ 105.90129080794722, 20.993963638131046 ], [ 105.901291122206942, 20.993992442450406 ], [ 105.901292101338953, 20.994007921680577 ], [ 105.901295420486278, 20.994036558371985 ], [ 105.901298010522027, 20.994051872937934 ], [ 105.901304302594326, 20.994080066214043 ], [ 105.901308478591645, 20.994095068627917 ], [ 105.901317682995227, 20.994122546971496 ], [ 105.901323404738207, 20.994137092751409 ], [ 105.901335432831758, 20.994163591530203 ], [ 105.901342645217966, 20.994177540591959 ], [ 105.901357381166079, 20.994202804607255 ], [ 105.901366014737135, 20.994216022613205 ], [ 105.901383316625981, 20.99423980855769 ], [ 105.901393288236406, 20.994252168210519 ], [ 105.901412989440175, 20.994274247011351 ], [ 105.901424203058355, 20.994285629280299 ], [ 105.901446113844059, 20.994305788305333 ], [ 105.901458461476665, 20.994316083572187 ], [ 105.901482370831317, 20.994334128677774 ], [ 105.901495733563749, 20.994343237792894 ], [ 105.90152141122644, 20.994358995193586 ], [ 105.901535660367841, 20.994366830430607 ], [ 105.90156285904753, 20.994380148372976 ], [ 105.901577857370043, 20.994386634273688 ], [ 105.90160631512704, 20.994397384497741 ], [ 105.901621918187558, 20.994402458598895 ], [ 105.901651360956123, 20.994410537573316 ], [ 105.901667418487563, 20.994414151008201 ], [ 105.901697562715427, 20.994419480927451 ], [ 105.901713920073746, 20.994421598896466 ], [ 105.901744475452958, 20.994424128430154 ], [ 105.901760975106342, 20.994424730535972 ], [ 105.901791647369322, 20.994424435323182 ], [ 105.901808130415745, 20.994423515767203 ], [ 105.901838624169116, 20.994420398651108 ], [ 105.901854931866524, 20.99441796628928 ], [ 105.901884953436152, 20.994412057289793 ], [ 105.901900928731052, 20.994408135547335 ], [ 105.901930188990505, 20.994399491571922 ], [ 105.901945678030856, 20.994394118217716 ], [ 105.901973895185677, 20.994382822513394 ], [ 105.901988748802538, 20.994376049296246 ], [ 105.902015651104406, 20.994362210647722 ], [ 105.902029726248387, 20.99435410279802 ], [ 105.902058467875221, 20.994335664848023 ], [ 105.902065173862013, 20.994331132305216 ], [ 105.902411831661809, 20.994084477611342 ], [ 105.902418292724761, 20.994079641507103 ], [ 105.902444971416017, 20.994058646676319 ], [ 105.902457091716073, 20.994048115889779 ], [ 105.902478557845527, 20.994027539334706 ], [ 105.902489520645716, 20.994015943604172 ], [ 105.90250873575927, 20.993993490210887 ] ] } },
{ "type": "Feature", "properties": { "id": "ref_s2_2018_dry_3", "is_island": false, "length_m": 403.60789387622532 }, "geometry": { "type": "LineString", "coordinates": [ [ 105.877971501130375, 21.005669519590199 ], [ 105.877980843500623, 21.005656733154275 ], [ 105.877996936363118, 21.005632209272392 ], [ 105.878004899076245, 21.005618624525717 ], [ 105.878018354601537, 21.005592737530343 ], [ 105.878024860973014, 21.005578485302124 ], [ 105.878035549578783, 21.005551484500014 ], [ 105.878040536949726, 21.005536702047419 ], [ 105.878048355700912, 21.00550884747182 ], [ 105.878051776041431, 21.005493677158267 ], [ 105.87805664964155, 21.005465237064509 ], [ 105.878058470013215, 21.005449824988606 ], [ 105.878060351529385, 21.005421073270632 ], [ 105.878060554402424, 21.005405567859249 ], [ 105.878059425717268, 21.005376781411861 ], [ 105.878058009139366, 21.005361331990503 ], [ 105.878053881125368, 21.005332788042768 ], [ 105.878050858740309, 21.005317543397652 ], [ 105.878043771155021, 21.005289516842954 ], [ 105.878039172071368, 21.005274623788075 ], [ 105.878029193174484, 21.005247384536844 ], [ 105.878023061685056, 21.00523298650003 ], [ 105.878010287580821, 21.005206796880291 ], [ 105.87800268273628, 21.005193032522094 ], [ 105.87798723644795, 21.005168144753235 ], [ 105.877978231487845, 21.005155146631303 ], [ 105.877960261772827, 21.005131800394992 ], [ 105.877949943420404, 21.005119693687774 ], [ 105.877929623337678, 21.005098113819916 ], [ 105.877918090964471, 21.005087015120868 ], [ 105.877895616207766, 21.005067409446131 ], [ 105.877882980876919, 21.00505742564123 ], [ 105.877858567890044, 21.005039982971695 ], [ 105.877844951286434, 21.005031210209811 ], [ 105.877818835179028, 21.005016098526806 ], [ 105.877804368437367, 21.00500862129379 ], [ 105.877776800720582, 21.004995986130044 ], [ 105.877761623162669, 21.0049898764352 ], [ 105.877732869326934, 21.004979839473336 ], [ 105.877717127120022, 21.00497515615595 ], [ 105.87768746407842, 21.004967814056663 ], [ 105.877671308827203, 21.004964602219268 ], [ 105.877641022248667, 21.004960025690451 ], [ 105.877624609535971, 21.00495831626462 ], [ 105.877593991094301, 21.004956549380477 ], [ 105.877577478981749, 21.004956358828785 ], [ 105.877546823546652, 21.004957418605304 ], [ 105.877530371053851, 21.004958748762906 ], [ 105.877499973851116, 21.004962624994061 ], [ 105.877483739422985, 21.004965463050969 ], [ 105.877453893191969, 21.004972118406929 ], [ 105.877438033173533, 21.004976437031427 ], [ 105.877409025347362, 21.004985807418109 ], [ 105.877393692478222, 21.004991565019836 ], [ 105.877365802416037, 21.005003560196137 ], [ 105.877351144359082, 21.005010701326743 ], [ 105.877321069002463, 21.005027160400083 ], [ 105.877314034252947, 21.005031230640295 ], [ 105.87695923402687, 21.005247971263309 ], [ 105.876952420414284, 21.005252360720831 ], [ 105.876924207795554, 21.005271508649898 ], [ 105.876911314954981, 21.005281197833071 ], [ 105.876888333811536, 21.005300278900116 ], [ 105.876876514417191, 21.005311108096066 ], [ 105.876855635629951, 21.005332212488149 ], [ 105.876845003508976, 21.00534407740658 ], [ 105.876826428152356, 21.005367001878092 ], [ 105.876817085698264, 21.00537978825389 ], [ 105.876800992663945, 21.005404312030752 ], [ 105.876793029850177, 21.005417896724865 ], [ 105.876779574124114, 21.005443783630763 ], [ 105.876773067637799, 21.005458035815547 ], [ 105.876762378807697, 21.005485036546411 ], [ 105.876757391310861, 21.005499818966008 ], [ 105.876749572318076, 21.005527673490732 ], [ 105.876746151844245, 21.005542843782703 ], [ 105.876741277992323, 21.005571283847495 ], [ 105.876739457483851, 21.005586695913902 ], [ 105.876737575713193, 21.00561544762569 ], [ 105.876737372703971, 21.005630953039937 ], [ 105.876738501139741, 21.005659739504093 ], [ 105.876739917586278, 21.005675188940575 ], [ 105.876744045363637, 21.005703732927511 ], [ 105.876747067626198, 21.005718977599546 ], [ 105.876754154994927, 21.005747004214648 ], [ 105.876758753968787, 21.005761897307409 ], [ 105.87676873267597, 21.005789136638413 ], [ 105.876774864071692, 21.005803534722922 ], [ 105.876787638018968, 21.005829724439387 ], [ 105.87679524278883, 21.005843488853635 ], [ 105.876810688957761, 21.005868376733247 ], [ 105.876819693864462, 21.005881374917934 ], [ 105.876837663501249, 21.00590472127573 ], [ 105.876847981823133, 21.005916828050534 ], [ 105.876868301871014, 21.005938408047072 ], [ 105.876879834237343, 21.005949506816588 ], [ 105.876902309003398, 21.005969112623486 ], [ 105.876914944351086, 21.005979096499736 ], [ 105.87693935739081, 21.005996539301222 ], [ 105.876952974034211, 21.006005312133361 ], [ 105.876979090235849, 21.00602042394452 ], [ 105.876993557038745, 21.006027901244835 ], [ 105.877021124887676, 21.006040536529593 ], [ 105.877036302526037, 21.00604664628705 ], [ 105.87706505652713, 21.006056683359823 ], [ 105.877080798830917, 21.006061366733658 ], [ 105.877110462065332, 21.006068708931213 ], [ 105.87712661742647, 21.006071920817671 ], [ 105.877156904218737, 21.006076497430101 ], [ 105.877173317050719, 21.00607820689671 ], [ 105.877203935719848, 21.006079973848433 ], [ 105.877220447957043, 21.006080164432014 ], [ 105.877251103625838, 21.006079104706274 ], [ 105.877267556244632, 21.006077774571445 ], [ 105.877297953679786, 21.006073898374147 ], [ 105.877314188231196, 21.006071060330985 ], [ 105.877344034686004, 21.006064404992472 ], [ 105.877359894821254, 21.006060086373147 ], [ 105.877388902855827, 21.006050715988597 ], [ 105.877404235831733, 21.006044958384198 ], [ 105.877432126080848, 21.006032963196347 ], [ 105.87744678423158, 21.006025822056245 ], [ 105.877476859769303, 21.006009362956036 ], [ 105.877483894558935, 21.006005292708089 ], [ 105.87783869573056, 21.005788550973985 ], [ 105.877845509339537, 21.005784161481301 ], [ 105.877873721928381, 21.005765013401394 ], [ 105.877886614744241, 21.005755324146577 ], [ 105.877909595822743, 21.005736242947751 ], [ 105.87792141517194, 21.005725413682022 ], [ 105.877942293856577, 21.005704309163495 ], [ 105.877952925912453, 21.005692444179164 ], [ 105.877971501130375, 21.005669519590199 ] ] } },
{ "type": "Feature", "properties": { "id": "ref_s2_2018_dry_4", "is_island": false, "length_m": 366.81585852593702 }, "geometry": { "type": "LineString", "coordinates": [ [ 105.863456321827741, 21.038466173900183 ], [ 105.863454739675092, 21.038450738629482 ], [ 105.863450305487291, 21.038422235078922 ], [ 105.863447119440124, 21.03840701972327 ], [ 105.86343973070413, 21.038379061460144 ], [ 105.863434971447148, 21.038364212551439 ], [ 105.86342469932282, 21.038337068828397 ], [ 105.863418412691459, 21.038322729369437 ], [ 105.863405356106952, 21.038296661594522 ], [ 105.863397602645861, 21.03828296968155 ], [ 105.863381887344886, 21.038258228900741 ], [ 105.863372741724874, 21.038245316393745 ], [ 105.863354519055548, 21.038222140873152 ], [ 105.863344069354469, 21.038210132126093 ], [ 105.863323514811711, 21.038188745057397 ], [ 105.863311861666148, 21.03817775572039 ], [ 105.86328917320165, 21.038158363071588 ], [ 105.863276428837651, 21.038148498977243 ], [ 105.863251824953352, 21.038131287508882 ], [ 105.863238112105918, 21.038122643653281 ], [ 105.863211829749815, 21.038107779120079 ], [ 105.863197280480406, 21.03810043874757 ], [ 105.863169572764761, 21.038088064302109 ], [ 105.86315432718996, 21.038082098103995 ], [ 105.863125460953341, 21.038072332918013 ], [ 105.863109665895436, 21.038067798351662 ], [ 105.863079919133398, 21.038060736468505 ], [ 105.86306372670613, 21.038057677203913 ], [ 105.8630333858939, 21.0380533866329 ], [ 105.863016952037896, 21.03805183213225 ], [ 105.862986309371365, 21.038050354193633 ], [ 105.862969792352303, 21.038050319427544 ], [ 105.86293914293455, 21.038051668354655 ], [ 105.862922701818889, 21.038053153657973 ], [ 105.862892340817822, 21.038057316460115 ], [ 105.862876133941043, 21.038060307528742 ], [ 105.862846353747329, 21.038067244116284 ], [ 105.862830537189168, 21.038071712144895 ], [ 105.862801624599996, 21.038081355715374 ], [ 105.862786350681461, 21.0380872576748 ], [ 105.862758584138831, 21.038099515356201 ], [ 105.862743999955157, 21.038106794407831 ], [ 105.862717646864397, 21.038121548153025 ], [ 105.862703892868424, 21.038130134196201 ], [ 105.862679207023092, 21.038147241919635 ], [ 105.862666415672834, 21.038157052266701 ], [ 105.862643634810439, 21.038176349212844 ], [ 105.862631929293272, 21.038187289385522 ], [ 105.862611272805808, 21.038208589715442 ], [ 105.862600765852434, 21.038220554354425 ], [ 105.862582432673435, 21.038243652935591 ], [ 105.862573225471806, 21.038256526815598 ], [ 105.862557392160724, 21.038281201197123 ], [ 105.862549573381841, 21.038294860336205 ], [ 105.862536392423422, 21.038320872891415 ], [ 105.86253003736725, 21.03833518574509 ], [ 105.862518233969112, 21.038365937998773 ], [ 105.862515623850541, 21.038373300031822 ], [ 105.862443588364044, 21.038594452066175 ], [ 105.862441366161477, 21.038601925467276 ], [ 105.862432830245737, 21.03863361579025 ], [ 105.862429571548702, 21.038648817583042 ], [ 105.862425001250443, 21.038677302185445 ], [ 105.862423345384457, 21.038692730643515 ], [ 105.862421771022852, 21.03872149864462 ], [ 105.86242173393623, 21.038737005183521 ], [ 105.86242317067591, 21.038765779531797 ], [ 105.86242475272725, 21.038781214815085 ], [ 105.862429186734261, 21.03880971839758 ], [ 105.862432372688943, 21.038824933774876 ], [ 105.8624397612639, 21.038852892086069 ], [ 105.862444520440746, 21.038867741024667 ], [ 105.862454792429943, 21.038894884810148 ], [ 105.862461078996617, 21.038909224306156 ], [ 105.8624741354772, 21.038935292155571 ], [ 105.862481888891637, 21.038948984111382 ], [ 105.862497604124172, 21.038973724976049 ], [ 105.862506749717511, 21.038986637530112 ], [ 105.86252497235688, 21.039009813140861 ], [ 105.862535422052545, 21.039021821937499 ], [ 105.862555976605506, 21.039043209099361 ], [ 105.86256762976744, 21.039054198486681 ], [ 105.862590318282528, 21.03907359122833 ], [ 105.862603062684443, 21.039083455371895 ], [ 105.86262766665854, 21.039100666929439 ], [ 105.862641379564423, 21.039109310831439 ], [ 105.862667662046974, 21.039124175447014 ], [ 105.86268221139359, 21.039131515861449 ], [ 105.862709919268468, 21.039143890379584 ], [ 105.862725164936847, 21.039149856613705 ], [ 105.86275403136041, 21.039159621860193 ], [ 105.862769826525266, 21.039164156455413 ], [ 105.862799573495948, 21.03917121838488 ], [ 105.862815766040057, 21.039174277670277 ], [ 105.862846107075868, 21.039178568271957 ], [ 105.862862541054795, 21.039180122784717 ], [ 105.862893183952522, 21.039181600737525 ], [ 105.862909701096584, 21.03918163550675 ], [ 105.862940350745617, 21.039180286577139 ], [ 105.862956791984303, 21.039178801268054 ], [ 105.86298715320919, 21.039174638447143 ], [ 105.863003360203024, 21.039171647364242 ], [ 105.863033140605921, 21.039164710742753 ], [ 105.863048957271431, 21.039160242692084 ], [ 105.863077870048542, 21.039150599074112 ], [ 105.863093144061352, 21.03914469708587 ], [ 105.863120910764835, 21.039132439345561 ], [ 105.863135495026839, 21.039125160259644 ], [ 105.863161848246591, 21.03911040644671 ], [ 105.863175602302675, 21.03910182036525 ], [ 105.863200288241515, 21.039084712568151 ], [ 105.863213079632075, 21.039074902180428 ], [ 105.863235860550233, 21.039055605157799 ], [ 105.863247566087054, 21.039044664943802 ], [ 105.863268222591643, 21.039023364537769 ], [ 105.863278729543893, 21.039011399858541 ], [ 105.863297062701903, 21.038988301204796 ], [ 105.863306269882315, 21.038975427287262 ], [ 105.863322103136198, 21.0389507528397 ], [ 105.863329921875149, 21.038937093667364 ], [ 105.8633431027434, 21.038911081055371 ], [ 105.863349457742984, 21.038896768174084 ], [ 105.863361261005778, 21.038866015869015 ], [ 105.863363871089931, 21.038858653824541 ], [ 105.863435905314347, 21.038637501449443 ], [ 105.863438127467248, 21.038630028037066 ], [ 105.863446663168162, 21.03859833767093 ], [ 105.863449921760321, 21.038583135862158 ], [ 105.863454491860452, 21.038554651238705 ], [ 105.863456147618876, 21.038539222774055 ], [ 105.863457721780932, 21.038510454769682 ], [ 105.863457758761157, 21.038494948233854 ], [ 105.863456321827741, 21.038466173900183 ] ] } },
{ "type": "Feature", "properties": { "id": "ref_s2_2018_dry_5", "is_island": false, "length_m": 1002.2283498654459 }, "geometry": { "type": "LineString", "coordinates": [ [ 105.859509975433099, 21.043991022976904 ], [ 105.859508036539808, 21.044006422355274 ], [ 105.859505934273486, 21.044035160615135 ], [ 105.859505612544197, 21.044050664252186 ], [ 105.859506520924, 21.044079457573368 ], [ 105.859507819458599, 21.04409491616061 ], [ 105.859511729738998, 21.044123487247504 ], [ 105.859514636033282, 21.044138751910097 ], [ 105.859521510558722, 21.044166825607139 ], [ 105.859525996624811, 21.044181749337774 ], [ 105.859535769192178, 21.044209055279293 ], [ 105.859541791828022, 21.044223494353929 ], [ 105.859554368324211, 21.044249769567944 ], [ 105.859561869529514, 21.044263584929872 ], [ 105.859577128837685, 21.044288576370757 ], [ 105.85958603637259, 21.044301634969973 ], [ 105.859603831538536, 21.044325101955355 ], [ 105.859614059619119, 21.044337278029747 ], [ 105.859634219266411, 21.044358994558539 ], [ 105.859645669391, 21.044370170845255 ], [ 105.859667999371553, 21.04438992777424 ], [ 105.859680561269116, 21.04439999663877 ], [ 105.859704846532694, 21.044417603696662 ], [ 105.859718399225017, 21.044426468169732 ], [ 105.859744405890581, 21.044441755789812 ], [ 105.859758818857316, 21.044449330501109 ], [ 105.859786296465117, 21.044462151454123 ], [ 105.859801430900703, 21.044468363454502 ], [ 105.859830114824703, 21.044478594266753 ], [ 105.859845824975309, 21.044483383730828 ], [ 105.859875438971528, 21.044490925873227 ], [ 105.85989157353859, 21.044494246675473 ], [ 105.859921832405746, 21.044499027512558 ], [ 105.859938236003259, 21.044500847671589 ], [ 105.859968848329331, 21.044502821160968 ], [ 105.859985362980254, 21.044503123147557 ], [ 105.860016033949208, 21.044502270283374 ], [ 105.860032500607005, 21.044501051189247 ], [ 105.860062934838012, 21.044497380185202 ], [ 105.860079194918313, 21.044494651751052 ], [ 105.860109099310478, 21.044488197961339 ], [ 105.860124996218516, 21.044483986463753 ], [ 105.860154082773946, 21.044474812042495 ], [ 105.860169463412589, 21.04446915804089 ], [ 105.860197452009686, 21.044457351343617 ], [ 105.860212168254037, 21.044450309289584 ], [ 105.860238789345644, 21.044435984022215 ], [ 105.860252699469314, 21.044427621735185 ], [ 105.860264023012178, 21.044420054103099 ], [ 105.86029155926947, 21.044403481475587 ], [ 105.860320677933402, 21.044389494289977 ], [ 105.86035110442225, 21.04437822444169 ], [ 105.86038255182207, 21.044369778202348 ], [ 105.8604147235922, 21.044364235217646 ], [ 105.860447316361459, 21.044361647756364 ], [ 105.860480022788906, 21.044362040217511 ], [ 105.860512534461833, 21.044365408900212 ], [ 105.860544544803972, 21.044371722038619 ], [ 105.860575751966465, 21.044380920101506 ], [ 105.860605861674003, 21.044392916353541 ], [ 105.86063458999989, 21.044407597673231 ], [ 105.860661666043214, 21.044424825619551 ], [ 105.860686834483445, 21.044444437737468 ], [ 105.860709857987999, 21.044466249089737 ], [ 105.860730519450158, 21.04449005400085 ], [ 105.860748624036418, 21.044515627996457 ], [ 105.860764001023696, 21.044542729920082 ], [ 105.860776505409234, 21.044571104207119 ], [ 105.860786019278024, 21.044600483294769 ], [ 105.86079045368534, 21.044621234551347 ], [ 105.860790539842313, 21.044621218282114 ], [ 105.860798221314383, 21.044657068790986 ], [ 105.860802269226028, 21.044672102522057 ], [ 105.860811239517105, 21.044699650055399 ], [ 105.86081683759835, 21.044714238919681 ], [ 105.860828640914988, 21.044740828388012 ], [ 105.860835735254312, 21.044754831886259 ], [ 105.860850257925904, 21.044780207217546 ], [ 105.860858780201838, 21.044793490487919 ], [ 105.860875882368518, 21.044817407302748 ], [ 105.860885750507521, 21.044829842419499 ], [ 105.860905267466904, 21.044852070384657 ], [ 105.860916386433786, 21.044863537590171 ], [ 105.860938130227439, 21.044883862637075 ], [ 105.860950392940396, 21.044894251495116 ], [ 105.860974154163557, 21.044912477881198 ], [ 105.860987442525911, 21.044921688340835 ], [ 105.861012992344342, 21.044937640534823 ], [ 105.86102717838142, 21.044945583893668 ], [ 105.861054270735309, 21.044959108266131 ], [ 105.861069217826952, 21.044965708024691 ], [ 105.861097591800558, 21.044976674327568 ], [ 105.861113155997359, 21.044981866926136 ], [ 105.861142538331691, 21.044990169547098 ], [ 105.861158569740809, 21.044993904977741 ], [ 105.861188677465776, 21.044999463957435 ], [ 105.861205021694431, 21.045001706245582 ], [ 105.861235564853885, 21.045004468047658 ], [ 105.861252064496782, 21.045005195598726 ], [ 105.861282748940638, 21.045005133625327 ], [ 105.86129924509595, 21.045004339432616 ], [ 105.861329775313507, 21.045001454280676 ], [ 105.86134610911283, 21.044999145992797 ], [ 105.861376191078733, 21.044993465448272 ], [ 105.861392205217371, 21.044989665295535 ], [ 105.861421549223508, 21.044981244065696 ], [ 105.861437089475217, 21.044975988646016 ], [ 105.861465412920609, 21.044964907832703 ], [ 105.861480329623177, 21.044958247759098 ], [ 105.861495159363216, 21.044950767807613 ], [ 105.861524886464721, 21.044937488273231 ], [ 105.861555852458821, 21.044926996434338 ], [ 105.861587761549359, 21.044919392511886 ], [ 105.861620308931705, 21.044914749140599 ], [ 105.861653183704163, 21.044913110675193 ], [ 105.861686071837809, 21.044914492766669 ], [ 105.861718659176091, 21.044918882212844 ], [ 105.861750634435722, 21.044926237084436 ], [ 105.861781692180045, 21.044936487125597 ], [ 105.861811535736621, 21.044949534425005 ], [ 105.86183988003107, 21.04496525435113 ], [ 105.861866454310174, 21.044983496742692 ], [ 105.861891004728179, 21.045004087343099 ], [ 105.86191329677149, 21.045026829464891 ], [ 105.861933117498907, 21.045051505868585 ], [ 105.861950277575716, 21.045077880837773 ], [ 105.861964613082236, 21.045105702430707 ], [ 105.861975987079688, 21.045134704886912 ], [ 105.861983477505774, 21.045157128665345 ], [ 105.86199407030351, 21.045184082416498 ], [ 105.862000541175973, 21.045198349569283 ], [ 105.86201393265678, 21.045224267443015 ], [ 105.862021862000191, 21.045237870469435 ], [ 105.862037895077378, 21.04526243130648 ], [ 105.862047206528558, 21.045275239201438 ], [ 105.862065726795876, 21.045298206466253 ], [ 105.862076330680992, 21.045310095882119 ], [ 105.862097159778799, 21.045331248386233 ], [ 105.862108953976772, 21.045342104820708 ], [ 105.862131891309602, 21.045361238852742 ], [ 105.862144762235815, 21.045370957751814 ], [ 105.86216958690413, 21.04538788903929 ], [ 105.862183410604203, 21.045396376804032 ], [ 105.862209883532017, 21.045410942288317 ], [ 105.86222452687548, 21.045418117176279 ], [ 105.862252393112655, 21.045430176582755 ], [ 105.86226771507522, 21.045435969495337 ], [ 105.862296706252835, 21.045445406684454 ], [ 105.862312559274642, 21.045449761832348 ], [ 105.862342396189646, 21.045456485918127 ], [ 105.862358627596109, 21.045459361358539 ], [ 105.862389022900345, 21.045463307583894 ], [ 105.862405476372786, 21.045464675624562 ], [ 105.862436137340211, 21.045465805984922 ], [ 105.862452654421404, 21.045465653450812 ], [ 105.862483285767368, 21.0454639570602 ], [ 105.862499707387315, 21.045462285420356 ], [ 105.862530014112778, 21.045457778616157 ], [ 105.862546182120781, 21.045454603969596 ], [ 105.862575872352878, 21.045447330155266 ], [ 105.862591631040956, 21.045442683075869 ], [ 105.862620418844202, 21.04543271230289 ], [ 105.86263561644644, 21.045426637544999 ], [ 105.862663224576607, 21.045414065838237 ], [ 105.862677714730836, 21.045406621905595 ], [ 105.862703877304938, 21.045391570338481 ], [ 105.862717520462368, 21.0453828289208 ], [ 105.862741985519307, 21.045365442449341 ], [ 105.862754650288451, 21.045355487731836 ], [ 105.862777182215822, 21.045335933798441 ], [ 105.862788746627686, 21.045324861651221 ], [ 105.862809128430598, 21.04530332857216 ], [ 105.86281948111376, 21.045291245626661 ], [ 105.862837516504712, 21.04526794077848 ], [ 105.862846557757464, 21.045254963400762 ], [ 105.862862073046685, 21.045230111223045 ], [ 105.862869715797501, 21.045216364392868 ], [ 105.862882561565712, 21.04519020422665 ], [ 105.862888732211488, 21.045175820334126 ], [ 105.862898784748694, 21.045148604116985 ], [ 105.862903423863884, 21.045133721687229 ], [ 105.862910586360812, 21.045105711526908 ], [ 105.862913649269416, 21.045090473886173 ], [ 105.862917852749717, 21.045061939536311 ], [ 105.862919309955615, 21.045046493431592 ], [ 105.862920676189603, 21.045013830782249 ], [ 105.862920797715134, 21.045006072494896 ], [ 105.862917674018689, 21.04470805979847 ], [ 105.862917389891891, 21.044700305258104 ], [ 105.862915339269293, 21.044667674171066 ], [ 105.862913558577105, 21.044652257976015 ], [ 105.862908757803808, 21.044623806802313 ], [ 105.862905376097046, 21.044608628693251 ], [ 105.862897627884209, 21.044580756269454 ], [ 105.86289267773185, 21.044565962419505 ], [ 105.862882056701295, 21.044538937171634 ], [ 105.862875585777118, 21.044524670053228 ], [ 105.862862194217129, 21.044498752248273 ], [ 105.862854264840678, 21.044485149261185 ], [ 105.862838231720815, 21.044460588500698 ], [ 105.862828920257058, 21.044447780648468 ], [ 105.862810399986216, 21.044424813464971 ], [ 105.862799796110053, 21.044412924093535 ], [ 105.862778967049181, 21.044391771672306 ], [ 105.862767172881988, 21.044380915282225 ], [ 105.862744235626394, 21.044361781331389 ], [ 105.862731364752349, 21.044352062474939 ], [ 105.862706540200008, 21.044335131263757 ], [ 105.862692716572269, 21.044326643538184 ], [ 105.862666243796227, 21.044312078122296 ], [ 105.862651600543316, 21.044304903268479 ], [ 105.862623734489489, 21.044292843919777 ], [ 105.862608412633108, 21.044287051034971 ], [ 105.862579421665032, 21.044277613890706 ], [ 105.862563568761857, 21.044273258763109 ], [ 105.862533732076244, 21.04426653470745 ], [ 105.862517500797253, 21.044263659279039 ], [ 105.862487105735255, 21.044259713067838 ], [ 105.862470652395189, 21.04425834503034 ], [ 105.86243999167533, 21.044257214667535 ], [ 105.862423474727294, 21.04425736719584 ], [ 105.862392843626495, 21.044259063567424 ], [ 105.862376422136364, 21.044260735192669 ], [ 105.862346115646048, 21.044265241961906 ], [ 105.862329947760486, 21.044268416585588 ], [ 105.862300257746256, 21.0442756903503 ], [ 105.862284499169462, 21.044280337399385 ], [ 105.862255711560138, 21.044290308109925 ], [ 105.862234055643981, 21.044298964375677 ], [ 105.862202875184252, 21.044309755138737 ], [ 105.862170713825194, 21.044317608997122 ], [ 105.862137884611428, 21.044322449504737 ], [ 105.862104707088264, 21.044324229546081 ], [ 105.86207150419142, 21.044322931794952 ], [ 105.862038599103556, 21.044318568883032 ], [ 105.862006312108619, 21.044311183276932 ], [ 105.861974957474146, 21.044300846864893 ], [ 105.861944840392368, 21.044287660256984 ], [ 105.861916254009515, 21.044271751805844 ], [ 105.861889476572401, 21.044253276357292 ], [ 105.861864768720096, 21.044232413743131 ], [ 105.861842370946988, 21.044209367030703 ], [ 105.861822501261827, 21.044184360546311 ], [ 105.861805353065861, 21.04415763769169 ], [ 105.861791093270313, 21.044129458574812 ], [ 105.861775916480596, 21.044095202240676 ], [ 105.861768872988776, 21.044081299253378 ], [ 105.861754350237007, 21.044055924001562 ], [ 105.861745827927919, 21.044042640776262 ], [ 105.861728725719033, 21.044018724048566 ], [ 105.861718857568036, 21.04400628898016 ], [ 105.861699340606663, 21.043984061106638 ], [ 105.861688221649771, 21.043972593950986 ], [ 105.861666477895184, 21.043952268996865 ], [ 105.861654215214259, 21.043941880188417 ], [ 105.861630454070649, 21.043923653892922 ], [ 105.8616171657617, 21.043914443480809 ], [ 105.861591616061276, 21.043898491371976 ], [ 105.861577430097455, 21.043890548056886 ], [ 105.861550337896659, 21.043877023761134 ], [ 105.861535390895995, 21.043870424041049 ], [ 105.861507017105936, 21.043859457803748 ], [ 105.861491453015063, 21.043854265237034 ], [ 105.861462070889047, 21.0438459626683 ], [ 105.861446039597496, 21.043842227261823 ], [ 105.861415932099078, 21.043836668319297 ], [ 105.861399587995891, 21.04383442604686 ], [ 105.861369045074042, 21.043831664265781 ], [ 105.861352545560521, 21.043830936721534 ], [ 105.861321861357752, 21.043830998699271 ], [ 105.86130536533166, 21.043831792889829 ], [ 105.86127483535104, 21.043834678029583 ], [ 105.861258501676645, 21.04383698630658 ], [ 105.86122841993604, 21.043842666823206 ], [ 105.861212405914159, 21.043846466956932 ], [ 105.861183062114691, 21.043854888144512 ], [ 105.861167521967985, 21.043860143537948 ], [ 105.86113919870435, 21.043871224296591 ], [ 105.861124282091808, 21.043877884337896 ], [ 105.861097252130705, 21.043891517954787 ], [ 105.861076019461962, 21.043903523603451 ], [ 105.861075878558125, 21.043903303982514 ], [ 105.861059978201823, 21.043912308538317 ], [ 105.861030573145598, 21.043925507229599 ], [ 105.860999946908279, 21.043935976093671 ], [ 105.860968386250505, 21.043943617107967 ], [ 105.860936186682338, 21.043948358727729 ], [ 105.860903649696212, 21.043950156555962 ], [ 105.860871079943948, 21.043948993759081 ], [ 105.860838782384192, 21.043944881224576 ], [ 105.860807059426961, 21.043937857459056 ], [ 105.860776208102038, 21.043927988227697 ], [ 105.860746517277747, 21.043915365938467 ], [ 105.860718264956205, 21.043900108776857 ], [ 105.860691715670242, 21.043882359599266 ], [ 105.860667118006504, 21.043862284595427 ], [ 105.860644702277909, 21.043840071732237 ], [ 105.860624678367103, 21.043815928993816 ], [ 105.860607233761343, 21.043790082434054 ], [ 105.860592531796996, 21.043762774059971 ], [ 105.860580710130222, 21.043734259565788 ], [ 105.860571879448173, 21.043704805938724 ], [ 105.860567568306308, 21.043687200872704 ], [ 105.860563082154229, 21.043672277171765 ], [ 105.860553309440704, 21.043644971292849 ], [ 105.860547286734189, 21.043630532255655 ], [ 105.860534710122906, 21.04360425711743 ], [ 105.860527208864923, 21.043590441799331 ], [ 105.860511949477214, 21.043565450444742 ], [ 105.860503041909766, 21.043552391894217 ], [ 105.860485246703135, 21.043528925002573 ], [ 105.860475018611524, 21.043516748980011 ], [ 105.860454858964346, 21.043495032549135 ], [ 105.860443408850955, 21.043483856315582 ], [ 105.860421078911841, 21.043464099485284 ], [ 105.860408517047603, 21.043454030673409 ], [ 105.860384231865865, 21.043436423711583 ], [ 105.860370679228097, 21.043427559288872 ], [ 105.860344672682487, 21.043412271758978 ], [ 105.860330259789905, 21.043404697094036 ], [ 105.860302782336518, 21.043391876222337 ], [ 105.860287647992422, 21.043385664262811 ], [ 105.860258964252409, 21.043375433520371 ], [ 105.860243254207674, 21.043370644090341 ], [ 105.860213640419161, 21.043363102004069 ], [ 105.860197505968983, 21.043359781228027 ], [ 105.860167247326544, 21.043355000431777 ], [ 105.860150843853162, 21.043353180290389 ], [ 105.860120231761542, 21.043351206825541 ], [ 105.860103717237976, 21.04335090484766 ], [ 105.860073046505676, 21.043351757719662 ], [ 105.860056579974355, 21.043352976813523 ], [ 105.860026145974629, 21.043356647808931 ], [ 105.860009886015916, 21.04335937623415 ], [ 105.859979981842287, 21.04336582999964 ], [ 105.859964085047096, 21.043370041480266 ], [ 105.85993499869069, 21.043379215863212 ], [ 105.859919618152688, 21.043384869840772 ], [ 105.859891629729034, 21.043396676487614 ], [ 105.859876913570133, 21.043403718511712 ], [ 105.859850292621346, 21.043418043718994 ], [ 105.859836382565476, 21.043426405971609 ], [ 105.859811385464511, 21.043443111780896 ], [ 105.859798415472525, 21.043452713729607 ], [ 105.859775282954416, 21.043471639255944 ], [ 105.859763377934144, 21.043482388429425 ], [ 105.859742332777387, 21.043503351410916 ], [ 105.859731607380695, 21.043515144289355 ], [ 105.859712852261922, 21.043537942842267 ], [ 105.859703409780508, 21.043550665854472 ], [ 105.859687125322552, 21.04357508041738 ], [ 105.859679056693196, 21.043588611034419 ], [ 105.859663559305034, 21.043617882690938 ], [ 105.859660063425324, 21.043624913578899 ], [ 105.859547232101463, 21.043867180136086 ], [ 105.859544107906686, 21.043874363587509 ], [ 105.859531741299008, 21.043904920309703 ], [ 105.859526639493964, 21.043919668690123 ], [ 105.859518605480275, 21.043947469728082 ], [ 105.859515068096954, 21.043962616543421 ], [ 105.859509975433099, 21.043991022976904 ] ] } },
{ "type": "Feature", "properties": { "id": "ref_s2_2018_dry_6", "is_island": false, "length_m": 433.64157751911046 }, "geometry": { "type": "LineString", "coordinates": [ [ 105.822892817855205, 21.096909829775395 ], [ 105.822907116821568, 21.096902058640261 ], [ 105.822932892626781, 21.096886416763223 ], [ 105.822946311069529, 21.096877367771889 ], [ 105.822970329013671, 21.096859430252795 ], [ 105.822982737705331, 21.0968491905527 ], [ 105.823004766481958, 21.096829130140886 ], [ 105.823016045919928, 21.096817798346599 ], [ 105.823035873379908, 21.096795808236052 ], [ 105.823045914937239, 21.096783493479546 ], [ 105.823063350131775, 21.096759785448249 ], [ 105.823072057103161, 21.096746606328043 ], [ 105.823086932122877, 21.096721408698393 ], [ 105.823094220656117, 21.09670749213722 ], [ 105.823106392247922, 21.096681047577157 ], [ 105.823112192151385, 21.096666527599506 ], [ 105.823121543098082, 21.096639090785526 ], [ 105.823125798516642, 21.096624107227154 ], [ 105.823132238765737, 21.096595942391335 ], [ 105.823134908718671, 21.096580639552428 ], [ 105.823138376249531, 21.09655201793797 ], [ 105.823139435025084, 21.096536543193402 ], [ 105.823139896446108, 21.096507740442274 ], [ 105.823139333849156, 21.096492242822301 ], [ 105.823136784719253, 21.096463536320737 ], [ 105.823134606169333, 21.096448165075799 ], [ 105.823129071040668, 21.096419831282784 ], [ 105.82312529751978, 21.096404734446214 ], [ 105.823116829701107, 21.096377046231151 ], [ 105.823111497551579, 21.096362369193329 ], [ 105.823100178594871, 21.096335593208174 ], [ 105.823093339169333, 21.096321477316618 ], [ 105.823079278084165, 21.096295871427749 ], [ 105.823070997250937, 21.096282452625651 ], [ 105.823054329454749, 21.096258263430791 ], [ 105.823044686963456, 21.096245670947987 ], [ 105.82302557297723, 21.0962231314011 ], [ 105.823014661690749, 21.096211486509414 ], [ 105.822993285593128, 21.096190813677456 ], [ 105.822981210593227, 21.096180228522904 ], [ 105.822957778247726, 21.09616162149533 ], [ 105.82294465582315, 21.096152198018082 ], [ 105.822919392895514, 21.096135835989557 ], [ 105.822905349421831, 21.096127664942141 ], [ 105.822878499206894, 21.096113705486822 ], [ 105.822863669929887, 21.096106865560408 ], [ 105.822835491008291, 21.096095443114454 ], [ 105.822820018741069, 21.096090000180762 ], [ 105.822790782489392, 21.096081224747742 ], [ 105.822774816237143, 21.096077231224779 ], [ 105.822744804214224, 21.096071187316273 ], [ 105.822728497739575, 21.096068681663589 ], [ 105.822697998975102, 21.096065427485307 ], [ 105.822681509316809, 21.096064433833511 ], [ 105.822650817527972, 21.096064000724795 ], [ 105.822634303489053, 21.096064528643275 ], [ 105.82260371425194, 21.096066920775225 ], [ 105.822587334870136, 21.096068965179917 ], [ 105.822553074070171, 21.096074859506256 ], [ 105.822544980602828, 21.096076445521017 ], [ 105.822395276357796, 21.096109399604249 ], [ 105.821991879007399, 21.09619820764707 ], [ 105.821983878251004, 21.096200164593647 ], [ 105.821950398227045, 21.096209182643772 ], [ 105.821934758663531, 21.09621418684802 ], [ 105.821906226723542, 21.096224809575414 ], [ 105.821891185132884, 21.096231228272575 ], [ 105.821863900073154, 21.096244424330486 ], [ 105.821849601313033, 21.096252195705603 ], [ 105.821823825902158, 21.096267838009837 ], [ 105.821810407676949, 21.096276887220824 ], [ 105.821786390145036, 21.096294825128677 ], [ 105.8217739816792, 21.09630506502733 ], [ 105.821751953327833, 21.096325125788091 ], [ 105.821740674121443, 21.09633645775931 ], [ 105.82172084709569, 21.096358448178101 ], [ 105.821710805773805, 21.096370763089492 ], [ 105.821693371019308, 21.096394471387779 ], [ 105.821684664285826, 21.096407650640572 ], [ 105.821669789709787, 21.096432848495649 ], [ 105.821662501416014, 21.096446765167002 ], [ 105.821650330270231, 21.096473209910695 ], [ 105.821644530607315, 21.096487729975994 ], [ 105.821635180108473, 21.096515166931841 ], [ 105.821630924931469, 21.096530150555278 ], [ 105.821624485132219, 21.096558315491048 ], [ 105.821621815422077, 21.09657361837241 ], [ 105.821618348343677, 21.096602240044803 ], [ 105.821617289812522, 21.096617714809192 ], [ 105.821616828847482, 21.096646517575998 ], [ 105.821617391690992, 21.096662015192997 ], [ 105.821619941281313, 21.096690721667812 ], [ 105.82162212008042, 21.096706092886802 ], [ 105.821627655674774, 21.096734426610247 ], [ 105.821631429447848, 21.096749523397854 ], [ 105.821639897737882, 21.096777211500154 ], [ 105.821645230142664, 21.09679188846561 ], [ 105.821656549576375, 21.09681866429457 ], [ 105.821663389259996, 21.096832780090249 ], [ 105.821677450826883, 21.096858385779022 ], [ 105.821685731920411, 21.096871804461614 ], [ 105.82170240020136, 21.096895993412385 ], [ 105.821712042953976, 21.096908585751997 ], [ 105.821731157425376, 21.09693112501078 ], [ 105.821742068972497, 21.096942769735655 ], [ 105.821763445552051, 21.096963442235868 ], [ 105.82177552080968, 21.096974027200311 ], [ 105.821798953629241, 21.09699263385324 ], [ 105.82181207630579, 21.097002057117525 ], [ 105.821837339693985, 21.097018418729739 ], [ 105.821851383410589, 21.097026589542125 ], [ 105.821878234066062, 21.097040548541187 ], [ 105.82189306357337, 21.09704738821171 ], [ 105.821921242908203, 21.097058810163876 ], [ 105.821936715388958, 21.097064252822229 ], [ 105.821965952018829, 21.097073027726985 ], [ 105.821981918463564, 21.097077020957045 ], [ 105.822011930821461, 21.097083064306631 ], [ 105.822028237463314, 21.097085569651103 ], [ 105.822058736511423, 21.097088823244334 ], [ 105.822075226307049, 21.097089816575199 ], [ 105.822105918320219, 21.097090249077997 ], [ 105.822122432462464, 21.097089720828915 ], [ 105.822153021857162, 21.0970873280761 ], [ 105.822169401304421, 21.097085283334472 ], [ 105.822203662199485, 21.097079388293281 ], [ 105.822211755683568, 21.097077802107695 ], [ 105.822615130017411, 21.09698899903 ], [ 105.822764837421005, 21.096956044213616 ], [ 105.822772838256981, 21.096954087412634 ], [ 105.822806318625041, 21.096945069964178 ], [ 105.822821958362255, 21.096940066036723 ], [ 105.822850490642466, 21.096929443807515 ], [ 105.822865532424899, 21.096923025369474 ], [ 105.822892817855205, 21.096909829775395 ] ] } },
{ "type": "Feature", "properties": { "id": "ref_s2_2018_dry_7", "is_island": false, "length_m": 696.15983190262682 }, "geometry": { "type": "LineString", "coordinates": [ [ 105.818663352960698, 21.08940122473026 ], [ 105.818648893618175, 21.089408728780111 ], [ 105.818622794260008, 21.089423888877143 ], [ 105.818609188268198, 21.0894326868831 ], [ 105.818584797910717, 21.089450174815465 ], [ 105.818572176302339, 21.08946018204848 ], [ 105.818549729837457, 21.089479829399032 ], [ 105.818538214165216, 21.08949094948472 ], [ 105.818517927764631, 21.089512567039918 ], [ 105.818507628930789, 21.089524692886471 ], [ 105.818489697964054, 21.08954807245863 ], [ 105.818480715152432, 21.089561087288129 ], [ 105.818465312305435, 21.089586003720374 ], [ 105.81845773202609, 21.089599782193471 ], [ 105.818445005638083, 21.089625995527946 ], [ 105.818438900894094, 21.08964040495092 ], [ 105.818428973528981, 21.089667662739775 ], [ 105.81842440311344, 21.089682564342418 ], [ 105.81841737037935, 21.089710604078917 ], [ 105.818414378309129, 21.089725854350974 ], [ 105.818410307937555, 21.08975440599761 ], [ 105.818408923029253, 21.08976985807082 ], [ 105.818407854222713, 21.08979864665984 ], [ 105.818408089815193, 21.089814151722365 ], [ 105.818410032869522, 21.089842900003937 ], [ 105.818411886695358, 21.089858308733472 ], [ 105.818416822900531, 21.089886739845699 ], [ 105.818420277107748, 21.089901903847544 ], [ 105.818428158927887, 21.089929743982797 ], [ 105.818433180251859, 21.089944517219003 ], [ 105.818443931783037, 21.089971498260908 ], [ 105.818450471866811, 21.08998573845669 ], [ 105.818463989567846, 21.09001160056215 ], [ 105.81847198542782, 21.090025170576233 ], [ 105.818488139117378, 21.090049664677938 ], [ 105.818497513749776, 21.090062433823039 ], [ 105.818516147860151, 21.090085324028344 ], [ 105.818526810982561, 21.090097169329937 ], [ 105.818547746057732, 21.090118235192453 ], [ 105.818559594978595, 21.090129042573118 ], [ 105.818582629402414, 21.090148081215844 ], [ 105.818595550010158, 21.090157746594006 ], [ 105.818620461948043, 21.090174574663141 ], [ 105.818634329809782, 21.090183004955279 ], [ 105.818660879345188, 21.090197460386168 ], [ 105.81867556090522, 21.090204574403394 ], [ 105.81869082482676, 21.090211101307364 ], [ 105.818720295012312, 21.090225386581661 ], [ 105.818748125790421, 21.090242321975904 ], [ 105.818774047460963, 21.090261743374288 ], [ 105.818797808824115, 21.090283462569857 ], [ 105.818819179614636, 21.090307269088328 ], [ 105.818837952733332, 21.090332932227685 ], [ 105.818853946254009, 21.090360203293841 ], [ 105.81886700518649, 21.090388818010641 ], [ 105.818877002978567, 21.090418499080812 ], [ 105.818883842742594, 21.090448958873218 ], [ 105.818887458194311, 21.090479902210156 ], [ 105.818887814295294, 21.090511029227855 ], [ 105.818884907592647, 21.090542038282344 ], [ 105.818878766252496, 21.090572628872646 ], [ 105.818869449787059, 21.090602504552798 ], [ 105.818869328978508, 21.090602831341894 ], [ 105.818864685603202, 21.090617713069648 ], [ 105.818857515576767, 21.090645722168599 ], [ 105.81885444883217, 21.090660959370158 ], [ 105.818850238648082, 21.090689493151867 ], [ 105.818848778070006, 21.090704939084908 ], [ 105.818847568277221, 21.090733722753676 ], [ 105.818847727933232, 21.090749228665437 ], [ 105.818849530185403, 21.090777985018846 ], [ 105.818851308539394, 21.090793401578896 ], [ 105.818856105482467, 21.09082185367728 ], [ 105.818859485409277, 21.090837032415511 ], [ 105.81886723084861, 21.090864906249156 ], [ 105.818872179799015, 21.090879700985756 ], [ 105.818882799144049, 21.090906728113723 ], [ 105.818889269458097, 21.090920996366812 ], [ 105.818902660440699, 21.090946916502222 ], [ 105.818910589806734, 21.090960520860285 ], [ 105.818926623465984, 21.090985084377042 ], [ 105.818935935520543, 21.090997893821989 ], [ 105.818954457444761, 21.091020864158939 ], [ 105.818965062508113, 21.091032755328207 ], [ 105.818985894321628, 21.091053911267167 ], [ 105.818997690261497, 21.091064769641683 ], [ 105.819020631342667, 21.091083907438168 ], [ 105.819033504557567, 21.091093628445137 ], [ 105.819058333970816, 21.091110563790494 ], [ 105.819072160484396, 21.09111905381074 ], [ 105.819098639107963, 21.091133623607153 ], [ 105.81911328576264, 21.091140800876506 ], [ 105.819141158591606, 21.091152864807889 ], [ 105.819156484331259, 21.091158660204819 ], [ 105.819185482933108, 21.091168102088005 ], [ 105.81920134016147, 21.09117245979925 ], [ 105.819231185261799, 21.091179188703084 ], [ 105.819247421263611, 21.091182066761125 ], [ 105.819277825435435, 21.091186017882109 ], [ 105.819294283847952, 21.09118738856953 ], [ 105.819324954279622, 21.091188523855926 ], [ 105.819341476598055, 21.09118837397217 ], [ 105.819372117914014, 21.091186682490555 ], [ 105.819388545017716, 21.091185013479155 ], [ 105.819422947671612, 21.091179904832817 ], [ 105.819431079677884, 21.091178504475437 ], [ 105.820049631170207, 21.091057189780805 ], [ 105.820057680149901, 21.091055416608771 ], [ 105.820091383516342, 21.091047167820882 ], [ 105.820107147986818, 21.09104252319332 ], [ 105.820135946616801, 21.091032556893126 ], [ 105.820151150079127, 21.091026484493039 ], [ 105.820178769128049, 21.091013917063083 ], [ 105.820193265163638, 21.091006475371504 ], [ 105.820219438643463, 21.090991427843967 ], [ 105.820233087646812, 21.090982688529063 ], [ 105.820257563491325, 21.090965305821111 ], [ 105.820270234014757, 21.090955353047775 ], [ 105.820292776507642, 21.090935802565539 ], [ 105.820304346526697, 21.090924732185218 ], [ 105.820324738571344, 21.090903202211742 ], [ 105.820335096660557, 21.090891120838862 ], [ 105.820353141870839, 21.090867818720749 ], [ 105.820362188276448, 21.090854842706221 ], [ 105.820377712868009, 21.09082999285679 ], [ 105.820385360468876, 21.090816247167254 ], [ 105.820398214932794, 21.09079008890518 ], [ 105.82040439007919, 21.090775705919654 ], [ 105.820414450621755, 21.090748491164177 ], [ 105.820419093844706, 21.090733609399134 ], [ 105.820426263579549, 21.090705600243886 ], [ 105.82042933016352, 21.090690363019196 ], [ 105.820433540044604, 21.090661829208148 ], [ 105.820435000458076, 21.090646383266751 ], [ 105.820436209944518, 21.090617599596381 ], [ 105.820436050124329, 21.09060209369126 ], [ 105.820434247570802, 21.090573337364027 ], [ 105.82043246905755, 21.090557920825425 ], [ 105.820427671826266, 21.090529468780275 ], [ 105.820424291749404, 21.090514290077724 ], [ 105.820416546042836, 21.090486416322928 ], [ 105.820411596955623, 21.090471621635281 ], [ 105.82040097737142, 21.090444594609682 ], [ 105.820394506937461, 21.090430326417497 ], [ 105.820381115750038, 21.090404406405245 ], [ 105.820373186284044, 21.090390802118439 ], [ 105.820357152459422, 21.090366238742408 ], [ 105.820347840327301, 21.09035342937722 ], [ 105.82032931828104, 21.090330459194927 ], [ 105.820318713164198, 21.090318568111901 ], [ 105.820297881274413, 21.090297412337623 ], [ 105.820286085306051, 21.090286554053655 ], [ 105.820263144195351, 21.090267416427832 ], [ 105.820250270977098, 21.090257695513536 ], [ 105.820225441580504, 21.090240760340748 ], [ 105.820211615088027, 21.090232270413125 ], [ 105.820185136525382, 21.090217700787246 ], [ 105.820170489914759, 21.090210523608384 ], [ 105.820157544561638, 21.090204920651242 ], [ 105.820128322813048, 21.090190606657519 ], [ 105.820100731224372, 21.090173681473146 ], [ 105.820075033862736, 21.090154307081978 ], [ 105.82005147666608, 21.090132668908179 ], [ 105.820030285089459, 21.09010897404152 ], [ 105.820011661947305, 21.090083449255449 ], [ 105.819995785472344, 21.090056338836654 ], [ 105.819982807609918, 21.090027902247133 ], [ 105.819972852563779, 21.08999841164092 ], [ 105.81996601560742, 21.089968149259448 ], [ 105.819962362172362, 21.089937404730286 ], [ 105.819961927222039, 21.089906472295233 ], [ 105.81996471491712, 21.089875647994308 ], [ 105.819970698575929, 21.089845226832423 ], [ 105.819979820929746, 21.089815499956053 ], [ 105.819983692817559, 21.089804868499215 ], [ 105.819988263079296, 21.089789966859733 ], [ 105.819995295519362, 21.089761927067865 ], [ 105.819998287427765, 21.089746676773238 ], [ 105.820002357494317, 21.089718125098383 ], [ 105.820003742237063, 21.089702673017467 ], [ 105.820004810735739, 21.089673884428134 ], [ 105.820004574978384, 21.089658379372977 ], [ 105.820002631621634, 21.089629631118992 ], [ 105.82000077763611, 21.089614222411697 ], [ 105.819995841142159, 21.089585791354203 ], [ 105.819992386784733, 21.089570627388866 ], [ 105.819984504697231, 21.089542787334032 ], [ 105.819979483236551, 21.089528014147618 ], [ 105.81996873146656, 21.089501033209654 ], [ 105.819962191263187, 21.089486793075633 ], [ 105.819948673358084, 21.089460931094901 ], [ 105.819940677398677, 21.089447361152924 ], [ 105.819924523544884, 21.089422867193463 ], [ 105.819915148835619, 21.089410098128941 ], [ 105.81989651460465, 21.089387208079756 ], [ 105.819885851429603, 21.08937536286518 ], [ 105.819864916279869, 21.08935429716874 ], [ 105.819853067331479, 21.089343489879351 ], [ 105.819830032880006, 21.089324451408586 ], [ 105.819817112269945, 21.089314786123765 ], [ 105.819792200350747, 21.0892979582284 ], [ 105.819778332511191, 21.089289528029497 ], [ 105.81975178303874, 21.089275072770231 ], [ 105.819737101523856, 21.089267958844051 ], [ 105.819709170182648, 21.089256015431893 ], [ 105.819693816382724, 21.089250286288983 ], [ 105.819664772164913, 21.089240969744598 ], [ 105.819648893944418, 21.089236680559345 ], [ 105.819619016559571, 21.089230080605489 ], [ 105.819602766833029, 21.089227272684713 ], [ 105.819572344014375, 21.089223452882091 ], [ 105.819555879274247, 21.089222153267436 ], [ 105.819525204007448, 21.089221150402597 ], [ 105.819508682816817, 21.089221371609987 ], [ 105.819478050518811, 21.089223195341063 ], [ 105.819461631984225, 21.089224935240232 ], [ 105.819427255178752, 21.089230192317206 ], [ 105.819419130226279, 21.089231627756224 ], [ 105.818792276523084, 21.089357396156938 ], [ 105.818784236391338, 21.089359203989517 ], [ 105.818750574099312, 21.089367597894622 ], [ 105.818734832684456, 21.089372310387084 ], [ 105.818706083412124, 21.089382400641185 ], [ 105.818690909969675, 21.089388538467389 ], [ 105.818663352960698, 21.08940122473026 ] ] } },
{ "type": "Feature", "properties": { "id": "ref_s2_2018_dry_8", "is_island": false, "length_m": 602.72877472019979 }, "geometry": { "type": "LineString", "coordinates": [ [ 105.785726614020632, 21.097243678244343 ], [ 105.785727384853629, 21.097254836427847 ], [ 105.785728015820993, 21.097267410029747 ], [ 105.785730962535794, 21.097296083224979 ], [ 105.785733353920847, 21.097311426707225 ], [ 105.785739281264043, 21.097339690783347 ], [ 105.785743263709108, 21.09735474041408 ], [ 105.785752114599603, 21.097382323172084 ], [ 105.78575764975281, 21.097396934014775 ], [ 105.785769338953841, 21.097423569816826 ], [ 105.785776373509734, 21.097437601160678 ], [ 105.785790788449759, 21.097463033488566 ], [ 105.785799254662564, 21.097476350203415 ], [ 105.78581625651924, 21.097500334128846 ], [ 105.785826072855386, 21.097512807966933 ], [ 105.785845497892481, 21.097535112510389 ], [ 105.785856569815664, 21.097546623341206 ], [ 105.785878230959923, 21.097567033696546 ], [ 105.785890451841453, 21.097577470663719 ], [ 105.785914140484138, 21.097595790266841 ], [ 105.785927392630256, 21.097605052856164 ], [ 105.785952880636145, 21.097621105278048 ], [ 105.785967036420772, 21.097629104284941 ], [ 105.785994078325473, 21.097642734930965 ], [ 105.786009001420013, 21.09764939332014 ], [ 105.786037336793513, 21.097660470918662 ], [ 105.786052883479599, 21.097665724565736 ], [ 105.786082239434762, 21.097674142432602 ], [ 105.786098259988179, 21.09767794074169 ], [ 105.786128353808934, 21.097683617807661 ], [ 105.786144693941495, 21.097685924198633 ], [ 105.786175235805402, 21.097688805790074 ], [ 105.786191738151544, 21.097689598051012 ], [ 105.786226570498982, 21.097689664281365 ], [ 105.786234836593437, 21.097689489576574 ], [ 105.786600565800427, 21.097673325046298 ], [ 105.786608812800125, 21.097672769903991 ], [ 105.78664348432207, 21.097669631735904 ], [ 105.786659834270438, 21.097667387466664 ], [ 105.786689952337511, 21.097661824823007 ], [ 105.786705989147691, 21.097658087433583 ], [ 105.78673538118305, 21.097649781207771 ], [ 105.786750950410323, 21.097644586691658 ], [ 105.786779333350466, 21.097633616877935 ], [ 105.786794285053617, 21.097627015261612 ], [ 105.786821385553452, 21.097613487506209 ], [ 105.786835575738621, 21.097605542367347 ], [ 105.786861132804091, 21.09758958695101 ], [ 105.786874424811302, 21.097580374806295 ], [ 105.786898192312961, 21.09756214538956 ], [ 105.786910458132553, 21.097551754957632 ], [ 105.786932207175951, 21.097531427100968 ], [ 105.786943328681289, 21.097519958448014 ], [ 105.78696284981126, 21.097497727921077 ], [ 105.786972719896426, 21.097485291497062 ], [ 105.786989825114432, 21.097461372393148 ], [ 105.786998348725433, 21.09744808796842 ], [ 105.787012873300043, 21.097422710642604 ], [ 105.787019968350634, 21.097408706153928 ], [ 105.787031772403722, 21.097382115004788 ], [ 105.787037370565642, 21.097367525323513 ], [ 105.787046340419693, 21.097339976439155 ], [ 105.78705038778071, 21.097324942072291 ], [ 105.78705643705338, 21.097296700764151 ], [ 105.787058894636473, 21.097281366501122 ], [ 105.787061965072468, 21.097252704748851 ], [ 105.787062809211179, 21.097237218267157 ], [ 105.787062871243151, 21.097208412099238 ], [ 105.787062093809382, 21.097192922542181 ], [ 105.787060470798878, 21.097177131104505 ], [ 105.787059820024453, 21.097167712041895 ], [ 105.787056707607704, 21.097132357722781 ], [ 105.787054540712987, 21.097116984905828 ], [ 105.787049027050145, 21.097088647198216 ], [ 105.787045264956816, 21.097073547724197 ], [ 105.787036818078235, 21.097045853636569 ], [ 105.787031497018575, 21.097031172921309 ], [ 105.787020198274561, 21.097004389162176 ], [ 105.787013369494375, 21.096990268588492 ], [ 105.786999327699874, 21.09696465309916 ], [ 105.786991056965007, 21.096951228655481 ], [ 105.786974407351678, 21.096927028126085 ], [ 105.786964774314441, 21.096914429096437 ], [ 105.786940581350095, 21.096885858664134 ], [ 105.786921010422603, 21.096860218410512 ], [ 105.786904258551644, 21.096832876120747 ], [ 105.786890492384529, 21.096804103797847 ], [ 105.786879848866207, 21.096774187670768 ], [ 105.786872433877207, 21.096743425346904 ], [ 105.786868321180222, 21.096712122851518 ], [ 105.78686755168647, 21.096680591583311 ], [ 105.786870133048808, 21.09664914521667 ], [ 105.78687603958565, 21.09661809658116 ], [ 105.786885212536546, 21.09658775454951 ], [ 105.786897560646764, 21.096558420964961 ], [ 105.786912961075259, 21.096530387638509 ], [ 105.786926632404345, 21.096508283259258 ], [ 105.786934215970533, 21.096494506102488 ], [ 105.786946948515052, 21.09646829495831 ], [ 105.786953056592978, 21.096453886574469 ], [ 105.786962990174302, 21.096426630451919 ], [ 105.786967563940919, 21.096411729602078 ], [ 105.786974602895384, 21.096383690993168 ], [ 105.786977598304063, 21.096368441180957 ], [ 105.786981674845123, 21.096339890113306 ], [ 105.786983063049817, 21.096324438202924 ], [ 105.78698413792074, 21.096295649639202 ], [ 105.786983905553683, 21.096280144441053 ], [ 105.78698196840557, 21.096251395630841 ], [ 105.786980117706022, 21.096235986468429 ], [ 105.786975187197285, 21.096207554278244 ], [ 105.786971735989894, 21.096192389550009 ], [ 105.786963859606558, 21.096164547796935 ], [ 105.786958841129632, 21.096149773547189 ], [ 105.786948094727805, 21.096122790361793 ], [ 105.786941557313185, 21.096108548874277 ], [ 105.78692804438856, 21.096082684118528 ], [ 105.786920050996045, 21.096069112545987 ], [ 105.786903901687083, 21.09604461531066 ], [ 105.78689452929811, 21.096031844354119 ], [ 105.786875899132568, 21.096008950559813 ], [ 105.786865238008872, 21.095997103210003 ], [ 105.78684430640601, 21.095976033335198 ], [ 105.786832459220307, 21.095965223687951 ], [ 105.786809427763018, 21.095946180645878 ], [ 105.786796508609953, 21.095936512803249 ], [ 105.786771599103389, 21.095919679987631 ], [ 105.786757732401199, 21.095911247055643 ], [ 105.78673118473651, 21.095896786574496 ], [ 105.786716504028448, 21.095889669766294 ], [ 105.786688573872823, 21.095877720880967 ], [ 105.786673220541275, 21.095871988734803 ], [ 105.786644176875598, 21.095862666518734 ], [ 105.7866282987803, 21.095858374237828 ], [ 105.786598421308781, 21.095851768468354 ], [ 105.786582171363463, 21.095848957389467 ], [ 105.786551747819914, 21.095845131683252 ], [ 105.786535282519026, 21.095843828878415 ], [ 105.786504605896255, 21.095842820078875 ], [ 105.786488083808266, 21.095843038094721 ], [ 105.786457449536258, 21.09584485591715 ], [ 105.786441029776327, 21.095846592654148 ], [ 105.786406650051049, 21.095851843120357 ], [ 105.786398524366277, 21.095853276998113 ], [ 105.786045425335999, 21.095924046561997 ], [ 105.786037384401467, 21.09592585286477 ], [ 105.786003718567684, 21.095934240370319 ], [ 105.785987975325369, 21.095938949875066 ], [ 105.785959222392606, 21.095949034681752 ], [ 105.785944046841337, 21.095955169637985 ], [ 105.785916485667713, 21.095967850698106 ], [ 105.7859020239556, 21.095975352023292 ], [ 105.78587591996866, 21.095990507212353 ], [ 105.785862311369073, 21.095999302665252 ], [ 105.785837915963356, 21.096016786031644 ], [ 105.785825291534195, 21.096026790907803 ], [ 105.785802839650145, 21.096046434078378 ], [ 105.785791320971285, 21.096057552026103 ], [ 105.785771028832826, 21.096079165827561 ], [ 105.785760726835491, 21.096091289775625 ], [ 105.785742789867399, 21.096114666056454 ], [ 105.785733803765879, 21.096127679245203 ], [ 105.785718394711878, 21.096152592880223 ], [ 105.785710811047849, 21.096166369986129 ], [ 105.785698078306964, 21.09619258104442 ], [ 105.785691970116147, 21.09620698938695 ], [ 105.785682036313418, 21.096234245442556 ], [ 105.785677462422115, 21.09624914626189 ], [ 105.785670423227685, 21.096277184824828 ], [ 105.785667427686207, 21.096292434618238 ], [ 105.78566335089377, 21.096320985662281 ], [ 105.785661962552197, 21.096336437566144 ], [ 105.785660887426118, 21.09636522612934 ], [ 105.785661119656339, 21.096380731333447 ], [ 105.785663056553318, 21.096409480166223 ], [ 105.785664907120278, 21.096424889346888 ], [ 105.785669837389591, 21.096453321582029 ], [ 105.785673288472694, 21.096468486340253 ], [ 105.785681164635662, 21.096496328159301 ], [ 105.785686183000408, 21.096511102449849 ], [ 105.785696929207532, 21.096538085720255 ], [ 105.785703466525447, 21.096552327258159 ], [ 105.78571697928686, 21.096578192115377 ], [ 105.78572497260096, 21.096591763746382 ], [ 105.785741121782905, 21.096616261096614 ], [ 105.785750494113984, 21.096629032117981 ], [ 105.785755363839471, 21.096635016371927 ], [ 105.785773834651991, 21.096660142020681 ], [ 105.785789637946195, 21.096686821908847 ], [ 105.785802626462981, 21.096714807428889 ], [ 105.785812679171599, 21.096743837807036 ], [ 105.785819702397504, 21.096773642533243 ], [ 105.785823630695177, 21.096803943881785 ], [ 105.785824427458152, 21.096834459499142 ], [ 105.785822085260136, 21.096864905035041 ], [ 105.785816625924269, 21.096894996792074 ], [ 105.785808100319855, 21.09692445436924 ], [ 105.785796587888441, 21.096953003274788 ], [ 105.785782195903565, 21.096980377484005 ], [ 105.785776963605485, 21.096989225697708 ], [ 105.785769664309626, 21.097003137434513 ], [ 105.785757472276103, 21.097029573961336 ], [ 105.785751661154166, 21.097044090125333 ], [ 105.785742289020405, 21.097071520820911 ], [ 105.785738022037805, 21.097086501613823 ], [ 105.785731560064804, 21.097114662306268 ], [ 105.785728878316192, 21.09712996345522 ], [ 105.785725388738726, 21.097158582942072 ], [ 105.785724318052189, 21.097174057088775 ], [ 105.785723834479441, 21.097202859748901 ], [ 105.785724385167683, 21.097218357868957 ], [ 105.785726614020632, 21.097243678244343 ] ] } }
]
}
