{
"type": "FeatureCollection",
"name": "reach2_s1_shoreline_2018_dry",
"crs": { "type": "name", "properties": { "name": "urn:ogc:def:crs:OGC:1.3:CRS84" } },
"features": [
{ "type": "Feature", "properties": { "id": "shoreline_2018_dry_cleaned_0", "bank_type": "unknown", "length_m": 2068.3663696758481, "is_island": false, "year": 2018, "season": "dry", "source": "S1", "processing_version": "1.0" }, "geometry": { "type": "LineString", "coordinates": [ [ 105.787086918628205, 21.094644565812576 ], [ 105.787023963633757, 21.094687209075776 ], [ 105.786988218813249, 21.094755136763535 ], [ 105.786979505705375, 21.094814468799722 ], [ 105.786981112057504, 21.09511938962396 ], [ 105.786963507315633, 21.095204173600727 ], [ 105.786918692251589, 21.095263673126063 ], [ 105.786830216795124, 21.095316316653289 ], [ 105.786776331545667, 21.095367387987451 ], [ 105.786747966441482, 21.095408459001046 ], [ 105.786640731019418, 21.095612241879529 ], [ 105.786607830779417, 21.095649098788623 ], [ 105.786562837047526, 21.09567471813342 ], [ 105.786472671161292, 21.095692076695645 ], [ 105.786147752840535, 21.095693582956251 ], [ 105.786048516806574, 21.095702513102495 ], [ 105.785937365580267, 21.095734085683866 ], [ 105.785721287897502, 21.095836729540828 ], [ 105.785677716529889, 21.095846813309969 ], [ 105.785640073075626, 21.095839929148543 ], [ 105.785594722757523, 21.095797788044159 ], [ 105.785485347645789, 21.095595009036842 ], [ 105.785456551623597, 21.095554202933936 ], [ 105.785402131412511, 21.095503633541316 ], [ 105.78531310608021, 21.095451812646104 ], [ 105.785267666923389, 21.09539273139389 ], [ 105.785249170700808, 21.095308114701584 ], [ 105.785247567867913, 21.095003193757009 ], [ 105.785239206993296, 21.094947143655897 ], [ 105.785206653963797, 21.094892343775118 ], [ 105.785171610799736, 21.094875327362793 ], [ 105.785127698943029, 21.094872955041307 ], [ 105.785055351133309, 21.094891401483135 ], [ 105.784975227256766, 21.094936253825882 ], [ 105.784837588559952, 21.095045041393554 ], [ 105.784687618999598, 21.095190869901582 ], [ 105.784576714276, 21.095323756039569 ], [ 105.784479480876826, 21.095465871733314 ], [ 105.784396811522726, 21.095615952271885 ], [ 105.784341801617572, 21.09574071275344 ], [ 105.784287314803294, 21.095901753414715 ], [ 105.7842490701683, 21.096066703337108 ], [ 105.784227394508463, 21.096234359761734 ], [ 105.784222678142783, 21.096403244069666 ], [ 105.784231014061092, 21.096538044102346 ], [ 105.784280149383648, 21.096938155370502 ], [ 105.784286722529743, 21.097274470692991 ], [ 105.78430044032045, 21.097442969779426 ], [ 105.784337479142877, 21.097642544780342 ], [ 105.784386023618325, 21.09780522230573 ], [ 105.784465340930595, 21.097993698056602 ], [ 105.784548259532826, 21.098143454628573 ], [ 105.784645862622483, 21.09828541055975 ], [ 105.784781079836677, 21.098443412655332 ], [ 105.784934210939184, 21.098586142930728 ], [ 105.785074258801785, 21.098692207976278 ], [ 105.785255485279052, 21.098802455463556 ], [ 105.785448641901723, 21.098892986128561 ], [ 105.785506386971988, 21.098907965450991 ], [ 105.785572450846985, 21.098899375371115 ], [ 105.785602790924372, 21.098872942621874 ], [ 105.785613850209174, 21.098853514440886 ], [ 105.785631385054359, 21.098791228825238 ], [ 105.785630039120576, 21.098746370856258 ], [ 105.785608466497848, 21.098674082563505 ], [ 105.785563386829793, 21.098580610690334 ], [ 105.785496170309173, 21.098474069990623 ], [ 105.785468767281628, 21.098397894209331 ], [ 105.785457307204851, 21.098272559641412 ], [ 105.785473129322398, 21.098186118283571 ], [ 105.785513486350609, 21.098122475291895 ], [ 105.785593639595177, 21.098062097269725 ], [ 105.785628400027704, 21.098026968358102 ], [ 105.785698286791089, 21.097923336075727 ], [ 105.785761243512724, 21.097880693266156 ], [ 105.785851410807311, 21.097863335042639 ], [ 105.786533752068792, 21.09786357426426 ], [ 105.786627630173854, 21.097876747750739 ], [ 105.786710686121467, 21.09790017803963 ], [ 105.786810730083573, 21.097941556913703 ], [ 105.786901354121966, 21.097991863649423 ], [ 105.78694129252969, 21.098022109940537 ], [ 105.786992181700811, 21.0980760267521 ], [ 105.787163715001796, 21.098356094163567 ], [ 105.787189506225786, 21.098467847370461 ], [ 105.787197232043752, 21.098833203123394 ], [ 105.787217441087549, 21.098872826152412 ], [ 105.787253531662657, 21.098889939479527 ], [ 105.787277532521401, 21.098890055002013 ], [ 105.787432481854225, 21.098835238821309 ], [ 105.787618747584418, 21.098737822005468 ], [ 105.787793531998588, 21.098619052673708 ], [ 105.787953071261768, 21.098482580645513 ], [ 105.788095326336929, 21.098330102590293 ], [ 105.788218419726007, 21.098163613215903 ], [ 105.788320766525104, 21.097985310228623 ], [ 105.788389340454188, 21.097829166824944 ], [ 105.788441988961026, 21.097667613875995 ], [ 105.788483591643455, 21.097468873427029 ], [ 105.788499980422941, 21.097300680623377 ], [ 105.788499585469012, 21.097131712557172 ], [ 105.78848414673152, 21.096963431299962 ], [ 105.788423794728772, 21.096565361182847 ], [ 105.788421357059349, 21.09622922858669 ], [ 105.78840639026329, 21.096060883060616 ], [ 105.7883664113875, 21.09586187538811 ], [ 105.788290042716767, 21.09563671355264 ], [ 105.788200030143074, 21.095452533293031 ], [ 105.788067982982056, 21.095251284255031 ], [ 105.787933255872204, 21.095092945114242 ], [ 105.787780534374875, 21.094949881032587 ], [ 105.787582040224521, 21.094804508429558 ], [ 105.787460846788974, 21.094733263542214 ], [ 105.787338941127814, 21.09467349188786 ], [ 105.787248135145788, 21.094638582107422 ], [ 105.787191126503572, 21.094628682098133 ], [ 105.787137387668579, 21.09463067666535 ], [ 105.787086918628205, 21.094644565812576 ] ] } },
{ "type": "Feature", "properties": { "id": "shoreline_2018_dry_cleaned_1", "bank_type": "unknown", "length_m": 1937.5304787644495, "is_island": false, "year": 2018, "season": "dry", "source": "S1", "processing_version": "1.0" }, "geometry": { "type": "LineString", "coordinates": [ [ 105.820597804976074, 21.08838158085895 ], [ 105.820570962549752, 21.088424061605505 ], [ 105.820508020122617, 21.088466716935628 ], [ 105.820450939315648, 21.088481109949544 ], [ 105.820314098930083, 21.088488830111825 ], [ 105.820223941926159, 21.088506206364503 ], [ 105.820171396817145, 21.088524812450217 ], [ 105.819932861683526, 21.088640312895365 ], [ 105.819892411796587, 21.088670154023184 ], [ 105.819843076288123, 21.088725448635024 ], [ 105.819707536553622, 21.08897032721784 ], [ 105.819644593643758, 21.089012982240476 ], [ 105.819554436234768, 21.089030358149152 ], [ 105.819229535042396, 21.089031927305399 ], [ 105.819166406238466, 21.089040702308658 ], [ 105.819094391673445, 21.089074930746477 ], [ 105.819034658054861, 21.089154274193813 ], [ 105.818971714868127, 21.089196928974665 ], [ 105.818914633617652, 21.08921132148437 ], [ 105.818777792439391, 21.089219040431175 ], [ 105.818687634789072, 21.089236415886109 ], [ 105.818635089217693, 21.089255021509022 ], [ 105.818419044726454, 21.089357706076395 ], [ 105.818337958385811, 21.089383507775629 ], [ 105.818208676532763, 21.089398248295062 ], [ 105.817849186098329, 21.089401393338836 ], [ 105.81772595177506, 21.089421751131017 ], [ 105.817673406008566, 21.089440356461683 ], [ 105.817073278976778, 21.089725587388347 ], [ 105.81703371265553, 21.089755727545576 ], [ 105.81700540490975, 21.089795630058557 ], [ 105.816984053129971, 21.089873788256178 ], [ 105.816987144358521, 21.090031312478718 ], [ 105.817016161467947, 21.090195519404578 ], [ 105.817063872024761, 21.090358238567038 ], [ 105.81711366172155, 21.090485113906606 ], [ 105.817173361029958, 21.090607954619923 ], [ 105.817404995038885, 21.090985523130932 ], [ 105.81744171799204, 21.091078909674987 ], [ 105.817519295831474, 21.091338766435932 ], [ 105.817572438534398, 21.091464440385959 ], [ 105.817635379110996, 21.091585856398442 ], [ 105.817707941267813, 21.091702669539128 ], [ 105.81778956709239, 21.091813853280581 ], [ 105.81788000015267, 21.091919115166572 ], [ 105.818004234768907, 21.092041190304663 ], [ 105.818112105323692, 21.092130747539326 ], [ 105.818226801903762, 21.092212333995349 ], [ 105.81834779029046, 21.09228566963592 ], [ 105.818474180120489, 21.092350287743095 ], [ 105.818706519318582, 21.092441393100312 ], [ 105.81880882468748, 21.092470582405976 ], [ 105.818905235900473, 21.092486687292045 ], [ 105.818994734957627, 21.092488738728537 ], [ 105.819078016552595, 21.09247805732851 ], [ 105.819181548387945, 21.092448117379917 ], [ 105.819251077083138, 21.092412201362531 ], [ 105.81928396835437, 21.09237533838882 ], [ 105.819310626032518, 21.092298977997547 ], [ 105.819313278345177, 21.092234027121076 ], [ 105.819304941528742, 21.092139763985859 ], [ 105.819265115384525, 21.092007246633873 ], [ 105.819157220350917, 21.091808723450676 ], [ 105.819158432798659, 21.091756489881444 ], [ 105.819202127267246, 21.091715059359625 ], [ 105.819365923002863, 21.091631253398205 ], [ 105.819451753382879, 21.091576149594257 ], [ 105.819503202303949, 21.091522817184991 ], [ 105.819557794884517, 21.091438697624831 ], [ 105.819596733630661, 21.091407452167225 ], [ 105.819647767878436, 21.091387441838222 ], [ 105.819780075144706, 21.09137550895564 ], [ 105.819837157120119, 21.091361116134074 ], [ 105.819900100936735, 21.091318461021135 ], [ 105.819959834907053, 21.091239117275812 ], [ 105.820031850284934, 21.091204888451621 ], [ 105.820094979935831, 21.091196113100288 ], [ 105.820165884673685, 21.091196993450605 ], [ 105.820320456745591, 21.091220708723348 ], [ 105.82049585412868, 21.091292789699903 ], [ 105.820564643604811, 21.091329731878471 ], [ 105.820624454462575, 21.091375187642285 ], [ 105.820686050527655, 21.091453006951721 ], [ 105.820825089726625, 21.091695788302875 ], [ 105.820846004057813, 21.091778126131793 ], [ 105.820854630587277, 21.091906171665144 ], [ 105.820880326051352, 21.091983976037255 ], [ 105.820931158598285, 21.0920379453053 ], [ 105.8210007022724, 21.092064326375596 ], [ 105.821076105126934, 21.09205561308945 ], [ 105.821129628770407, 21.092030307364322 ], [ 105.821238323510627, 21.091951693535069 ], [ 105.821340995284828, 21.091860796686419 ], [ 105.821436724661922, 21.091759812584453 ], [ 105.821523979277657, 21.091652400833258 ], [ 105.821602467154477, 21.091539064739742 ], [ 105.821671701662055, 21.091420643139511 ], [ 105.821744690869323, 21.091266273275373 ], [ 105.82180184477015, 21.09110607231543 ], [ 105.821848952164558, 21.090908421524908 ], [ 105.821869980942651, 21.090740696274878 ], [ 105.82187413998291, 21.090571805707441 ], [ 105.821861446871807, 21.090403466826899 ], [ 105.821831995746422, 21.090236814993176 ], [ 105.821774914629401, 21.090041391500904 ], [ 105.821724071783009, 21.089915097930334 ], [ 105.821663199133781, 21.089792566047002 ], [ 105.821515050678229, 21.089561281433109 ], [ 105.821466960919253, 21.089472479819683 ], [ 105.821351132270024, 21.089121402744354 ], [ 105.821301991091374, 21.08899435873699 ], [ 105.821209619476704, 21.088811196564869 ], [ 105.821116373081765, 21.08866689185238 ], [ 105.821031545503118, 21.088557601635312 ], [ 105.820938321061774, 21.088454766143457 ], [ 105.820864074207321, 21.088384265345237 ], [ 105.820794294566952, 21.088336140311345 ], [ 105.820730126936724, 21.088312728558506 ], [ 105.820672787939586, 21.088315151140357 ], [ 105.820639707453552, 21.088332364213866 ], [ 105.820597804976074, 21.08838158085895 ] ] } },
{ "type": "Feature", "properties": { "id": "shoreline_2018_dry_cleaned_2", "bank_type": "unknown", "length_m": 1981.2800238908524, "is_island": false, "year": 2018, "season": "dry", "source": "S1", "processing_version": "1.0" }, "geometry": { "type": "LineString", "coordinates": [ [ 105.822148994220143, 21.098013132880176 ], [ 105.822103726513888, 21.097987941794702 ], [ 105.822058272355207, 21.097928870909627 ], [ 105.822042934513618, 21.097875300824267 ], [ 105.822036389165518, 21.097779337256743 ], [ 105.822008892976555, 21.097703238967998 ], [ 105.821975597305894, 21.097666696254986 ], [ 105.821912216495576, 21.09763029933308 ], [ 105.821900120290266, 21.097619064387732 ], [ 105.82189397897487, 21.097596507019862 ], [ 105.82191190577737, 21.097573833017158 ], [ 105.821997376533105, 21.097524009453384 ], [ 105.822051250081856, 21.097472927303446 ], [ 105.822079605634102, 21.097431850694676 ], [ 105.822186793101892, 21.097228046963767 ], [ 105.822219684643812, 21.09719118343045 ], [ 105.822264672361541, 21.097165554812296 ], [ 105.822354834276595, 21.097148177329153 ], [ 105.822968569359915, 21.097145200450612 ], [ 105.82305891785353, 21.097161702377868 ], [ 105.823122329841169, 21.097203745500693 ], [ 105.823178446210591, 21.097286763170622 ], [ 105.823232879440965, 21.097337319998751 ], [ 105.823276650651323, 21.097363929744201 ], [ 105.823493823671825, 21.09746451747769 ], [ 105.823557235907586, 21.097506560428172 ], [ 105.823620834996717, 21.097582483128686 ], [ 105.823744890244498, 21.097803709076569 ], [ 105.823781552873044, 21.097828491341204 ], [ 105.823828091786979, 21.097837054501568 ], [ 105.82391641816092, 21.097819488404436 ], [ 105.824005731758959, 21.097777846769024 ], [ 105.824085415389021, 21.097718338347558 ], [ 105.824155992927928, 21.097642575178298 ], [ 105.824261826883372, 21.097506153098553 ], [ 105.824353688190143, 21.097360886870621 ], [ 105.824430616837375, 21.097208231845524 ], [ 105.824480972192177, 21.097081718035668 ], [ 105.824529508783456, 21.09691905249586 ], [ 105.824561580546757, 21.096753007387996 ], [ 105.824578025542493, 21.096550964373687 ], [ 105.824573173249917, 21.096382095454953 ], [ 105.824551526427939, 21.09621456230564 ], [ 105.824503613848492, 21.096016968629325 ], [ 105.824445796944801, 21.095856976234113 ], [ 105.824372295251649, 21.095702951253514 ], [ 105.824264186820173, 21.095527519621029 ], [ 105.824158570738092, 21.095390703023238 ], [ 105.82403984700052, 21.095263945776562 ], [ 105.823908812453368, 21.09514809610571 ], [ 105.82376689755958, 21.095044231251787 ], [ 105.823615335434098, 21.094953340491958 ], [ 105.823422298053714, 21.094862458237738 ], [ 105.823253985611814, 21.09480268843711 ], [ 105.82311557052374, 21.094765690721413 ], [ 105.822974490006189, 21.094738523713403 ], [ 105.822831742084261, 21.094721351920434 ], [ 105.8226879255607, 21.094714274047622 ], [ 105.822544041034234, 21.094717267254513 ], [ 105.822400688852639, 21.094730317839147 ], [ 105.822314639540025, 21.09476090626416 ], [ 105.822275035912185, 21.094796275105701 ], [ 105.822249642349277, 21.09484362520579 ], [ 105.822237179784338, 21.094899414932332 ], [ 105.822233811003599, 21.094953019373619 ], [ 105.822245808699293, 21.09502932862587 ], [ 105.822299641090282, 21.095146958316747 ], [ 105.822402261110156, 21.095322106782525 ], [ 105.822494172632275, 21.095507409245947 ], [ 105.822558310420305, 21.095616876957767 ], [ 105.822570674161284, 21.095673266990243 ], [ 105.822555477599622, 21.095704704765993 ], [ 105.822521529780474, 21.095731218073855 ], [ 105.82235704057976, 21.095814385383999 ], [ 105.822270287697819, 21.095868635011289 ], [ 105.822218443534794, 21.095921601536197 ], [ 105.822163752234218, 21.096005630234991 ], [ 105.822100807169875, 21.096048286208159 ], [ 105.822010645879445, 21.096065663537701 ], [ 105.821685729588964, 21.096067237897117 ], [ 105.821594377932172, 21.096051687148606 ], [ 105.821528456968537, 21.096012023265434 ], [ 105.821467656881183, 21.095933447370399 ], [ 105.821411216847849, 21.095884793807098 ], [ 105.8211356658433, 21.095737390732843 ], [ 105.821103374791278, 21.095699895882468 ], [ 105.821074875539338, 21.095624749331972 ], [ 105.821059150914095, 21.095267450202794 ], [ 105.821040500547809, 21.095229077076432 ], [ 105.821007227837072, 21.095214213133644 ], [ 105.820959332769959, 21.095222858366316 ], [ 105.820929901845332, 21.095235996919957 ], [ 105.820817447083229, 21.095302382120821 ], [ 105.820713422592689, 21.095390896912733 ], [ 105.820595044191819, 21.095517995406297 ], [ 105.820489698146417, 21.095655013672474 ], [ 105.820415692233425, 21.095770800609884 ], [ 105.820336480511315, 21.095922511078307 ], [ 105.820272789615146, 21.096080465197264 ], [ 105.820210670350463, 21.096309426293594 ], [ 105.820181000599149, 21.09654408130184 ], [ 105.820184307761934, 21.096780385383113 ], [ 105.820220544808478, 21.097014266112886 ], [ 105.8202890911098, 21.097241684860045 ], [ 105.820388764842548, 21.097458722171606 ], [ 105.820517839618077, 21.097661633123497 ], [ 105.820674081693397, 21.097846926099503 ], [ 105.8208008025655, 21.097966693816733 ], [ 105.820939049751161, 21.098074902868277 ], [ 105.821056903528913, 21.098152331141062 ], [ 105.821212538232032, 21.098237214391759 ], [ 105.821375913064713, 21.098308017800122 ], [ 105.821545542396876, 21.098364143711223 ], [ 105.821720198843522, 21.098405150634278 ], [ 105.821862223259131, 21.09842673025009 ], [ 105.821968082951415, 21.098434837672762 ], [ 105.822060075867839, 21.098425354644181 ], [ 105.82213633966731, 21.09839678779991 ], [ 105.822193825217028, 21.0983479546707 ], [ 105.822218328650138, 21.098302826335303 ], [ 105.82223177587575, 21.098247639672703 ], [ 105.822233478312342, 21.098057310398357 ], [ 105.822148994220143, 21.098013132880176 ] ] } },
{ "type": "Feature", "properties": { "id": "shoreline_2018_dry_cleaned_3", "bank_type": "unknown", "length_m": 2612.989031164871, "is_island": false, "year": 2018, "season": "dry", "source": "S1", "processing_version": "1.0" }, "geometry": { "type": "LineString", "coordinates": [ [ 105.858970952875623, 21.042978013342694 ], [ 105.859210696102707, 21.043091148755789 ], [ 105.859269607442997, 21.043137436836325 ], [ 105.859315058442661, 21.043196498200508 ], [ 105.85942449089228, 21.043399228839817 ], [ 105.859451994850289, 21.043475321244809 ], [ 105.859462852842242, 21.043533145798737 ], [ 105.859467922846591, 21.043630527058603 ], [ 105.859459240846377, 21.043689862119056 ], [ 105.859438464428806, 21.0437379647861 ], [ 105.859405593586317, 21.043774835055721 ], [ 105.85931717483264, 21.043827514825288 ], [ 105.859263333084783, 21.043878608042235 ], [ 105.859112973212191, 21.044143354996478 ], [ 105.859074054991453, 21.044174608998155 ], [ 105.858993000594666, 21.044200429191005 ], [ 105.858890748568442, 21.044200945978631 ], [ 105.858809402733158, 21.044175946564341 ], [ 105.858770128312287, 21.044145087749886 ], [ 105.858697367734536, 21.044043813405317 ], [ 105.858638456195948, 21.043997525137456 ], [ 105.858398711892107, 21.043884388963932 ], [ 105.858355047867789, 21.043874727635426 ], [ 105.858317495733758, 21.04388197576214 ], [ 105.85827262730291, 21.043924553190145 ], [ 105.858165525302653, 21.044128378032806 ], [ 105.858130587485391, 21.04422858790204 ], [ 105.858117680421046, 21.04431384742405 ], [ 105.858119842744401, 21.044436741208017 ], [ 105.858146648346505, 21.044563681830947 ], [ 105.858219471106551, 21.044754396659261 ], [ 105.85831480203106, 21.044936246273338 ], [ 105.858410353273683, 21.045079351010276 ], [ 105.858519691997415, 21.045213350365511 ], [ 105.85866801180714, 21.045360626786579 ], [ 105.858804411597632, 21.045470743783827 ], [ 105.859012438978183, 21.045603721523868 ], [ 105.859237247451262, 21.04571001721833 ], [ 105.859474963454176, 21.045787788442457 ], [ 105.859922143942697, 21.045888416731298 ], [ 105.860015948643195, 21.045929927591288 ], [ 105.860158639105492, 21.046018058798534 ], [ 105.860211326622888, 21.046035224984468 ], [ 105.860261562477433, 21.046038487898816 ], [ 105.860331471583393, 21.046018840798837 ], [ 105.860389082163536, 21.045980128610456 ], [ 105.860420185709785, 21.045944577196263 ], [ 105.860501223380211, 21.045818235625266 ], [ 105.860602060125487, 21.045709689424058 ], [ 105.860637760047368, 21.045641747342373 ], [ 105.860684629154861, 21.045483081564676 ], [ 105.860742041178611, 21.045401604734906 ], [ 105.860841189740057, 21.0453251898156 ], [ 105.861000080571984, 21.045236859890768 ], [ 105.861112313864197, 21.045144514506539 ], [ 105.861143911478408, 21.045134543899728 ], [ 105.861158717769243, 21.045137061535709 ], [ 105.861186345325677, 21.045157102686993 ], [ 105.861252658452898, 21.045260122335687 ], [ 105.861301270927754, 21.045316184335615 ], [ 105.861397736658759, 21.045394964300964 ], [ 105.861532625204845, 21.045471346854676 ], [ 105.861565918138055, 21.045507882096889 ], [ 105.86158724630512, 21.045555771538648 ], [ 105.86159660970003, 21.045615015184492 ], [ 105.861598363854569, 21.045919932031612 ], [ 105.861592135690898, 21.04598154530623 ], [ 105.861566248480244, 21.046058600157473 ], [ 105.861489766055115, 21.046156065297975 ], [ 105.861464577998291, 21.046200070836864 ], [ 105.861437208132358, 21.046275748842437 ], [ 105.861426271690817, 21.046358376816439 ], [ 105.861439646200751, 21.046438647414902 ], [ 105.861477331700257, 21.046516560630828 ], [ 105.861536395406901, 21.046584693221483 ], [ 105.861615370925449, 21.046639333552317 ], [ 105.861712272738245, 21.046681383560603 ], [ 105.861847299191794, 21.046727887089155 ], [ 105.861985858627278, 21.046764806821812 ], [ 105.862126781146571, 21.046791795996416 ], [ 105.862269672978755, 21.046808764838442 ], [ 105.862413318792434, 21.046815676369516 ], [ 105.862664765596762, 21.046803486660281 ], [ 105.862912327185086, 21.046760339793614 ], [ 105.863050354090348, 21.046722194946899 ], [ 105.863185049040155, 21.04667444872474 ], [ 105.863315431839695, 21.046617340319639 ], [ 105.863440970380154, 21.046551155457642 ], [ 105.863589834208284, 21.046456330276563 ], [ 105.863636227145022, 21.046413499639687 ], [ 105.863666993664509, 21.046367001674462 ], [ 105.863683843939953, 21.046290378502299 ], [ 105.863671042357552, 21.046212422519393 ], [ 105.863639603954624, 21.046146971025149 ], [ 105.863608291238222, 21.046110283628792 ], [ 105.863549992948734, 21.046063413015656 ], [ 105.863347876898843, 21.045948633818941 ], [ 105.863252012926282, 21.045869282670868 ], [ 105.863188627050306, 21.045793175229637 ], [ 105.863094534044606, 21.045644013695259 ], [ 105.862980445944274, 21.04551764405895 ], [ 105.862963910456784, 21.045474111882516 ], [ 105.86295936880785, 21.045424286684735 ], [ 105.862982277318636, 21.045315125660963 ], [ 105.863004407911291, 21.045268281076464 ], [ 105.863050118030486, 21.045209635859379 ], [ 105.863128478733245, 21.045147614078527 ], [ 105.863287160537041, 21.0450590894492 ], [ 105.863368120659018, 21.044999481737218 ], [ 105.863451489637271, 21.044908412832857 ], [ 105.863532685816367, 21.044781627932974 ], [ 105.863571603219498, 21.044750372938974 ], [ 105.863652657035487, 21.044724550580757 ], [ 105.863784918352778, 21.044712584850302 ], [ 105.863856901001071, 21.044678338344813 ], [ 105.86388977090364, 21.044641467248933 ], [ 105.863957610675484, 21.04453597710938 ], [ 105.864026899541869, 21.044465530891706 ], [ 105.864048035022634, 21.044434611533209 ], [ 105.864050596870044, 21.044420141574118 ], [ 105.864039708786819, 21.044393181097146 ], [ 105.863962213926243, 21.044343679479802 ], [ 105.863928920696722, 21.044307144713382 ], [ 105.863901414323124, 21.04423105312399 ], [ 105.863893031384862, 21.043760525386823 ], [ 105.863885343918724, 21.043627473141271 ], [ 105.863871880590182, 21.043564804293439 ], [ 105.863846653579131, 21.043506899045315 ], [ 105.863809662896401, 21.043453757391358 ], [ 105.863734627770768, 21.043382272090501 ], [ 105.863625173157345, 21.043294706683572 ], [ 105.863417772612848, 21.043160744083398 ], [ 105.863226370403439, 21.043067028336988 ], [ 105.862990666040929, 21.042984029008867 ], [ 105.862710635739958, 21.042923384620892 ], [ 105.862610545005552, 21.042892144818662 ], [ 105.862547423429405, 21.042863585150354 ], [ 105.862240564463136, 21.042692468406969 ], [ 105.862011171679796, 21.042595314517754 ], [ 105.861839941839932, 21.042543580476451 ], [ 105.861562133481215, 21.042481069273833 ], [ 105.861398765224266, 21.042428334925173 ], [ 105.861274365900783, 21.04236976567811 ], [ 105.861031567298113, 21.042226307304315 ], [ 105.86083712238441, 21.042138310333577 ], [ 105.860667906300705, 21.042081040208622 ], [ 105.860528947886365, 21.04204609421998 ], [ 105.8603874885209, 21.042021016032205 ], [ 105.860244525739247, 21.04200595567259 ], [ 105.860064651023748, 21.04200134523505 ], [ 105.8599210702356, 21.042009039490406 ], [ 105.859742900776766, 21.0420328507265 ], [ 105.859602730820683, 21.042063078582075 ], [ 105.859431366909149, 21.042114648879213 ], [ 105.859298576941725, 21.04216662734208 ], [ 105.859138947591461, 21.042244515018062 ], [ 105.859017213691374, 21.042316693341384 ], [ 105.85894726760182, 21.042383344814326 ], [ 105.858917188502915, 21.042436154711204 ], [ 105.858900350717732, 21.042495665081482 ], [ 105.858891358399561, 21.042593073106168 ], [ 105.858886451625793, 21.042927098069203 ], [ 105.858970952875623, 21.042978013342694 ] ] } },
{ "type": "Feature", "properties": { "id": "shoreline_2018_dry_cleaned_4", "bank_type": "unknown", "length_m": 1826.3879774911354, "is_island": false, "year": 2018, "season": "dry", "source": "S1", "processing_version": "1.0" }, "geometry": { "type": "LineString", "coordinates": [ [ 105.861484841307572, 21.037685553433516 ], [ 105.861842723817531, 21.037686562787105 ], [ 105.861899943332318, 21.037700389627556 ], [ 105.861945198704888, 21.037725570668186 ], [ 105.861978489940043, 21.037762105918318 ], [ 105.862087921670096, 21.037964834983281 ], [ 105.862116726434166, 21.038005628038256 ], [ 105.862171150011548, 21.038056173015022 ], [ 105.862260165557032, 21.038107954206755 ], [ 105.862293456955229, 21.038144489387992 ], [ 105.862314784210781, 21.038192378807537 ], [ 105.862324147317693, 21.038251622469947 ], [ 105.862315661676121, 21.038344837336609 ], [ 105.862294886863836, 21.038392940325625 ], [ 105.862262017867607, 21.038429811106042 ], [ 105.861981656145957, 21.03857381412633 ], [ 105.861927817158445, 21.038624908122337 ], [ 105.861887584068498, 21.038688638365283 ], [ 105.861854714906912, 21.038725509071359 ], [ 105.861782734575158, 21.038759754669613 ], [ 105.861719629967908, 21.038768544746137 ], [ 105.861615853716913, 21.038764835708644 ], [ 105.861554147215728, 21.038755266610337 ], [ 105.8614728039786, 21.038730268368635 ], [ 105.861255694049078, 21.038629726514422 ], [ 105.861211934040938, 21.038603126026896 ], [ 105.861157510569257, 21.0385525807419 ], [ 105.861104471361571, 21.038472812159156 ], [ 105.861080570435504, 21.038458139492054 ], [ 105.861068745091714, 21.038459916669449 ], [ 105.8610453446355, 21.038481698046475 ], [ 105.861022277812182, 21.038527782120063 ], [ 105.861003781240044, 21.038582854015011 ], [ 105.860987253503083, 21.038672742228297 ], [ 105.860989656594739, 21.038872566570884 ], [ 105.861025983653306, 21.039106454602372 ], [ 105.861094518394282, 21.039333882421271 ], [ 105.86117813287342, 21.039520576021484 ], [ 105.861303196436523, 21.039725677900567 ], [ 105.861432330097642, 21.039888063831615 ], [ 105.86158021188416, 21.040035721544943 ], [ 105.861716198876522, 21.040146151543166 ], [ 105.861862652929133, 21.040244217274466 ], [ 105.862018312694914, 21.04032897335901 ], [ 105.862148353495968, 21.040386629767795 ], [ 105.862316975555586, 21.040445643523757 ], [ 105.862490575852576, 21.040489531946545 ], [ 105.86266787890851, 21.040518000727385 ], [ 105.862847296718712, 21.040530751980718 ], [ 105.863027013685809, 21.040527689036317 ], [ 105.863205819479276, 21.040508832801326 ], [ 105.863381898763976, 21.040474342664375 ], [ 105.863553679852458, 21.040424569996485 ], [ 105.863719901477239, 21.040359852408102 ], [ 105.863878785852236, 21.040280881883202 ], [ 105.864029187279144, 21.040188257715368 ], [ 105.864165791900732, 21.040082982823762 ], [ 105.86419921988491, 21.040038487891621 ], [ 105.864216304924824, 21.039969879007646 ], [ 105.864188048101397, 21.039876846975883 ], [ 105.864142616580409, 21.039789485992337 ], [ 105.864099233760697, 21.039728875528567 ], [ 105.864045213011721, 21.039677947732734 ], [ 105.863772867227595, 21.039527631861787 ], [ 105.863732644670804, 21.039497674245229 ], [ 105.863681486020127, 21.03944403030242 ], [ 105.863510893764627, 21.039163082542998 ], [ 105.863489095776799, 21.03908157456317 ], [ 105.863483206939563, 21.038984968333278 ], [ 105.863499111844206, 21.038898644451692 ], [ 105.863523457347739, 21.03885385777647 ], [ 105.86365539151744, 21.03874049843186 ], [ 105.863815503693758, 21.0384848171168 ], [ 105.863872643467346, 21.038436788684496 ], [ 105.86392310323761, 21.038416254710768 ], [ 105.863983456283137, 21.038404908711811 ], [ 105.86419090216873, 21.038395376202757 ], [ 105.864587039288836, 21.038392591126655 ], [ 105.86465096890764, 21.038384566527146 ], [ 105.864703904682273, 21.038366331917924 ], [ 105.864745846606496, 21.038337887309421 ], [ 105.864776794678534, 21.03829923270975 ], [ 105.864799774666295, 21.038255462386552 ], [ 105.864824856174252, 21.038157668841819 ], [ 105.864822591787487, 21.03804714310963 ], [ 105.864794949643709, 21.037927638533272 ], [ 105.86473070664799, 21.037770894811199 ], [ 105.864650133039802, 21.03761990501134 ], [ 105.864554911184868, 21.03747673142524 ], [ 105.864422321838489, 21.037316792089047 ], [ 105.864297820874611, 21.03719488086945 ], [ 105.86413323802509, 21.037063952530627 ], [ 105.863922757728389, 21.036934269614807 ], [ 105.863729271379128, 21.036844379263414 ], [ 105.863526230678531, 21.03677560422301 ], [ 105.863316374347136, 21.036728650972833 ], [ 105.863102172486705, 21.036704062868633 ], [ 105.862886304563858, 21.036702287081408 ], [ 105.86263616117941, 21.036728980634905 ], [ 105.862495703417366, 21.036757955457301 ], [ 105.862357758252813, 21.036796777975116 ], [ 105.862125364690002, 21.036887591468357 ], [ 105.861907657892829, 21.037006158459754 ], [ 105.861708382890825, 21.037150419444213 ], [ 105.861579167665639, 21.037267888097805 ], [ 105.861484571700558, 21.037369757484374 ], [ 105.861445182509257, 21.037422757729757 ], [ 105.861402213959479, 21.037504132624118 ], [ 105.861378583721361, 21.037587756961603 ], [ 105.861382808402126, 21.037633391055863 ], [ 105.86140794078463, 21.037664871359134 ], [ 105.861428347366171, 21.037675303836526 ], [ 105.861484841307572, 21.037685553433516 ] ] } },
{ "type": "Feature", "properties": { "id": "shoreline_2018_dry_cleaned_5", "bank_type": "unknown", "length_m": 1425.3682024101818, "is_island": false, "year": 2018, "season": "dry", "source": "S1", "processing_version": "1.0" }, "geometry": { "type": "LineString", "coordinates": [ [ 105.876476403707002, 21.004219553355206 ], [ 105.876260522118031, 21.004322306957935 ], [ 105.87621708301279, 21.004349352800311 ], [ 105.876163260881171, 21.004400450908687 ], [ 105.876111115056517, 21.004481185986091 ], [ 105.876087161117113, 21.004498249630636 ], [ 105.876075134706483, 21.004498311530849 ], [ 105.876050983010146, 21.004481495486878 ], [ 105.876026699489827, 21.004442092983226 ], [ 105.875995697788966, 21.004410381562003 ], [ 105.875955782447818, 21.004396453733484 ], [ 105.875906953454191, 21.004400309491903 ], [ 105.875849210789823, 21.004421948830185 ], [ 105.875740478007955, 21.004492191039038 ], [ 105.875649680223518, 21.004591348064075 ], [ 105.875518612440231, 21.004793045755289 ], [ 105.875429407105315, 21.004977514362615 ], [ 105.87536287762893, 21.005170316735583 ], [ 105.875314993553104, 21.005402354834871 ], [ 105.875300007448701, 21.005604454294005 ], [ 105.875309258823833, 21.005806780660123 ], [ 105.875350535790474, 21.00603990135258 ], [ 105.875411553691947, 21.006234282982884 ], [ 105.875511542625233, 21.006451165475013 ], [ 105.875640891346862, 21.006653878872221 ], [ 105.87577339579002, 21.006813649038701 ], [ 105.875924207226532, 21.006958502200554 ], [ 105.876091448550028, 21.007086585552024 ], [ 105.876272931105234, 21.007196208244086 ], [ 105.876433276231282, 21.007272416090164 ], [ 105.876634822465391, 21.007344836402705 ], [ 105.876843784018945, 21.007395549501812 ], [ 105.877057420813813, 21.007423900051162 ], [ 105.877237054546157, 21.007430154113795 ], [ 105.877416693827684, 21.007420514543323 ], [ 105.877629715860081, 21.007388288154264 ], [ 105.877803293472851, 21.007344416203146 ], [ 105.877971874745654, 21.007285340064154 ], [ 105.878133792702471, 21.007211967076405 ], [ 105.878351224146343, 21.007091837213036 ], [ 105.878651576511032, 21.00690429096429 ], [ 105.878822304414342, 21.006780228617245 ], [ 105.878978576022817, 21.006640470761639 ], [ 105.879095424610469, 21.006512026676102 ], [ 105.879198856923878, 21.006374018217819 ], [ 105.87928817589686, 21.006227374446954 ], [ 105.879362448745425, 21.006073560871478 ], [ 105.879420997218347, 21.00591397072948 ], [ 105.879463354027322, 21.005749759806868 ], [ 105.879492387903213, 21.005548992159408 ], [ 105.879498096478528, 21.005380283740337 ], [ 105.87948684082005, 21.005211653506709 ], [ 105.879451362107446, 21.005011799861986 ], [ 105.87940371976697, 21.004849041494886 ], [ 105.879325283930584, 21.004660221731022 ], [ 105.879243011561414, 21.004510043230891 ], [ 105.879146197339836, 21.004367826572775 ], [ 105.879035520586626, 21.00423462452693 ], [ 105.878912168145661, 21.004111859984167 ], [ 105.878748761028078, 21.003979594517663 ], [ 105.878570510323769, 21.003865355493648 ], [ 105.878379750794906, 21.00377065140583 ], [ 105.878213086640145, 21.003707550196847 ], [ 105.878005722911453, 21.003651519257623 ], [ 105.877792946439513, 21.00361770863362 ], [ 105.877577546490798, 21.00360655087006 ], [ 105.877362247853213, 21.003618152511596 ], [ 105.87714956925619, 21.003652391855866 ], [ 105.876911121741131, 21.003719010089732 ], [ 105.876731869627733, 21.003793160302724 ], [ 105.876684245492214, 21.00382758739898 ], [ 105.876628667209445, 21.003892870021975 ], [ 105.876574851397976, 21.004019742932055 ], [ 105.876551172474521, 21.004151333097376 ], [ 105.876530298039924, 21.004180848168474 ], [ 105.876476403707002, 21.004219553355206 ] ] } },
{ "type": "Feature", "properties": { "id": "shoreline_2018_dry_cleaned_6", "bank_type": "unknown", "length_m": 1461.5365272139136, "is_island": false, "year": 2018, "season": "dry", "source": "S1", "processing_version": "1.0" }, "geometry": { "type": "LineString", "coordinates": [ [ 105.903886193140195, 20.99436974872798 ], [ 105.903960117720175, 20.994231693128043 ], [ 105.904006239115375, 20.994071980034047 ], [ 105.904038879268143, 20.993837672272456 ], [ 105.904040661503515, 20.993635152936879 ], [ 105.904018182435166, 20.993433608328843 ], [ 105.9039716403299, 20.993235704920512 ], [ 105.903901849113851, 20.993043989145402 ], [ 105.903809586808734, 20.992860935121016 ], [ 105.903695878034426, 20.992688695062501 ], [ 105.903562384595233, 20.992529441796957 ], [ 105.903437206243879, 20.992408312577471 ], [ 105.903271781322374, 20.992278259185071 ], [ 105.903091799577979, 20.992166432607554 ], [ 105.902899608289403, 20.992074311608285 ], [ 105.902697746398431, 20.992003073939024 ], [ 105.902488579301604, 20.991953538391858 ], [ 105.902310544435281, 20.991929317797723 ], [ 105.902131050964883, 20.991920867692997 ], [ 105.901951409369843, 20.991928222959821 ], [ 105.901737943506518, 20.991957856237356 ], [ 105.901529446220238, 20.992009792742287 ], [ 105.901361396759867, 20.992069613940988 ], [ 105.901199844745705, 20.992143960455618 ], [ 105.901016449523283, 20.992250763566986 ], [ 105.900782915924935, 20.992409739003424 ], [ 105.900529099494165, 20.992599578799055 ], [ 105.900373364404714, 20.992739825113542 ], [ 105.900256545341051, 20.992868233717328 ], [ 105.900133979413624, 20.993035046219706 ], [ 105.900032182060173, 20.993213665430023 ], [ 105.899952404639507, 20.99340181531478 ], [ 105.899888416638206, 20.993630372848305 ], [ 105.899862500063904, 20.993797551966178 ], [ 105.899853375850668, 20.993966111804895 ], [ 105.899861082089032, 20.994134821639708 ], [ 105.899892487628321, 20.994335311744958 ], [ 105.89993681039229, 20.994498873214102 ], [ 105.899997259633068, 20.994657908921038 ], [ 105.900090350945007, 20.994840730544734 ], [ 105.900184163455421, 20.99498468942534 ], [ 105.900291959423143, 20.995119850566276 ], [ 105.900438426932055, 20.995268678751394 ], [ 105.900573355540473, 20.995380179551745 ], [ 105.900718876567851, 20.995479395413604 ], [ 105.900873710973514, 20.995565399150298 ], [ 105.901036281585803, 20.99563732047433 ], [ 105.901239928385564, 20.995704349121208 ], [ 105.901414918953748, 20.995743555180095 ], [ 105.90166471475878, 20.995772093489162 ], [ 105.901808527208402, 20.995774517186536 ], [ 105.901952232479957, 20.995766877845515 ], [ 105.902094813766851, 20.995749155218704 ], [ 105.902235660974469, 20.995721337161186 ], [ 105.902330908373514, 20.995690196190516 ], [ 105.90238615639214, 20.995663237145536 ], [ 105.902456653045121, 20.995613500997379 ], [ 105.902614498983667, 20.99547509073658 ], [ 105.902655033738782, 20.995411658184111 ], [ 105.902670627527769, 20.995358757071585 ], [ 105.902677077820158, 20.995297365766369 ], [ 105.90267806458148, 20.994961378365531 ], [ 105.902704663845768, 20.994885006101477 ], [ 105.902737513473795, 20.994848128011146 ], [ 105.90284976100628, 20.994783904043871 ], [ 105.902946451353486, 20.994705234447263 ], [ 105.903010235124611, 20.994629699744987 ], [ 105.903062218913419, 20.994543208189597 ], [ 105.903088396642872, 20.994512666628637 ], [ 105.903102684674963, 20.994504775160511 ], [ 105.903133659079984, 20.994503750847812 ], [ 105.903249722961547, 20.994580918649486 ], [ 105.903354949447234, 20.994617269940246 ], [ 105.903512367755766, 20.994638124015641 ], [ 105.90368440106667, 20.994638725567391 ], [ 105.90373777061177, 20.994624325420812 ], [ 105.903789649453927, 20.994581699379136 ], [ 105.903831787581879, 20.994469011440856 ], [ 105.903886193140195, 20.99436974872798 ] ] } }
]
}
