{
"type": "FeatureCollection",
"name": "reach3_s1_shoreline_2018_dry",
"crs": { "type": "name", "properties": { "name": "urn:ogc:def:crs:OGC:1.3:CRS84" } },
"features": [
{ "type": "Feature", "properties": { "id": "shoreline_2018_dry_cleaned_0", "bank_type": "unknown", "length_m": 28407.780613578805, "is_island": false, "year": 2018, "season": "dry", "source": "S1", "processing_version": "1.0" }, "geometry": { "type": "LineString", "coordinates": [ [ 105.918689580179958, 20.798826093302967 ], [ 105.918734463397215, 20.798800442078466 ], [ 105.918779141425659, 20.798740910741987 ], [ 105.918793828918126, 20.798687186859961 ], [ 105.918799252524266, 20.798591161084488 ], [ 105.918825813077305, 20.798514786153444 ], [ 105.918858617920563, 20.798477905845704 ], [ 105.918924432761628, 20.798438025313395 ], [ 105.918969110612707, 20.798378493931718 ], [ 105.918983798007517, 20.798324770035013 ], [ 105.91898922148988, 20.798228744254505 ], [ 105.91901578189028, 20.798152369296812 ], [ 105.919048586611169, 20.798115488955851 ], [ 105.919114401246006, 20.798075608356736 ], [ 105.919159078919705, 20.798016076929883 ], [ 105.919173766216915, 20.797962353018498 ], [ 105.919179189575502, 20.797866327232967 ], [ 105.919205749823277, 20.79778995224861 ], [ 105.919238554421796, 20.797753071874446 ], [ 105.919304368850405, 20.79771319120853 ], [ 105.919349046346738, 20.797653659736497 ], [ 105.919363733546305, 20.797599935810428 ], [ 105.91936915678113, 20.797503910019863 ], [ 105.919395716876281, 20.797427535008865 ], [ 105.919428521352415, 20.79739065460149 ], [ 105.919494335574811, 20.797350773868768 ], [ 105.919539012893807, 20.797291242351562 ], [ 105.919553699995745, 20.797237518410817 ], [ 105.919559123106794, 20.797141492615228 ], [ 105.91958568304932, 20.797065117577581 ], [ 105.919639418896324, 20.797014007789798 ], [ 105.919854978101341, 20.796911208774798 ], [ 105.919908713801746, 20.796860098907192 ], [ 105.919929439834362, 20.796811989428814 ], [ 105.919940696387656, 20.796687698018342 ], [ 105.919955383296497, 20.796633974046987 ], [ 105.919982148377201, 20.7965914790522 ], [ 105.920065873948147, 20.796534561482606 ], [ 105.920098678072065, 20.796497680956609 ], [ 105.920119403998825, 20.796449571457384 ], [ 105.920130660381616, 20.79632528003609 ], [ 105.920157219907168, 20.796248904918897 ], [ 105.920190023949303, 20.796212024377361 ], [ 105.920297700087843, 20.796143684531884 ], [ 105.920346906059677, 20.796088363679633 ], [ 105.920847065024759, 20.795138418605656 ], [ 105.920909652758809, 20.795061850045105 ], [ 105.921017327759756, 20.79499350978163 ], [ 105.92105013132732, 20.794956629088308 ], [ 105.921070856757694, 20.794908519484789 ], [ 105.921082112297469, 20.794784228012499 ], [ 105.921108671100868, 20.7947078527625 ], [ 105.921162405613359, 20.794656742534297 ], [ 105.921377960423953, 20.794553941741921 ], [ 105.921431694789845, 20.794502831433917 ], [ 105.921452420041376, 20.794454721788647 ], [ 105.921463675249612, 20.794330430297801 ], [ 105.921478361420782, 20.794276706210244 ], [ 105.921505125676973, 20.794234210997882 ], [ 105.921588849381749, 20.794177292739747 ], [ 105.921621652637725, 20.794140411945509 ], [ 105.9216423777834, 20.794092302279406 ], [ 105.921653632821204, 20.793968010777757 ], [ 105.921680191207713, 20.793891635448261 ], [ 105.92171299438192, 20.793854754638495 ], [ 105.921820668166092, 20.793786413907032 ], [ 105.921869872836055, 20.793731092652443 ], [ 105.922180060471604, 20.793143563772524 ], [ 105.92220833409668, 20.793102472063701 ], [ 105.922282998377341, 20.793037131870484 ], [ 105.922520990531893, 20.792921503692806 ], [ 105.922574723942802, 20.792870393053356 ], [ 105.922595448625017, 20.792822283282938 ], [ 105.92260670282937, 20.79269799173343 ], [ 105.922633260534724, 20.792621616271578 ], [ 105.922666063208098, 20.792584735293204 ], [ 105.92273338425116, 20.792546257005682 ], [ 105.922791646726338, 20.792499357101203 ], [ 105.922836321367299, 20.792439824794155 ], [ 105.922943169505544, 20.792235963057649 ], [ 105.922971442759959, 20.792194871232901 ], [ 105.923025175766227, 20.792143760463468 ], [ 105.923113427011273, 20.792091052302453 ], [ 105.923146229454829, 20.792054171238721 ], [ 105.923172786786154, 20.791977795702135 ], [ 105.923184040482738, 20.791853504122773 ], [ 105.923219656274483, 20.791785550151594 ], [ 105.9232584976357, 20.791754283448942 ], [ 105.923496487019065, 20.79163865400464 ], [ 105.923554748910831, 20.791591753858107 ], [ 105.923599422991913, 20.791532221367429 ], [ 105.923706269497529, 20.791328359196974 ], [ 105.923768854254604, 20.791251789673019 ], [ 105.923831645168633, 20.791209100210224 ], [ 105.924047193230351, 20.79110629627553 ], [ 105.924127894748409, 20.791046569682742 ], [ 105.924172568446892, 20.790987037053608 ], [ 105.924279413814673, 20.790783174556854 ], [ 105.924341998060541, 20.790706604838377 ], [ 105.924404788585377, 20.790663915177728 ], [ 105.924620335469598, 20.790561110560375 ], [ 105.924701036469841, 20.790501383713682 ], [ 105.924745709785768, 20.790441850946092 ], [ 105.924852554015757, 20.790237988123081 ], [ 105.924915137750432, 20.790161418210111 ], [ 105.924977927886076, 20.790118728351619 ], [ 105.925193473592827, 20.790015923051655 ], [ 105.92527417407527, 20.789956195951088 ], [ 105.925318847008626, 20.789896663045056 ], [ 105.925425690100894, 20.789692799895835 ], [ 105.925488273324405, 20.789616229788393 ], [ 105.92555106307087, 20.789573539732075 ], [ 105.925766607600181, 20.789470733749546 ], [ 105.925847307564837, 20.789411006395127 ], [ 105.925891980115651, 20.789351473350671 ], [ 105.925998822070227, 20.789147609875279 ], [ 105.926061404782558, 20.789071039573368 ], [ 105.926124194139888, 20.789028349319249 ], [ 105.926339737491787, 20.788925542654216 ], [ 105.926420436938656, 20.788865815045956 ], [ 105.926465109106942, 20.788806281863092 ], [ 105.926571949923897, 20.788602418061568 ], [ 105.926634532125092, 20.788525847565236 ], [ 105.926697321093272, 20.788483157113308 ], [ 105.926912863267759, 20.788380349765831 ], [ 105.926993562196884, 20.788320621903747 ], [ 105.927038233982657, 20.788261088582491 ], [ 105.927145073662018, 20.788057224454878 ], [ 105.927207655352106, 20.787980653764127 ], [ 105.92727044393115, 20.787937963114423 ], [ 105.927869168181033, 20.787652384609459 ], [ 105.927912536769327, 20.787625327578876 ], [ 105.927981156892656, 20.787554370841271 ], [ 105.928114756046085, 20.78730801001517 ], [ 105.928146046500416, 20.7872697245074 ], [ 105.928204305268522, 20.787222822876092 ], [ 105.929208643102868, 20.786741641072791 ], [ 105.929289340238796, 20.786681912186978 ], [ 105.929360771389497, 20.786579881967867 ], [ 105.929399610139853, 20.786548613954494 ], [ 105.929480514526617, 20.786522765030757 ], [ 105.929837761412784, 20.786518006877905 ], [ 105.929927724239789, 20.78650057897087 ], [ 105.929972601875406, 20.786474924979053 ], [ 105.930032161963666, 20.7863955462505 ], [ 105.930071000523668, 20.786364278091551 ], [ 105.930121917121227, 20.786344238204073 ], [ 105.930253945426017, 20.786332229062324 ], [ 105.930310901019169, 20.786317803254736 ], [ 105.930355778533041, 20.786292149166677 ], [ 105.930415338347601, 20.786212770313782 ], [ 105.930454176779818, 20.786181502072228 ], [ 105.930505093261644, 20.786161462074883 ], [ 105.930637121365152, 20.786149452645304 ], [ 105.93069407684861, 20.786135026714227 ], [ 105.930738954240724, 20.786109372529943 ], [ 105.930798513781582, 20.78602999355271 ], [ 105.930861300511111, 20.785987301648444 ], [ 105.930951262885728, 20.785969873220218 ], [ 105.93127550132958, 20.785968114550837 ], [ 105.931365463636055, 20.785950685907711 ], [ 105.931410340854015, 20.785925031553688 ], [ 105.93146989996562, 20.785845652357835 ], [ 105.931508738079714, 20.785814383888109 ], [ 105.931559654287852, 20.785794343587032 ], [ 105.931691681955158, 20.785782333361006 ], [ 105.931748637187155, 20.785767907088395 ], [ 105.93179351428337, 20.785742252638162 ], [ 105.931853073121289, 20.785662873317989 ], [ 105.931915859390287, 20.785620181043143 ], [ 105.931972814537616, 20.785605754698992 ], [ 105.932109371295269, 20.785597954713833 ], [ 105.932199333269736, 20.785580525644843 ], [ 105.932251759068407, 20.785561888660652 ], [ 105.932875921942511, 20.785266273068771 ], [ 105.932961354304808, 20.785244633079611 ], [ 105.93312940763721, 20.785232425976606 ], [ 105.933186362508053, 20.785217999239013 ], [ 105.933231239186568, 20.78519234442663 ], [ 105.93329079704786, 20.785112964639257 ], [ 105.933353582669156, 20.785070271859777 ], [ 105.933443544162685, 20.785052842154894 ], [ 105.933767780417554, 20.785051078852714 ], [ 105.933830774256066, 20.785042265914768 ], [ 105.93390261834729, 20.785007993950867 ], [ 105.933962175779328, 20.784928613944931 ], [ 105.934024961127236, 20.784885920929025 ], [ 105.934081915771614, 20.784871493901875 ], [ 105.934185465045346, 20.784866695309972 ], [ 105.934279955639695, 20.784853475670015 ], [ 105.934360858205764, 20.784827624506619 ], [ 105.93457638969312, 20.78472480788507 ], [ 105.934628814877769, 20.784706170195314 ], [ 105.934718775982205, 20.784688739835097 ], [ 105.934855331682115, 20.784680937701179 ], [ 105.934912286159673, 20.784666510404087 ], [ 105.934957162368107, 20.784640855156116 ], [ 105.93501671909722, 20.784561474807351 ], [ 105.935079503984568, 20.784518781420964 ], [ 105.935169464916996, 20.784501350830361 ], [ 105.935493699834097, 20.784499584313409 ], [ 105.935556693317722, 20.784490770754008 ], [ 105.935628536732594, 20.784456498090279 ], [ 105.935688093032439, 20.784377117523007 ], [ 105.935750877646427, 20.784334423900216 ], [ 105.935807831897492, 20.784319996313577 ], [ 105.935911380696467, 20.784315196696575 ], [ 105.936005870758478, 20.784301976124457 ], [ 105.936086772705778, 20.784276124168304 ], [ 105.93630230216408, 20.784173305447364 ], [ 105.936354726926638, 20.784154667244607 ], [ 105.936444687469901, 20.784137235998728 ], [ 105.936581242527154, 20.784129432513517 ], [ 105.936638196611412, 20.784115004656961 ], [ 105.936683072349737, 20.784089348973449 ], [ 105.936742627946643, 20.784009968063415 ], [ 105.936805412100057, 20.783967274070189 ], [ 105.93689537247127, 20.783949842593938 ], [ 105.937219606050334, 20.783948072862401 ], [ 105.937282599179028, 20.783939258681592 ], [ 105.93735444191752, 20.783904985318109 ], [ 105.937431905458283, 20.783808565843358 ], [ 105.937476780965184, 20.783782909960006 ], [ 105.937533734822921, 20.783768481813933 ], [ 105.937890974258735, 20.783763707154232 ], [ 105.937953967261791, 20.783754892731267 ], [ 105.938025809751153, 20.783720619095174 ], [ 105.938103272763414, 20.783624199335261 ], [ 105.938175115155801, 20.783589925639802 ], [ 105.938238108066187, 20.783581111115772 ], [ 105.93888355375384, 20.783574759116664 ], [ 105.938964454770442, 20.783548905835545 ], [ 105.939003290700654, 20.783517635742918 ], [ 105.939062844838261, 20.783438254077502 ], [ 105.939134686910506, 20.783403979991348 ], [ 105.939197679673285, 20.783395165120066 ], [ 105.939843124374775, 20.783388809544459 ], [ 105.939924025110727, 20.783362955820575 ], [ 105.939962860788, 20.783331685519553 ], [ 105.940022414340746, 20.783252303541488 ], [ 105.940067289220266, 20.783226647002266 ], [ 105.940124242588311, 20.783212218013134 ], [ 105.941090898309099, 20.78320127512487 ], [ 105.941171798708552, 20.783175420824314 ], [ 105.941210634070302, 20.783144150251985 ], [ 105.941270186882576, 20.783064767867103 ], [ 105.941342028243469, 20.783030492881473 ], [ 105.941405020689032, 20.78302167721062 ], [ 105.942017457327452, 20.783018317927368 ], [ 105.942116475396134, 20.783009304324288 ], [ 105.942201904986618, 20.782987659829153 ], [ 105.942442885013264, 20.782874811919257 ], [ 105.942553771295181, 20.782843145526236 ], [ 105.942652789204814, 20.782834131619214 ], [ 105.943586435781668, 20.782826179417849 ], [ 105.943667335508081, 20.782800323964025 ], [ 105.943706170238755, 20.782769052849154 ], [ 105.943765721570045, 20.782689669650754 ], [ 105.943810595612391, 20.782664012161916 ], [ 105.943867548362135, 20.78264958195162 ], [ 105.945123913649795, 20.782638435235388 ], [ 105.945188415505839, 20.782631021590099 ], [ 105.945273844381518, 20.782609375590205 ], [ 105.945540277894096, 20.782486501300479 ], [ 105.945657202580279, 20.782460446520627 ], [ 105.946659877263812, 20.782449274039028 ], [ 105.946724378939791, 20.782441859822423 ], [ 105.946809807457953, 20.7824202130702 ], [ 105.947076239298426, 20.78229733645448 ], [ 105.947193163531225, 20.782271280643634 ], [ 105.948194326587597, 20.782258695871047 ], [ 105.948275225136612, 20.7822328382858 ], [ 105.948314058732791, 20.782201566168578 ], [ 105.948373607375515, 20.782122181467777 ], [ 105.948418480423214, 20.782096522809162 ], [ 105.948475432457926, 20.782082091094217 ], [ 105.949120869675639, 20.782075700862862 ], [ 105.949219886532006, 20.782066683201315 ], [ 105.949305314431456, 20.782045035228133 ], [ 105.949546287278693, 20.78193217759507 ], [ 105.949627185398114, 20.781906319387335 ], [ 105.949721672447964, 20.78189309136506 ], [ 105.950080415876144, 20.7818896948793 ], [ 105.950179432530533, 20.781880676670983 ], [ 105.950264860168829, 20.781859028229157 ], [ 105.950505831954786, 20.781746169285704 ], [ 105.950586729793301, 20.781720310635375 ], [ 105.950681216621433, 20.781707082092378 ], [ 105.951039959501202, 20.781703683619149 ], [ 105.951138975953569, 20.781694664864066 ], [ 105.951224403330656, 20.781673015953611 ], [ 105.951465374055289, 20.781560155699825 ], [ 105.95154627161287, 20.781534296606917 ], [ 105.951640758219256, 20.781521067543213 ], [ 105.9519995005505, 20.781517667082547 ], [ 105.952098516800831, 20.781508647780722 ], [ 105.952183943916694, 20.781486998401657 ], [ 105.952424913579947, 20.781374136837606 ], [ 105.952535796416456, 20.781342464113845 ], [ 105.952634812507569, 20.781333444508167 ], [ 105.953280245685065, 20.781327038767685 ], [ 105.95336114277363, 20.78130117883563 ], [ 105.953399975042032, 20.781269905614298 ], [ 105.953459520604341, 20.781190519257802 ], [ 105.953531358122646, 20.781156239303932 ], [ 105.953594348892551, 20.781147419215607 ], [ 105.954206775805801, 20.781144016746943 ], [ 105.95426976652054, 20.7811351964125 ], [ 105.954341603815436, 20.781100916127475 ], [ 105.954419054881186, 20.781004489426795 ], [ 105.954490892079079, 20.780970209082493 ], [ 105.954553882701092, 20.780961388647057 ], [ 105.954878108241289, 20.780959585815747 ], [ 105.95494109883019, 20.780950765239272 ], [ 105.955012935875743, 20.780916484681864 ], [ 105.95509038641292, 20.780820057696481 ], [ 105.955162223361484, 20.780785777079799 ], [ 105.955225213857631, 20.780776956402349 ], [ 105.955549438940437, 20.780775152318714 ], [ 105.955612429403473, 20.78076633150021 ], [ 105.955684266199682, 20.780732050670444 ], [ 105.955761716208272, 20.780635623400368 ], [ 105.955833552907492, 20.780601342511329 ], [ 105.955896543277788, 20.780592521591849 ], [ 105.956220767903147, 20.780590716255912 ], [ 105.956283758240318, 20.780581895195397 ], [ 105.956355594787183, 20.780547614093269 ], [ 105.9564330442672, 20.780451186538528 ], [ 105.956504880717077, 20.780416905377134 ], [ 105.956567870961479, 20.780408084215644 ], [ 105.956925100168931, 20.780403270271911 ], [ 105.957005996076006, 20.780377408662797 ], [ 105.957044827329568, 20.780346134652046 ], [ 105.95710437058959, 20.780266747111042 ], [ 105.957176206790109, 20.780232465677301 ], [ 105.957239196908645, 20.780223644273796 ], [ 105.957563420618996, 20.780221836433348 ], [ 105.957626410704407, 20.780213014888808 ], [ 105.957698246752557, 20.780178733241996 ], [ 105.957757789599171, 20.780099345488701 ], [ 105.95782056593869, 20.780056644080766 ], [ 105.957877516186315, 20.780042209307659 ], [ 105.957981060795461, 20.780037396515297 ], [ 105.958075545759854, 20.780024163965681 ], [ 105.958156441247979, 20.779998301828844 ], [ 105.958371948605532, 20.779895456159604 ], [ 105.958424368910599, 20.779876811369469 ], [ 105.958514323902179, 20.779859368745218 ], [ 105.958650873221117, 20.779851547892829 ], [ 105.958707823301609, 20.779837112850021 ], [ 105.958770599253469, 20.779794411108053 ], [ 105.958830141381213, 20.779715023007061 ], [ 105.958901976904755, 20.77968074087439 ], [ 105.958964966667665, 20.77967191884996 ], [ 105.959289189036042, 20.779670107796914 ], [ 105.95937914378689, 20.779652664727767 ], [ 105.959424014136971, 20.779627003285725 ], [ 105.959483555851293, 20.779547614972479 ], [ 105.959546331456409, 20.779504912958629 ], [ 105.959603281310123, 20.779490477626595 ], [ 105.959771325014401, 20.77947824476227 ], [ 105.959882204742669, 20.779446567400178 ], [ 105.962396414836107, 20.778246660600665 ], [ 105.962459189053376, 20.778203957568426 ], [ 105.962508373602887, 20.778148625328022 ], [ 105.962628533058833, 20.7779234904201 ], [ 105.962661322662342, 20.777886602231735 ], [ 105.962733156403417, 20.777852318556491 ], [ 105.962865173679589, 20.77784028470629 ], [ 105.962946067105278, 20.777814420383532 ], [ 105.962984896444055, 20.777783145093458 ], [ 105.963039905684568, 20.777699545914516 ], [ 105.963093619736725, 20.777648423233046 ], [ 105.963395838343715, 20.777491440268207 ], [ 105.96346443689167, 20.777420470080177 ], [ 105.963584594372293, 20.777195334562457 ], [ 105.963647152867239, 20.777118751372885 ], [ 105.96370992626035, 20.777076047909869 ], [ 105.963925425488895, 20.776973195544571 ], [ 105.964006103231341, 20.776913450999793 ], [ 105.964050756922632, 20.776853908657838 ], [ 105.96415753853988, 20.776650023453506 ], [ 105.964220096524201, 20.776573440070525 ], [ 105.964282869528333, 20.776530736410532 ], [ 105.964498367579552, 20.77642788336528 ], [ 105.964579044804481, 20.776368138567751 ], [ 105.964623698113684, 20.776308596088178 ], [ 105.964730478595015, 20.776104710559995 ], [ 105.964793036068755, 20.776028126983636 ], [ 105.964855808683893, 20.775985423126674 ], [ 105.965071305557814, 20.775882569401514 ], [ 105.965151982265255, 20.77582282435127 ], [ 105.965196635192385, 20.775763281734086 ], [ 105.965493243800182, 20.775196931997318 ], [ 105.965521502260188, 20.775155833649638 ], [ 105.965596138588978, 20.775090475539493 ], [ 105.965856501522637, 20.77496195790399 ], [ 105.965896839485282, 20.7749320852114 ], [ 105.965946021731895, 20.774876752056226 ], [ 105.96626937404875, 20.77426789947382 ], [ 105.966318555950579, 20.774212566221525 ], [ 105.966426194891312, 20.774144198666107 ], [ 105.966458982765033, 20.774107309804769 ], [ 105.966485515269596, 20.774030928370813 ], [ 105.966496732693813, 20.773906635113924 ], [ 105.96653232484789, 20.773838672925919 ], [ 105.966571152432039, 20.773807396879505 ], [ 105.966786645024001, 20.773704541143015 ], [ 105.966840356409747, 20.773653417371069 ], [ 105.966861064474102, 20.773605302792003 ], [ 105.96687228157397, 20.773481009517841 ], [ 105.966886949811325, 20.773427282113389 ], [ 105.966913697627405, 20.773384780350501 ], [ 105.96699739218613, 20.77332784090731 ], [ 105.967030179748875, 20.773290951945846 ], [ 105.967050887707771, 20.773242837346196 ], [ 105.967062104638188, 20.773118544061628 ], [ 105.96707677277837, 20.773064816642755 ], [ 105.967103520480705, 20.77302231485314 ], [ 105.967187214770505, 20.772965375325715 ], [ 105.967220002211207, 20.77292848633137 ], [ 105.967240710064658, 20.772880371711139 ], [ 105.967251926825611, 20.77275607841618 ], [ 105.967266594868647, 20.772702350982868 ], [ 105.967293342457239, 20.77265984916653 ], [ 105.967377036478084, 20.772602909554891 ], [ 105.967409823796771, 20.772566020527659 ], [ 105.967430531544764, 20.772517905886858 ], [ 105.967441748136281, 20.772393612581492 ], [ 105.967456416082157, 20.772339885133764 ], [ 105.96748316355702, 20.772297383290695 ], [ 105.967566857308924, 20.772240443594832 ], [ 105.967599644505583, 20.772203554534727 ], [ 105.967620352148145, 20.772155439873348 ], [ 105.967631568570226, 20.772031146557595 ], [ 105.967646236418943, 20.771977419095435 ], [ 105.967672983780062, 20.771934917225636 ], [ 105.967756677263054, 20.77187797744557 ], [ 105.967789464337685, 20.771841088352577 ], [ 105.967810171874788, 20.771792973670628 ], [ 105.967821388127447, 20.771668680344476 ], [ 105.967836055879019, 20.771614952867896 ], [ 105.967862803126408, 20.771572450971373 ], [ 105.967946496340488, 20.771515511107104 ], [ 105.967991146948691, 20.77145596782675 ], [ 105.968008618643054, 20.771371167003434 ], [ 105.968006675967644, 20.771066249455892 ], [ 105.968015303868953, 20.771006909178713 ], [ 105.968050894707915, 20.770938946706874 ], [ 105.96813458750897, 20.77088200676333 ], [ 105.968179237866138, 20.770822463439984 ], [ 105.968193905421415, 20.770768735935835 ], [ 105.96819929748321, 20.770672709533162 ], [ 105.968225828577673, 20.770596327858311 ], [ 105.968258615271637, 20.770559438685723 ], [ 105.968324404527451, 20.770519540050326 ], [ 105.968369054707821, 20.770459996682288 ], [ 105.968383722165953, 20.770406269163715 ], [ 105.968390408107041, 20.770277766222495 ], [ 105.96840787947049, 20.770192965361236 ], [ 105.968544201517759, 20.769915502371951 ], [ 105.968566202541467, 20.769834911072952 ], [ 105.968574614211789, 20.769741691043105 ], [ 105.968548485924103, 20.765642243006887 ], [ 105.968539102765305, 20.765583004222645 ], [ 105.968517784497635, 20.765535126374647 ], [ 105.968484531126876, 20.765498609458344 ], [ 105.968400121755209, 20.765442616998524 ], [ 105.968372835992795, 20.765400419593664 ], [ 105.9683574853632, 20.765346861258028 ], [ 105.968342236101407, 20.76389571246753 ], [ 105.968314734814086, 20.763819635280903 ], [ 105.968281481884134, 20.763783118301397 ], [ 105.968197073563857, 20.763727125690277 ], [ 105.968169788185648, 20.763684928230507 ], [ 105.96815443782701, 20.76363136985654 ], [ 105.968144135800202, 20.762720876737397 ], [ 105.968136244895632, 20.762660217784607 ], [ 105.968113219558958, 20.762579880202107 ], [ 105.967982545751283, 20.762329332501885 ], [ 105.96795482922073, 20.762219375462337 ], [ 105.967941329425102, 20.761277842588512 ], [ 105.967925979426994, 20.761224284166598 ], [ 105.967898694602425, 20.761182086630981 ], [ 105.96781428790203, 20.761126093752598 ], [ 105.967781035706182, 20.76108957663698 ], [ 105.967759718366494, 20.761041698635974 ], [ 105.967750335877184, 20.760982459754118 ], [ 105.967712167420771, 20.754985738266445 ], [ 105.967707260822607, 20.754922239001427 ], [ 105.967688712456351, 20.7548376409116 ], [ 105.967548880218231, 20.754561733218626 ], [ 105.967525856605789, 20.754481395422268 ], [ 105.96751625917328, 20.754388276664884 ], [ 105.967490180510268, 20.750288820025492 ], [ 105.967485274243472, 20.750225320710339 ], [ 105.967466726688997, 20.750140722523568 ], [ 105.967326899544361, 20.749864814315369 ], [ 105.967310059337834, 20.749812675818145 ], [ 105.967295987199876, 20.74972381729242 ], [ 105.967271660174077, 20.7461339757863 ], [ 105.967262279052292, 20.746074736732851 ], [ 105.967240964188619, 20.746026858495728 ], [ 105.967207715588913, 20.745990341070428 ], [ 105.967141433810582, 20.745951186033967 ], [ 105.967108185251249, 20.745914668587503 ], [ 105.967086870459909, 20.7458667903276 ], [ 105.967077489430764, 20.745807551258775 ], [ 105.967052515876674, 20.741405977757157 ], [ 105.967079043103382, 20.741329596181803 ], [ 105.967111824090821, 20.741292707342094 ], [ 105.967195501440202, 20.741235768291826 ], [ 105.967231086277351, 20.741167806018169 ], [ 105.96723971330637, 20.741108465631591 ], [ 105.967237133827254, 20.740230395828526 ], [ 105.967263660781356, 20.740154014226139 ], [ 105.967296441481906, 20.740117125358022 ], [ 105.967380118131302, 20.740060186238466 ], [ 105.967406860351502, 20.740017684473006 ], [ 105.967421525696167, 20.739963956951538 ], [ 105.967423043561823, 20.739022337015417 ], [ 105.967449354875697, 20.738912075525516 ], [ 105.967576811023406, 20.738660073888976 ], [ 105.967603122173884, 20.738549812377837 ], [ 105.967601835503473, 20.737639265758951 ], [ 105.967610462248402, 20.737579925343386 ], [ 105.96764604611424, 20.73751196299645 ], [ 105.967747620838125, 20.73743798249922 ], [ 105.967774362524963, 20.737395480686086 ], [ 105.967789027527061, 20.737341753132227 ], [ 105.967789249651247, 20.73643260964997 ], [ 105.967815775747411, 20.736356227966251 ], [ 105.967848555532413, 20.736319339014411 ], [ 105.96793222993837, 20.736262399692002 ], [ 105.967958971380455, 20.736219897854625 ], [ 105.967973636221913, 20.736166170284843 ], [ 105.967972347991122, 20.735255623506934 ], [ 105.967979464933919, 20.735194879851012 ], [ 105.968001462057615, 20.735114288490095 ], [ 105.968118562911059, 20.734886343857521 ], [ 105.968150911376284, 20.734781695118343 ], [ 105.968159322321483, 20.734688474800919 ], [ 105.96815565936096, 20.734112516994376 ], [ 105.968146278847016, 20.734053277891935 ], [ 105.968124965562666, 20.734005399643006 ], [ 105.968091719513737, 20.733968882243083 ], [ 105.968025442897385, 20.733929727295823 ], [ 105.967980048683458, 20.733870690844896 ], [ 105.967964701867785, 20.733817132149717 ], [ 105.967958089228105, 20.73372117294495 ], [ 105.967930594258803, 20.733645095211067 ], [ 105.967897348337374, 20.733608577767114 ], [ 105.9678310719287, 20.733569422735165 ], [ 105.96778567790156, 20.73351038622328 ], [ 105.967770331195482, 20.733456827504416 ], [ 105.967763718703807, 20.733360868282766 ], [ 105.967736223903373, 20.733284790508264 ], [ 105.967702978109457, 20.733248273020287 ], [ 105.967636701908447, 20.733209117903662 ], [ 105.967591308068094, 20.733150081330812 ], [ 105.967575961471624, 20.733096522588269 ], [ 105.967569349127928, 20.733000563349727 ], [ 105.967541854496361, 20.732924485534607 ], [ 105.967508608829945, 20.732887968002604 ], [ 105.967442332836612, 20.732848812801301 ], [ 105.967396939183033, 20.732789776167504 ], [ 105.967381592696157, 20.732736217401268 ], [ 105.967374980500438, 20.732640258145846 ], [ 105.967347486037738, 20.732564180290126 ], [ 105.967314240498837, 20.732527662714094 ], [ 105.967247964713152, 20.732488507428108 ], [ 105.967202571246347, 20.732429470733365 ], [ 105.967187224869065, 20.73237591194345 ], [ 105.967180612821323, 20.732279952671146 ], [ 105.967153118527477, 20.732203874774807 ], [ 105.967119873116076, 20.732167357154765 ], [ 105.967053597538055, 20.732128201784107 ], [ 105.967008204258008, 20.732069165028417 ], [ 105.96699285799032, 20.732015606214816 ], [ 105.966986246090542, 20.731919646925629 ], [ 105.966958751965564, 20.731843568988683 ], [ 105.966925506681648, 20.731807051324616 ], [ 105.966859231311275, 20.731767895869289 ], [ 105.966813838218002, 20.731708859052659 ], [ 105.966798492059894, 20.731655300215376 ], [ 105.966791880308079, 20.731559340909307 ], [ 105.966764386351954, 20.731483262931761 ], [ 105.966731141195538, 20.731446745223671 ], [ 105.966664866032815, 20.731407589683684 ], [ 105.966619473126286, 20.731348552806111 ], [ 105.966604127077758, 20.731294993945149 ], [ 105.966597515473893, 20.7311990346222 ], [ 105.966570021686621, 20.73112295660405 ], [ 105.966536776657676, 20.73108643885195 ], [ 105.966470501702617, 20.731047283227298 ], [ 105.966425108982847, 20.730988246288788 ], [ 105.966406564834017, 20.730903647685604 ], [ 105.966404629500417, 20.730598728559393 ], [ 105.966395249941115, 20.730539489302203 ], [ 105.966358806899052, 20.730471931785505 ], [ 105.966274418274182, 20.730415937260108 ], [ 105.966241173475566, 20.730379419439036 ], [ 105.966213680030094, 20.730303341343923 ], [ 105.966200941181597, 20.730187652413285 ], [ 105.966179754498768, 20.730159537136021 ], [ 105.96616471329159, 20.730153974753719 ], [ 105.966125735138633, 20.730159840498217 ], [ 105.965910302450425, 20.730262693507466 ], [ 105.965871485442122, 20.730293969128308 ], [ 105.965835902311341, 20.730361931128961 ], [ 105.965827490059212, 20.730455151425641 ], [ 105.965846033823297, 20.730539750110434 ], [ 105.965891426183845, 20.730598787218913 ], [ 105.965975814780549, 20.730654781932596 ], [ 105.966012257703653, 20.730722339533994 ], [ 105.966021637129288, 20.730781578816263 ], [ 105.96602076766311, 20.731117571402383 ], [ 105.966006102531907, 20.731171298844711 ], [ 105.96597936135511, 20.731213800389543 ], [ 105.965895688867391, 20.731270738714134 ], [ 105.965851048511496, 20.731330281291775 ], [ 105.965836383302587, 20.731384008721502 ], [ 105.965825381843629, 20.731542182344306 ], [ 105.965803383987335, 20.731622773484951 ], [ 105.965496502611003, 20.732213180415819 ], [ 105.96547730867195, 20.732262698094903 ], [ 105.965457034897909, 20.732378572343087 ], [ 105.965459392649535, 20.732987007388544 ], [ 105.965441922979011, 20.733071808207931 ], [ 105.965397281943567, 20.73313135068334 ], [ 105.965309079646858, 20.733184079036018 ], [ 105.965255381413201, 20.733235202024183 ], [ 105.965092126559128, 20.733521284028548 ], [ 105.965038428135671, 20.733572406954544 ], [ 105.964950225457699, 20.733625135135501 ], [ 105.964917445496781, 20.733662023551116 ], [ 105.964896741684129, 20.733710137926352 ], [ 105.964885524451631, 20.733834431586075 ], [ 105.964870858696344, 20.733888158940989 ], [ 105.964844116751209, 20.733930660327374 ], [ 105.964763425625989, 20.733984757999821 ], [ 105.964745561849071, 20.734007445596497 ], [ 105.96474563341728, 20.734018738898733 ], [ 105.9647637834737, 20.734041224510698 ], [ 105.96484962948702, 20.734090152966246 ], [ 105.964919103416833, 20.734160348910152 ], [ 105.965042073086124, 20.734384121403863 ], [ 105.965057365256371, 20.734429210419158 ], [ 105.965060652789944, 20.734474366783907 ], [ 105.965051935676186, 20.734519590499243 ], [ 105.964936322030169, 20.734746113142812 ], [ 105.964903971334266, 20.734850761364598 ], [ 105.96489555838366, 20.734943981600029 ], [ 105.964897491137805, 20.735248900708442 ], [ 105.964906870489614, 20.735308140026905 ], [ 105.964928182980103, 20.735356018700209 ], [ 105.964961428615084, 20.735392536723854 ], [ 105.965045819626141, 20.735448531771894 ], [ 105.965082263387671, 20.735516089504316 ], [ 105.965091642832036, 20.735575328807414 ], [ 105.965093576043202, 20.735880247875791 ], [ 105.96508494837812, 20.735939588211522 ], [ 105.965064244341534, 20.735987702604497 ], [ 105.965031463925882, 20.736024591050811 ], [ 105.964947788498591, 20.736081529001016 ], [ 105.964921046217327, 20.736124030403019 ], [ 105.964906380290046, 20.736177757755069 ], [ 105.964908282554276, 20.737661456856976 ], [ 105.964881969557808, 20.737771718037873 ], [ 105.964764861730927, 20.7379996606698 ], [ 105.964732510323586, 20.738104308852211 ], [ 105.964724097176344, 20.738197529055736 ], [ 105.96472774794033, 20.738773487173933 ], [ 105.964719120017946, 20.738832827483716 ], [ 105.964683534535354, 20.738900789278372 ], [ 105.964581957296573, 20.73897476805044 ], [ 105.964555214438121, 20.73901726940549 ], [ 105.9645405481469, 20.739070996724593 ], [ 105.964543742989449, 20.740522218839917 ], [ 105.964517214595361, 20.740598600075757 ], [ 105.964484433098917, 20.740635488442614 ], [ 105.964400754996433, 20.740692426204372 ], [ 105.96437401180556, 20.740734927536746 ], [ 105.964359345311067, 20.740788654838852 ], [ 105.964362539189679, 20.742239876738608 ], [ 105.964347872569618, 20.742293604036341 ], [ 105.964321129102046, 20.742336105364341 ], [ 105.964237450027909, 20.742393043074717 ], [ 105.964204668093984, 20.742429931398519 ], [ 105.964183962982474, 20.742478045695428 ], [ 105.964175334700926, 20.742537385969356 ], [ 105.964183899820654, 20.743415422621826 ], [ 105.964199246439051, 20.743468981609848 ], [ 105.964226526866426, 20.743511179983873 ], [ 105.964310922258576, 20.743567175174054 ], [ 105.964344169632355, 20.743603693217946 ], [ 105.964365483226828, 20.743651571876772 ], [ 105.964374863036184, 20.743710811155022 ], [ 105.964372273260594, 20.743775764409552 ], [ 105.964357606520068, 20.74382949170435 ], [ 105.96433086280436, 20.743871993036905 ], [ 105.964247182914832, 20.743928930775059 ], [ 105.964214400668936, 20.743965819107153 ], [ 105.964193695373112, 20.744013933404869 ], [ 105.96418506703489, 20.744073273672118 ], [ 105.964188716888373, 20.744649231488854 ], [ 105.964198311411991, 20.744742350640305 ], [ 105.964221331583389, 20.744822689099202 ], [ 105.964341326086839, 20.74504930167577 ], [ 105.964359763798953, 20.745116960408545 ], [ 105.96435704875212, 20.745162150398023 ], [ 105.964342328208858, 20.745207407721782 ], [ 105.964225214328991, 20.745435350048915 ], [ 105.964209037765769, 20.745487674083876 ], [ 105.964196095178252, 20.745576684475243 ], [ 105.9641967326898, 20.745914079890145 ], [ 105.964206327332477, 20.746007199024319 ], [ 105.96422934772913, 20.74608753746282 ], [ 105.96434934332575, 20.746314149961268 ], [ 105.964360107710007, 20.746355029206867 ], [ 105.964342421463101, 20.74640595000735 ], [ 105.964263215482177, 20.746458627556805 ], [ 105.964230432722402, 20.746495515902538 ], [ 105.964203903260497, 20.746571897084916 ], [ 105.964204749091692, 20.747178928102556 ], [ 105.964209653838182, 20.747242427591278 ], [ 105.964228199171458, 20.747327026242797 ], [ 105.964368018269042, 20.74760293736497 ], [ 105.964395729096836, 20.747712895374104 ], [ 105.964406003671314, 20.748623391207104 ], [ 105.964415598686173, 20.748716510288933 ], [ 105.964449276875982, 20.748820787948876 ], [ 105.964569275130671, 20.749047400125189 ], [ 105.964596986412104, 20.749157358067617 ], [ 105.964612179959218, 20.750369932122837 ], [ 105.964627527537189, 20.75042349099644 ], [ 105.964654809413418, 20.750465689215176 ], [ 105.964739208926403, 20.750521683992574 ], [ 105.964772457993661, 20.750558201860734 ], [ 105.964793772792376, 20.750606080384692 ], [ 105.964803153316723, 20.750665319568956 ], [ 105.964800563737867, 20.750730272775655 ], [ 105.964785896588779, 20.750784000084607 ], [ 105.964759151859255, 20.750826501493304 ], [ 105.964675468428879, 20.750883439538715 ], [ 105.96464268486649, 20.750920327977934 ], [ 105.964621978859455, 20.750968442320794 ], [ 105.96461356528313, 20.751061662412198 ], [ 105.964622945773698, 20.751120901604864 ], [ 105.964644260612914, 20.751168780143022 ], [ 105.964677509806577, 20.751205298022178 ], [ 105.964761909749996, 20.751261292767211 ], [ 105.964789191823186, 20.751303490953191 ], [ 105.964804539571617, 20.751357049799111 ], [ 105.964821695677131, 20.753351699745473 ], [ 105.96484344081378, 20.75346733789058 ], [ 105.964983267145755, 20.753743248052348 ], [ 105.965000107059879, 20.753795386768346 ], [ 105.965014178347261, 20.753884245478584 ], [ 105.965034779265054, 20.756420971774148 ], [ 105.96505012769569, 20.756474530543016 ], [ 105.965077410846533, 20.756516728618116 ], [ 105.965161813963704, 20.756572723010972 ], [ 105.965207214284334, 20.756631759828743 ], [ 105.96522256279961, 20.756685318577691 ], [ 105.965235572862554, 20.756843356936677 ], [ 105.965269253655151, 20.756947634245957 ], [ 105.965767398815544, 20.75787091668661 ], [ 105.965812799774341, 20.757929953311102 ], [ 105.965871627370149, 20.757976209081395 ], [ 105.966132084164798, 20.758103210522634 ], [ 105.96616533529351, 20.758139728011201 ], [ 105.966192834366083, 20.758215805674244 ], [ 105.966196889275267, 20.758853875159183 ], [ 105.96618222196885, 20.75890760254871 ], [ 105.966155476311286, 20.758950104176016 ], [ 105.966071789097995, 20.759007043003692 ], [ 105.966039004222182, 20.759043931730513 ], [ 105.966018297672434, 20.759092046222971 ], [ 105.966009669456284, 20.759151386484945 ], [ 105.966011606909461, 20.759456304635247 ], [ 105.966020988604697, 20.759515543652814 ], [ 105.966057439032582, 20.759583100748209 ], [ 105.96614184424206, 20.759639094558825 ], [ 105.966175095725404, 20.759675612025756 ], [ 105.966202595114822, 20.759751689662721 ], [ 105.966203205191093, 20.759847682402754 ], [ 105.966176674702183, 20.759924063825466 ], [ 105.966143889664849, 20.759960952575206 ], [ 105.966060201907297, 20.760017891412708 ], [ 105.966024612500078, 20.760085853491535 ], [ 105.96601598424725, 20.760145193749192 ], [ 105.966015545276733, 20.760784700094508 ], [ 105.965989229835259, 20.760894961278666 ], [ 105.965863245883483, 20.761145541839717 ], [ 105.965854527834182, 20.761190765508331 ], [ 105.965857816535618, 20.76123592168733 ], [ 105.965873111998434, 20.761281010375583 ], [ 105.965982464564078, 20.761483681644084 ], [ 105.96602786674535, 20.761542718141559 ], [ 105.966086695850407, 20.76158897376148 ], [ 105.966326057512305, 20.76170197616559 ], [ 105.966389362392007, 20.761743971380884 ], [ 105.966452882705582, 20.761819846351472 ], [ 105.966562236447558, 20.762022517192744 ], [ 105.966591012947674, 20.762063294844889 ], [ 105.966645366796755, 20.762113810556976 ], [ 105.966734249283249, 20.762165543694099 ], [ 105.966767501483545, 20.762202061008452 ], [ 105.966795001678619, 20.762278138498907 ], [ 105.966803322991879, 20.762406557086713 ], [ 105.966821871980798, 20.762491155181777 ], [ 105.966961710860829, 20.762767062980316 ], [ 105.966989426797539, 20.762877020197557 ], [ 105.967005539892398, 20.765173777552725 ], [ 105.96699087236442, 20.765227504985134 ], [ 105.966964125905051, 20.765270006742409 ], [ 105.966880435637592, 20.7653269460478 ], [ 105.966835786275482, 20.765386489027467 ], [ 105.966818314460753, 20.765471289788334 ], [ 105.966820254180504, 20.765776207641618 ], [ 105.966811626015897, 20.76583554790102 ], [ 105.966776035704981, 20.765903510130585 ], [ 105.96669234502464, 20.765960449356701 ], [ 105.966659558879797, 20.765997338225656 ], [ 105.966638851680372, 20.766045452784102 ], [ 105.966630438921825, 20.766138672797361 ], [ 105.966640036876285, 20.766231791470982 ], [ 105.966663062082219, 20.766312129226197 ], [ 105.966802904504462, 20.766588036906121 ], [ 105.966821454107119, 20.766672634940594 ], [ 105.966829775848566, 20.766801053452081 ], [ 105.966845126115516, 20.766854611930739 ], [ 105.96687241174358, 20.76689680957767 ], [ 105.966956821417412, 20.766952802769236 ], [ 105.966990074768006, 20.766989319977124 ], [ 105.967011392787185, 20.767037198017682 ], [ 105.967020991055406, 20.767130316649006 ], [ 105.967012362916265, 20.767189656909224 ], [ 105.966991655684751, 20.767237771505616 ], [ 105.966958869353306, 20.767274660434289 ], [ 105.966875178013083, 20.767331599767566 ], [ 105.966839587410561, 20.76739956201132 ], [ 105.966830959189551, 20.767458902263979 ], [ 105.966831604799353, 20.767796296589374 ], [ 105.966824486450207, 20.767857040049112 ], [ 105.966802484732384, 20.767937631168373 ], [ 105.966495540301295, 20.768528040159701 ], [ 105.966450889899065, 20.768587583060416 ], [ 105.966392650407357, 20.768634497036999 ], [ 105.966154731570057, 20.768750183601881 ], [ 105.96611590514226, 20.768781459524831 ], [ 105.966080313882316, 20.768849421626665 ], [ 105.966069096305688, 20.768973714927146 ], [ 105.966042564359128, 20.769050096314555 ], [ 105.966009777417682, 20.769086985078843 ], [ 105.96594398811817, 20.76912688283366 ], [ 105.965899337327855, 20.769186425602321 ], [ 105.965881864643578, 20.769271226268732 ], [ 105.965882508332541, 20.769608620610178 ], [ 105.965862231155782, 20.769724494594158 ], [ 105.965843033145887, 20.76977401228292 ], [ 105.965546435559943, 20.770340362508762 ], [ 105.965519903138897, 20.770416743823176 ], [ 105.965505665229884, 20.770538230647819 ], [ 105.965506308213818, 20.770875624974291 ], [ 105.965486030621946, 20.770991498914945 ], [ 105.965466832345797, 20.771041016565562 ], [ 105.965156857053941, 20.771628616965636 ], [ 105.965107675508946, 20.771683949885375 ], [ 105.965000037632265, 20.771752316588429 ], [ 105.964967249874761, 20.771789205175125 ], [ 105.964946541422435, 20.771837319549679 ], [ 105.964935322802845, 20.771961612778636 ], [ 105.964908789823383, 20.772037994007622 ], [ 105.964855078307764, 20.772089117188003 ], [ 105.964639586543356, 20.772191970481025 ], [ 105.964558911488794, 20.772251715247609 ], [ 105.964514259275546, 20.77231125769223 ], [ 105.964407480938945, 20.772515143081385 ], [ 105.96434492463284, 20.772591726498977 ], [ 105.964282153225994, 20.772634430136403 ], [ 105.964066660284544, 20.772737282749642 ], [ 105.963985984712622, 20.772797027263557 ], [ 105.963941332117372, 20.772856569570578 ], [ 105.963834552645096, 20.773060454635949 ], [ 105.963771995828509, 20.773137037860192 ], [ 105.963709224032741, 20.77317974130067 ], [ 105.963493729914248, 20.773282593234093 ], [ 105.963413053824937, 20.773342337495297 ], [ 105.963368400847656, 20.773401879664714 ], [ 105.963261620239678, 20.773605764406259 ], [ 105.96319906291258, 20.773682347437138 ], [ 105.963136290727888, 20.77372505068066 ], [ 105.962920795432311, 20.773827901934194 ], [ 105.962840118825582, 20.773887645942679 ], [ 105.9627954654663, 20.773947187974478 ], [ 105.962688683722547, 20.774151072392161 ], [ 105.962655894892222, 20.774187960569705 ], [ 105.962584062828824, 20.774222244159844 ], [ 105.962452048653091, 20.774234277676612 ], [ 105.962371157012839, 20.774260141705867 ], [ 105.962332328410128, 20.774291416839457 ], [ 105.962277319921441, 20.774375015791307 ], [ 105.962223606692135, 20.774426138202024 ], [ 105.96192139274153, 20.774583118967389 ], [ 105.96185279466809, 20.774654088540093 ], [ 105.961719261639089, 20.774900473441679 ], [ 105.961687982329892, 20.774938764698774 ], [ 105.961629738947579, 20.774985677179131 ], [ 105.960242477727746, 20.775649883496563 ], [ 105.960161799075749, 20.775709626313258 ], [ 105.960090393976429, 20.775811668481676 ], [ 105.960051564498741, 20.775842943127834 ], [ 105.960000655699062, 20.77586299162849 ], [ 105.959868639810452, 20.7758750232206 ], [ 105.959787746814968, 20.775900886079327 ], [ 105.959734032196337, 20.775952007756189 ], [ 105.95962724496826, 20.776155890438979 ], [ 105.959573530206981, 20.776207012069754 ], [ 105.959492636980784, 20.776232874797337 ], [ 105.959135417894686, 20.776237693700018 ], [ 105.959045465115764, 20.776255136570473 ], [ 105.958982690664797, 20.776297838370191 ], [ 105.958861016961194, 20.776521567652253 ], [ 105.958807301807525, 20.776572689056298 ], [ 105.958756392586935, 20.776592737202318 ], [ 105.958624375925766, 20.776604767865358 ], [ 105.958567427034779, 20.776619202838877 ], [ 105.958522557396392, 20.776644864036886 ], [ 105.95846301623618, 20.7767242520185 ], [ 105.9584241861821, 20.77675552631554 ], [ 105.958373276845705, 20.776775574351909 ], [ 105.958241259982913, 20.776787604727506 ], [ 105.958184310982105, 20.776802039577749 ], [ 105.958139441221903, 20.776827700679732 ], [ 105.958079899788089, 20.776907088537428 ], [ 105.958041069606224, 20.776938362752073 ], [ 105.957990160154012, 20.776958410678787 ], [ 105.957858143089581, 20.776970440766938 ], [ 105.957801193978966, 20.776984875493895 ], [ 105.957756324096977, 20.777010536499841 ], [ 105.957696782389561, 20.777089924233614 ], [ 105.957657952079884, 20.777121198365855 ], [ 105.957607042511867, 20.777141246182907 ], [ 105.957475025245827, 20.777153275983608 ], [ 105.957418076025405, 20.777167710587278 ], [ 105.9573732060216, 20.777193371497198 ], [ 105.957313664040583, 20.777272759107035 ], [ 105.957274833603094, 20.777304033156867 ], [ 105.957223923919273, 20.777324080864265 ], [ 105.957091906451609, 20.777336110377501 ], [ 105.95703495712138, 20.777350544857882 ], [ 105.956990086995773, 20.777376205671775 ], [ 105.956930544741155, 20.777455593157672 ], [ 105.956891714175867, 20.777486867125095 ], [ 105.956840804376242, 20.777506914722824 ], [ 105.956708786706955, 20.777518943948603 ], [ 105.956651837266918, 20.777533378305684 ], [ 105.956606967019511, 20.777559039023533 ], [ 105.956547424491291, 20.777638426385494 ], [ 105.956484648743029, 20.777681127314775 ], [ 105.956394694750827, 20.777698568838765 ], [ 105.956070476315631, 20.777700374263517 ], [ 105.955971462875098, 20.777709395754542 ], [ 105.955886038483513, 20.777731046924178 ], [ 105.955645077268414, 20.777843913069155 ], [ 105.95556418243207, 20.777869774001054 ], [ 105.955435184091513, 20.777884608876732 ], [ 105.955110965168174, 20.777886412505431 ], [ 105.955021010866005, 20.777903853320179 ], [ 105.954976140217568, 20.777929513625697 ], [ 105.954916596675218, 20.778008900457511 ], [ 105.954877765538683, 20.778040173989094 ], [ 105.95482685526467, 20.778060221005937 ], [ 105.954694836888706, 20.778072248707286 ], [ 105.954637887022713, 20.778086682410947 ], [ 105.954593016252474, 20.778112342620425 ], [ 105.954533472436495, 20.778191729328267 ], [ 105.954494641172175, 20.77822300277742 ], [ 105.954443730782359, 20.77824304968458 ], [ 105.954311712204799, 20.778255077098432 ], [ 105.954254762229013, 20.77826951067879 ], [ 105.954209891336973, 20.778295170792205 ], [ 105.954150347247392, 20.778374557376068 ], [ 105.95411151585526, 20.778405830742795 ], [ 105.954060605349653, 20.778425877540268 ], [ 105.953928586570512, 20.778437904666621 ], [ 105.953871636484934, 20.77845233812366 ], [ 105.953826765471106, 20.778477998141017 ], [ 105.95376722110791, 20.778557384600894 ], [ 105.9537044441647, 20.77860008455426 ], [ 105.953614489249503, 20.778617524653331 ], [ 105.953002072417789, 20.778620924615456 ], [ 105.952912117393552, 20.778638364350098 ], [ 105.952867246153005, 20.778664024124552 ], [ 105.952807701204918, 20.778743410272227 ], [ 105.952768869431964, 20.778774683348342 ], [ 105.952717958610108, 20.778794729758502 ], [ 105.952585939359992, 20.778806755868477 ], [ 105.952528988990466, 20.778821188889861 ], [ 105.952484117628131, 20.77884684856825 ], [ 105.952424572406429, 20.778926234591921 ], [ 105.952361794916229, 20.778968934073092 ], [ 105.952304844462006, 20.778983367023034 ], [ 105.952201300239935, 20.77898817637162 ], [ 105.952106815262368, 20.779001405684763 ], [ 105.952025919142372, 20.779027264993392 ], [ 105.951810408343306, 20.779130102825921 ], [ 105.951757987391218, 20.779148745619711 ], [ 105.951668031885518, 20.779166184719084 ], [ 105.95153148257792, 20.779174000008226 ], [ 105.951474531956649, 20.779188432688432 ], [ 105.95142966029826, 20.779214092101249 ], [ 105.951370114373674, 20.779293477782787 ], [ 105.951331282154726, 20.779324750548685 ], [ 105.951280370943195, 20.779344796545775 ], [ 105.951148351054513, 20.77935682157246 ], [ 105.951091400323463, 20.779371254129334 ], [ 105.951028622258562, 20.779413953142473 ], [ 105.95096907604443, 20.779493338694234 ], [ 105.950897238671004, 20.779527617574406 ], [ 105.950834248368963, 20.779536436654798 ], [ 105.950221827335838, 20.779539826845053 ], [ 105.950158836978716, 20.779548645679341 ], [ 105.950086999381938, 20.779582924228343 ], [ 105.95002745259886, 20.779662309473562 ], [ 105.949964674101011, 20.779705008112451 ], [ 105.949874718021533, 20.779722446291796 ], [ 105.949550494649372, 20.779724239574062 ], [ 105.949487504166441, 20.779733058166311 ], [ 105.949415666320434, 20.779767336442902 ], [ 105.949356119108103, 20.779846721469948 ], [ 105.949293340336766, 20.779889419872671 ], [ 105.949236389204998, 20.779903851827846 ], [ 105.949134354037227, 20.779910062717782 ], [ 105.949053456872491, 20.779935920661384 ], [ 105.949014623995012, 20.77996719292576 ], [ 105.948972983091494, 20.78002953833224 ], [ 105.948910204132957, 20.78007223660105 ], [ 105.948820247692566, 20.780089674240216 ], [ 105.948496023437102, 20.78009146556175 ], [ 105.948433032724651, 20.780100283774974 ], [ 105.948361194451223, 20.780134561624784 ], [ 105.948283739838402, 20.780230985733699 ], [ 105.948238867304013, 20.780256644342202 ], [ 105.948181915920529, 20.78027107595614 ], [ 105.947215245871845, 20.780276411391316 ], [ 105.947158118281664, 20.780262609420582 ], [ 105.94711292859337, 20.780237447893324 ], [ 105.947052393991626, 20.780158725970338 ], [ 105.946989086246219, 20.780116723806429 ], [ 105.946898918270065, 20.780100280546286 ], [ 105.94679990249476, 20.780109296827064 ], [ 105.946728063818711, 20.780143574007823 ], [ 105.94666851502167, 20.780222958159101 ], [ 105.946629681558662, 20.780254229904749 ], [ 105.946548783735167, 20.780280086690603 ], [ 105.946416762503119, 20.780292108123291 ], [ 105.946344923648908, 20.780326385149674 ], [ 105.946312129444223, 20.780363270385593 ], [ 105.946190433684649, 20.780586991432582 ], [ 105.946151600028642, 20.78061826307615 ], [ 105.946070701922679, 20.780644119646237 ], [ 105.944815863329879, 20.780656676060872 ], [ 105.944734964948907, 20.780682532010939 ], [ 105.944696130955251, 20.780713803337399 ], [ 105.944636580854578, 20.78079318682812 ], [ 105.944564741333949, 20.780827463132166 ], [ 105.944501750026959, 20.780836279922731 ], [ 105.943856317125793, 20.780842652592913 ], [ 105.943775418464085, 20.78086850810034 ], [ 105.943736584217461, 20.780899779218494 ], [ 105.943677033531955, 20.780979162396743 ], [ 105.943632159951107, 20.781004819837378 ], [ 105.943575207785798, 20.781019249949491 ], [ 105.942320365096023, 20.781031788249862 ], [ 105.94226341277718, 20.781046217931909 ], [ 105.94221853892212, 20.781071875012771 ], [ 105.942158987356507, 20.781151257695878 ], [ 105.942120152691345, 20.781182528462896 ], [ 105.942069239532699, 20.781202571794896 ], [ 105.942006247886411, 20.781211387680944 ], [ 105.941937181972477, 20.781208943168121 ], [ 105.941855967553877, 20.781183977869286 ], [ 105.9418167475893, 20.781153135332907 ], [ 105.941760744683165, 20.781078621753224 ], [ 105.941706601798657, 20.781061978166651 ], [ 105.941663132599544, 20.781072098563083 ], [ 105.941422154749134, 20.78118494531434 ], [ 105.941305230183872, 20.781210997203651 ], [ 105.940337077401864, 20.781220537371773 ], [ 105.940274085620075, 20.781229352626355 ], [ 105.940202244833444, 20.781263627148757 ], [ 105.940124784334742, 20.781360047785046 ], [ 105.940079910003647, 20.781385704323341 ], [ 105.940022957308429, 20.781400133274747 ], [ 105.939056312712751, 20.781411069716228 ], [ 105.938999359896158, 20.781425498332087 ], [ 105.938954485343331, 20.781451154584012 ], [ 105.938894931882032, 20.781530536202339 ], [ 105.938832149327311, 20.781573230910887 ], [ 105.938775196426036, 20.781587659455258 ], [ 105.938673159432128, 20.781593864186164 ], [ 105.938592259387391, 20.781619717297932 ], [ 105.938553423837121, 20.781650987289087 ], [ 105.938511778096313, 20.781713330328508 ], [ 105.93844899535442, 20.781756024903043 ], [ 105.938359036485735, 20.781773457141501 ], [ 105.937746604222852, 20.781776803184474 ], [ 105.937683612020251, 20.781785617502507 ], [ 105.937611770344276, 20.781819890971025 ], [ 105.937534307881492, 20.78191631050592 ], [ 105.937489432923073, 20.781941966388402 ], [ 105.937432479738206, 20.781956394496845 ], [ 105.935922428875486, 20.781967456097092 ], [ 105.93579342451126, 20.781982276414539 ], [ 105.93571252371359, 20.782008128194622 ], [ 105.935088379928729, 20.782303753492776 ], [ 105.935002949552015, 20.782325394473485 ], [ 105.934834899656948, 20.782337603286845 ], [ 105.934777946035112, 20.782352030529193 ], [ 105.9347330704543, 20.78237768571249 ], [ 105.934673514380265, 20.782457065955807 ], [ 105.934634677777979, 20.782488335096318 ], [ 105.934583763104968, 20.782508376259649 ], [ 105.934451738598071, 20.782520388597916 ], [ 105.934394784866541, 20.782534815716829 ], [ 105.934332000572368, 20.782577508838639 ], [ 105.934272444208759, 20.782656888951944 ], [ 105.934200601297505, 20.782691161034453 ], [ 105.934137608455984, 20.782699974072628 ], [ 105.933778861316128, 20.782703337327604 ], [ 105.93368437199652, 20.782716556645823 ], [ 105.933603470411128, 20.782742407458301 ], [ 105.933362483485354, 20.782855243203393 ], [ 105.933245556026705, 20.782881289699823 ], [ 105.932532589870235, 20.782892222310245 ], [ 105.932451687973142, 20.78291807259038 ], [ 105.932412850777808, 20.782949341248415 ], [ 105.932353293244688, 20.783028720736109 ], [ 105.932308417031848, 20.783054375306705 ], [ 105.932251462867995, 20.783068801728952 ], [ 105.930708392254971, 20.78308282054952 ], [ 105.930627489910265, 20.783108669984969 ], [ 105.93058865227448, 20.783139938245682 ], [ 105.930529093689955, 20.783219317137689 ], [ 105.930457249605837, 20.783253587693441 ], [ 105.930394256256193, 20.783262399374468 ], [ 105.929748810170508, 20.783268719416338 ], [ 105.929667907545351, 20.783294568408927 ], [ 105.929629069656741, 20.783325836461135 ], [ 105.929569510487482, 20.783405215040244 ], [ 105.929497666083407, 20.783439485205168 ], [ 105.929434672586339, 20.783448296538886 ], [ 105.928822232006524, 20.783451611005944 ], [ 105.92875923845466, 20.783460422093455 ], [ 105.928687393827587, 20.783494691926933 ], [ 105.928627834089568, 20.783574070198881 ], [ 105.928565047666112, 20.783616761284012 ], [ 105.928475086347035, 20.783634188423964 ], [ 105.928150852628463, 20.783635941616748 ], [ 105.928087858951073, 20.783644752462049 ], [ 105.928016014074998, 20.783679022022827 ], [ 105.927956453907797, 20.783758400076124 ], [ 105.927893667211052, 20.78380109092479 ], [ 105.927836712287956, 20.783815515907488 ], [ 105.927734673074838, 20.783821714208617 ], [ 105.92765376977556, 20.78384756227436 ], [ 105.927614931316057, 20.783878829889883 ], [ 105.927573280397894, 20.783941170453097 ], [ 105.927510493514021, 20.783983861167627 ], [ 105.927420531834557, 20.784001287766952 ], [ 105.927061780871782, 20.784004637105358 ], [ 105.926938812453244, 20.784025065119906 ], [ 105.926886386455664, 20.78404370048926 ], [ 105.926265235316436, 20.784342101736204 ], [ 105.926190576941977, 20.784407443501983 ], [ 105.926042086564536, 20.784673647290141 ], [ 105.926010796070429, 20.784711932425601 ], [ 105.925952537523457, 20.784758833315127 ], [ 105.92530894250902, 20.785070057737073 ], [ 105.925250683602343, 20.78511695839979 ], [ 105.925179250262673, 20.785218987003738 ], [ 105.925140410930808, 20.785250254086854 ], [ 105.925089493973431, 20.785270292510074 ], [ 105.924957466010767, 20.785282297661318 ], [ 105.924900510217483, 20.785296721698739 ], [ 105.92485563200799, 20.78532237438705 ], [ 105.9247960695334, 20.785401751415272 ], [ 105.92475723007378, 20.785433018415745 ], [ 105.92467632536075, 20.785458865124774 ], [ 105.924544297188518, 20.785470869965351 ], [ 105.924493380072164, 20.785490908216964 ], [ 105.924454540525261, 20.785522175151829 ], [ 105.924332808082013, 20.785745881950668 ], [ 105.924313594530062, 20.785795395501378 ], [ 105.924296096931485, 20.785880192737434 ], [ 105.924289373488563, 20.786008695189526 ], [ 105.924262817643381, 20.786085070890948 ], [ 105.924230016708691, 20.786121952134767 ], [ 105.924141769258583, 20.786174660761223 ], [ 105.924088038671073, 20.786225771821847 ], [ 105.924059766770142, 20.78626686380564 ], [ 105.923952924023141, 20.786470726163071 ], [ 105.923908251490133, 20.786530258719228 ], [ 105.923827552207143, 20.786589985152784 ], [ 105.923612010268982, 20.786692788629683 ], [ 105.923568641127233, 20.786719844595318 ], [ 105.923514910153941, 20.786770955487825 ], [ 105.923459875531123, 20.786854542872014 ], [ 105.923421035424411, 20.786885809589222 ], [ 105.923340129693301, 20.786911655701729 ], [ 105.923208100113044, 20.786923659563911 ], [ 105.923136252528096, 20.786957927169098 ], [ 105.923103451130942, 20.786994808211286 ], [ 105.922996606603405, 20.787198670023823 ], [ 105.922951933482665, 20.787258202348223 ], [ 105.922893673002648, 20.787305102258028 ], [ 105.922655689779845, 20.787420730686232 ], [ 105.922592900038893, 20.787463419690951 ], [ 105.922543697576529, 20.787518741106641 ], [ 105.922423470486308, 20.787743850269294 ], [ 105.92237879698304, 20.78780338245523 ], [ 105.922320536115578, 20.787850282182038 ], [ 105.922082551585262, 20.787965909856709 ], [ 105.922019761455203, 20.788008598663581 ], [ 105.921970558608692, 20.788063919925953 ], [ 105.921850330253832, 20.788289028721074 ], [ 105.921805656368051, 20.788348560768544 ], [ 105.921747395113115, 20.788395460312326 ], [ 105.921509409275288, 20.788511087233413 ], [ 105.921446618756107, 20.788553775842416 ], [ 105.921397415525419, 20.788609096951458 ], [ 105.921277185905893, 20.78883420537899 ], [ 105.921232511637569, 20.788893737287978 ], [ 105.921174249995161, 20.788940636648732 ], [ 105.920936262849793, 20.789056262816175 ], [ 105.920897421654828, 20.789087528994965 ], [ 105.920861805384817, 20.789155482520499 ], [ 105.920850549886339, 20.789279774049856 ], [ 105.920823991785682, 20.789356149276841 ], [ 105.920791189314343, 20.789393029907416 ], [ 105.920723869111498, 20.78943150741301 ], [ 105.920665607105178, 20.789478406611806 ], [ 105.920620932411325, 20.78953793837325 ], [ 105.920514082838366, 20.789741798772749 ], [ 105.920485809330302, 20.789782890212017 ], [ 105.920432076237347, 20.78983400020093 ], [ 105.920343825281947, 20.789886706982411 ], [ 105.920311022580833, 20.789923587527618 ], [ 105.920290297519657, 20.789971697050454 ], [ 105.920279041519308, 20.790095988550455 ], [ 105.920264355261139, 20.790149712561924 ], [ 105.920237591321296, 20.790192207586756 ], [ 105.920153869217188, 20.790249125148364 ], [ 105.920121066393762, 20.790286005660384 ], [ 105.920100341226771, 20.790334115162384 ], [ 105.920089085055992, 20.79045840665157 ], [ 105.920062526386005, 20.790534781772429 ], [ 105.920008792889377, 20.790585891639672 ], [ 105.91979324260133, 20.790688690582869 ], [ 105.919749871626337, 20.790715745639343 ], [ 105.91969613795878, 20.790766855413956 ], [ 105.919632144202495, 20.790858959959806 ], [ 105.91962016915798, 20.790864670993933 ], [ 105.919596116430867, 20.790859152997722 ], [ 105.919531010771948, 20.790767740166796 ], [ 105.919455559584378, 20.790703205366647 ], [ 105.919195081672342, 20.790576134247001 ], [ 105.91916183400464, 20.79053960763877 ], [ 105.919134351611078, 20.790463522049446 ], [ 105.919130619336244, 20.790095083665687 ], [ 105.919137757507514, 20.790034341569381 ], [ 105.919159787481306, 20.789953755673533 ], [ 105.919277001729597, 20.78972584134317 ], [ 105.919305275563389, 20.789684750090942 ], [ 105.919359009000019, 20.78963364044175 ], [ 105.919447260175389, 20.789580934157875 ], [ 105.919480063022846, 20.789544053771234 ], [ 105.919500788292339, 20.789495944336458 ], [ 105.919509435991358, 20.789436605857468 ], [ 105.91950758888585, 20.789131684677123 ], [ 105.919489062135511, 20.78904708084605 ], [ 105.919443668827512, 20.788988031852245 ], [ 105.919375886733249, 20.78895027853655 ], [ 105.919317060203369, 20.788904006919694 ], [ 105.919233164227052, 20.788794342225394 ], [ 105.919204053808457, 20.78878885124773 ], [ 105.919155225298951, 20.788822993962473 ], [ 105.918796273706235, 20.789262100009744 ], [ 105.918741182629162, 20.789342659825941 ], [ 105.918676223612152, 20.78946099492391 ], [ 105.918575663248546, 20.789708515477795 ], [ 105.918546132221152, 20.789762947654186 ], [ 105.918489361121289, 20.789831285119043 ], [ 105.918357233960393, 20.789946422395257 ], [ 105.91830293666834, 20.7900143272253 ], [ 105.918257696012134, 20.790090413003259 ], [ 105.91820390964287, 20.790237228165584 ], [ 105.918175984333118, 20.790400942828409 ], [ 105.918174204289471, 20.790566366910767 ], [ 105.91820168622894, 20.790642452670227 ], [ 105.918234933696979, 20.790678979471835 ], [ 105.918324182479509, 20.790730390734549 ], [ 105.918362758492222, 20.790761849298729 ], [ 105.918439439253973, 20.790859289821203 ], [ 105.918479994024466, 20.790888866309391 ], [ 105.918562304023766, 20.790912802320545 ], [ 105.918698709090918, 20.790919360698251 ], [ 105.918787422868562, 20.790937205652845 ], [ 105.919050902232215, 20.791061422820523 ], [ 105.919114936509175, 20.791102741840675 ], [ 105.919181120338635, 20.791176091587033 ], [ 105.91927926119682, 20.791355346341923 ], [ 105.919303771854132, 20.791425046336968 ], [ 105.919301249060496, 20.791492822297354 ], [ 105.919284548596238, 20.791536937363436 ], [ 105.919145365519839, 20.791778117104187 ], [ 105.919093106243452, 20.791830598027833 ], [ 105.919008172330336, 20.791886389647601 ], [ 105.918976106364013, 20.791923955619254 ], [ 105.918955134799106, 20.791971836441839 ], [ 105.91894092769202, 20.792093385223922 ], [ 105.918925503309111, 20.792146423471365 ], [ 105.918898984484642, 20.792189146858874 ], [ 105.918818210712132, 20.79224880646456 ], [ 105.918786144624491, 20.792286372403762 ], [ 105.9187651729534, 20.792334253205251 ], [ 105.918750965671833, 20.792455801973489 ], [ 105.918735541190316, 20.792508840205507 ], [ 105.918709022252088, 20.792551563566246 ], [ 105.918628248214219, 20.792611223090013 ], [ 105.91859618200526, 20.792648788996772 ], [ 105.918575210227999, 20.79269666977715 ], [ 105.918561002771924, 20.792818218531554 ], [ 105.918545578191797, 20.792871256748143 ], [ 105.918501639185294, 20.792931473666673 ], [ 105.918421233608271, 20.792991475932876 ], [ 105.918395574900018, 20.793034999190748 ], [ 105.918381502298786, 20.79308929444533 ], [ 105.918374527948572, 20.793217568203929 ], [ 105.918355551353542, 20.793300993589693 ], [ 105.91821019736588, 20.793570127688049 ], [ 105.918162097597417, 20.793626476439847 ], [ 105.918123097007836, 20.793657595451702 ], [ 105.917867821561188, 20.79379084283811 ], [ 105.917791434139119, 20.793854581300391 ], [ 105.917761561268051, 20.793894186716297 ], [ 105.917622373714835, 20.794135365327435 ], [ 105.917570113114721, 20.794187845822989 ], [ 105.917485177326967, 20.794243636743929 ], [ 105.917453110498073, 20.794281202453455 ], [ 105.917432138150346, 20.794329083107016 ], [ 105.91741792967693, 20.794450631783825 ], [ 105.917402504551035, 20.794503669908803 ], [ 105.917358564633176, 20.794563886557881 ], [ 105.917278157743738, 20.794623888326324 ], [ 105.9172524984441, 20.794667411427611 ], [ 105.91723573354507, 20.794752893712111 ], [ 105.917237576631649, 20.795057814887752 ], [ 105.917228927811834, 20.795117153259024 ], [ 105.9171933085657, 20.795185106090248 ], [ 105.917091670541893, 20.795259058619163 ], [ 105.917064904851856, 20.795301553190985 ], [ 105.917050217018129, 20.795355276956514 ], [ 105.917047817170854, 20.795723633158634 ], [ 105.917025779027128, 20.795837902685808 ], [ 105.916708133784056, 20.796452202917628 ], [ 105.916678442326486, 20.796559357212114 ], [ 105.916668125272309, 20.796718214309688 ], [ 105.916653437180628, 20.796771938042845 ], [ 105.916626671115921, 20.796814432553436 ], [ 105.916542944033893, 20.796871348496751 ], [ 105.916510138939955, 20.796908228376562 ], [ 105.916489411793734, 20.796956337482271 ], [ 105.916478152392727, 20.797080628768668 ], [ 105.916463464203389, 20.797134352487134 ], [ 105.916436698024569, 20.797176846970675 ], [ 105.916352970673074, 20.79723376282902 ], [ 105.916308292084835, 20.797293293562923 ], [ 105.916290788924286, 20.79737809008747 ], [ 105.916288205370407, 20.797678897216162 ], [ 105.916278326905115, 20.797737092753639 ], [ 105.916242706659204, 20.797805045405816 ], [ 105.916161928892819, 20.797864703872882 ], [ 105.916117987551928, 20.79792492023558 ], [ 105.916102561664587, 20.797977958252591 ], [ 105.916088351902744, 20.798099506820716 ], [ 105.916067378640193, 20.798147387322139 ], [ 105.916035310664697, 20.79818495279363 ], [ 105.915972076376747, 20.798227232100999 ], [ 105.915929241110717, 20.798288476930125 ], [ 105.915912475146413, 20.798373959092402 ], [ 105.915914315924482, 20.798678880252744 ], [ 105.91590566643751, 20.798738218559567 ], [ 105.915870045805207, 20.798806171141511 ], [ 105.915786656823968, 20.798862794117156 ], [ 105.915755548470742, 20.798898210682712 ], [ 105.915737876050926, 20.798943685974248 ], [ 105.915733639573659, 20.798999219995451 ], [ 105.915743611773152, 20.799058507574816 ], [ 105.915770110823544, 20.799102633193659 ], [ 105.915813136730463, 20.799131596844312 ], [ 105.915872689489561, 20.799145398514618 ], [ 105.916160676459256, 20.799150193043573 ], [ 105.918389495524252, 20.79913357775051 ], [ 105.918490548091611, 20.799126457219401 ], [ 105.91854466915791, 20.799110328894223 ], [ 105.918565441113898, 20.799096885610822 ], [ 105.918594407870245, 20.799059240810006 ], [ 105.918602602671896, 20.799035039294619 ], [ 105.918609242841669, 20.798946998332116 ], [ 105.918623951279031, 20.798896720810479 ], [ 105.918650730393438, 20.798856419135877 ], [ 105.918689580179958, 20.798826093302967 ] ] } },
{ "type": "Feature", "properties": { "id": "shoreline_2018_dry_cleaned_1", "bank_type": "unknown", "length_m": 4520.0, "is_island": false, "year": 2018, "season": "dry", "source": "S1", "processing_version": "1.0" }, "geometry": { "type": "LineString", "coordinates": [ [ 106.003985521020581, 20.704204896479922 ], [ 106.003940345760341, 20.704179749142707 ], [ 106.00389494744968, 20.704120722168568 ], [ 106.003879591626443, 20.704067166882691 ], [ 106.003872958571478, 20.70397120959246 ], [ 106.003845451973817, 20.703895137845016 ], [ 106.003812204576491, 20.703858627300523 ], [ 106.003745932857797, 20.703819485817135 ], [ 106.003700534733781, 20.703760458781815 ], [ 106.003685179020195, 20.703706903472106 ], [ 106.00367854611342, 20.703610946164776 ], [ 106.003651039684684, 20.703534874376494 ], [ 106.003596695885179, 20.703484369672218 ], [ 106.003379989870126, 20.703383989564671 ], [ 106.003325646212573, 20.703333484768084 ], [ 106.003304326807765, 20.703285610980551 ], [ 106.003291507382585, 20.703161455573781 ], [ 106.003276151881082, 20.703107900215564 ], [ 106.003248868661103, 20.703065707982081 ], [ 106.003164482939738, 20.703009731304082 ], [ 106.003131235902316, 20.702973220609802 ], [ 106.003109916613042, 20.702925346791663 ], [ 106.0030970973894, 20.702801191357583 ], [ 106.003081741997534, 20.702747635975527 ], [ 106.00305445889903, 20.702705443704662 ], [ 106.002970073450143, 20.702649466917979 ], [ 106.002936826540108, 20.702612956179539 ], [ 106.00291550736641, 20.702565082330793 ], [ 106.002902688344278, 20.702440926869389 ], [ 106.00287518253505, 20.702364854922486 ], [ 106.002841935712098, 20.702328344161053 ], [ 106.002733472343294, 20.702261213795634 ], [ 106.002683602199511, 20.702206447605619 ], [ 106.002366199911862, 20.70162243714341 ], [ 106.002337481932784, 20.701590135032955 ], [ 106.002302874347137, 20.701574807664702 ], [ 106.002239919933047, 20.701583644247108 ], [ 106.001999114035783, 20.701696570128156 ], [ 106.001882262150659, 20.701722660606048 ], [ 106.00091463391999, 20.701732521694932 ], [ 106.000815673521601, 20.701741567002134 ], [ 106.000704859388009, 20.701773268431158 ], [ 106.000464051961544, 20.701886192221973 ], [ 106.000347199621771, 20.701912281674357 ], [ 105.999379569690475, 20.701922134190671 ], [ 105.99928060903774, 20.701931178624271 ], [ 105.999169794403372, 20.701962879083471 ], [ 105.99892898544789, 20.702075800783927 ], [ 105.998812132653541, 20.702101889210766 ], [ 105.997811514054987, 20.702114747680575 ], [ 105.997730666949266, 20.702140626780068 ], [ 105.997691863701178, 20.702171909127713 ], [ 105.997632370966301, 20.702251309366734 ], [ 105.997560580658487, 20.702285606173643 ], [ 105.997497625597944, 20.702294441044856 ], [ 105.997173571733001, 20.702296317550399 ], [ 105.997083667529239, 20.702313778544919 ], [ 105.997020933938131, 20.702356492946155 ], [ 105.996961440775578, 20.702435892968889 ], [ 105.996889650218961, 20.702470189505057 ], [ 105.99682669503251, 20.702479024135492 ], [ 105.995926544044835, 20.702484231684014 ], [ 105.995827582732559, 20.702493274155881 ], [ 105.99571676687475, 20.702524972436887 ], [ 105.995501394070288, 20.702627860440721 ], [ 105.995449004998761, 20.702646515455477 ], [ 105.995359100351408, 20.702663975565365 ], [ 105.995222623309687, 20.702671822797964 ], [ 105.995165705783947, 20.702686268771146 ], [ 105.995102971474907, 20.702728982499952 ], [ 105.995043477146595, 20.702808381903253 ], [ 105.994971685950219, 20.70284267766306 ], [ 105.994908730467571, 20.702851511602706 ], [ 105.994263638744272, 20.702858060347999 ], [ 105.994206721044392, 20.702872506010419 ], [ 105.994161879015451, 20.702898175617296 ], [ 105.994102384120112, 20.702977574716527 ], [ 105.994063579884852, 20.703008856282558 ], [ 105.994012699948982, 20.703028913868135 ], [ 105.993949744318257, 20.703037747462361 ], [ 105.993880714036763, 20.703035322420746 ], [ 105.993799534484225, 20.703010380119032 ], [ 105.993760325375291, 20.702979548774184 ], [ 105.993699799897868, 20.702900842315671 ], [ 105.993627566792071, 20.702867378057704 ], [ 105.99356450082135, 20.70285927164128 ], [ 105.993240445367718, 20.702861140795935 ], [ 105.993150319626153, 20.702844720027016 ], [ 105.993087033033859, 20.702802733692838 ], [ 105.993026507967542, 20.702724026979112 ], [ 105.992981334832635, 20.702698876670897 ], [ 105.992924233208228, 20.702685088792521 ], [ 105.991958031950986, 20.70268500958035 ], [ 105.991876852860614, 20.702660066350891 ], [ 105.991837644213774, 20.702629234547587 ], [ 105.99177711984531, 20.702550527364206 ], [ 105.991704887294063, 20.702517062274524 ], [ 105.991641821539076, 20.702508955143582 ], [ 105.990674129985933, 20.702510288977184 ], [ 105.990556945068292, 20.702485552218878 ], [ 105.990289111370316, 20.702365685379771 ], [ 105.990171926615375, 20.702340948352028 ], [ 105.989204235737986, 20.702342273882845 ], [ 105.989105164062707, 20.702334372611901 ], [ 105.989019512274325, 20.702313688828603 ], [ 105.988777248347148, 20.702203554721567 ], [ 105.988696069968555, 20.702178609959802 ], [ 105.988601471713864, 20.70216644758305 ], [ 105.988242902293791, 20.702167093676781 ], [ 105.988143830757323, 20.702159191845986 ], [ 105.988032610865915, 20.702128772278954 ], [ 105.987790347888222, 20.70201863674049 ], [ 105.987673163730364, 20.701993897984163 ], [ 105.987281570823058, 20.701991908011269 ], [ 105.987214086945258, 20.701996529966298 ], [ 105.98712418153805, 20.702013985800786 ], [ 105.987071791532429, 20.702032638301201 ], [ 105.986664965314503, 20.702226962071883 ], [ 105.986629178435706, 20.702261048147637 ], [ 105.986629251504795, 20.702272341417647 ], [ 105.986647400694054, 20.702294824825369 ], [ 105.986728761536028, 20.702348003737555 ], [ 105.986765206126748, 20.70241555706626 ], [ 105.986774591331738, 20.7024747951567 ], [ 105.986779766021414, 20.70281075271836 ], [ 105.986795115760842, 20.702864309786108 ], [ 105.986822394508309, 20.70290650481401 ], [ 105.986861602266927, 20.702937337796406 ], [ 105.987078297711662, 20.703037739165179 ], [ 105.987121978923497, 20.703064311313607 ], [ 105.987176317347846, 20.703114821447574 ], [ 105.987232366282882, 20.703197791104703 ], [ 105.987271574197763, 20.703228623986348 ], [ 105.987352752940836, 20.703253569403493 ], [ 105.987484849249142, 20.703264105734576 ], [ 105.987557081316368, 20.703297572614755 ], [ 105.98759032483639, 20.703334086463425 ], [ 105.987699660595723, 20.703536745776304 ], [ 105.987753999378668, 20.703587255710726 ], [ 105.987805136469902, 20.703606726359787 ], [ 105.987937233100752, 20.703617262329789 ], [ 105.987994334702734, 20.703631051864562 ], [ 105.988057620332356, 20.703673040109329 ], [ 105.988118143312462, 20.70375174864963 ], [ 105.988190375742519, 20.703785215247336 ], [ 105.988253441902785, 20.703793323627231 ], [ 105.988577499827713, 20.703791463775179 ], [ 105.988667625750551, 20.703807886932992 ], [ 105.988730911629943, 20.703849874919008 ], [ 105.988791435021213, 20.703928583204171 ], [ 105.988863667671751, 20.703962049509411 ], [ 105.988926733930143, 20.703970157638139 ], [ 105.989538843898913, 20.703966641651107 ], [ 105.989601910183836, 20.703974749531017 ], [ 105.989674143019087, 20.704008215488013 ], [ 105.98975278015557, 20.704103759838045 ], [ 105.989797953223501, 20.704128910993919 ], [ 105.989855055159381, 20.704142699896273 ], [ 105.992516553018149, 20.704130205262157 ], [ 105.992579619479585, 20.704138312042144 ], [ 105.992630757309655, 20.704157781224435 ], [ 105.992669966515891, 20.704188612819308 ], [ 105.992712378478444, 20.704250483536658 ], [ 105.992751587725039, 20.704281315110986 ], [ 105.99280272562352, 20.704300784239049 ], [ 105.992865792166356, 20.704308890910578 ], [ 105.998662834432864, 20.704275372110033 ], [ 105.99872590117802, 20.704283476622965 ], [ 105.998777039758636, 20.704302943945621 ], [ 105.99881625018223, 20.704333774088266 ], [ 105.998858664612712, 20.704395643187471 ], [ 105.998897875076651, 20.704426473309557 ], [ 105.998949013725678, 20.704445940577962 ], [ 105.999012080552205, 20.704454044982423 ], [ 106.003944963604354, 20.704425358919504 ], [ 106.004025866488263, 20.704407946808164 ], [ 106.004057204768785, 20.704382353409404 ], [ 106.004070465471244, 20.704345571763195 ], [ 106.004067176760501, 20.70430182807895 ], [ 106.004051923110993, 20.704263800972988 ], [ 106.004024704529641, 20.704231490441906 ], [ 106.003985521020581, 20.704204896479922 ] ] } }
]
}
